University Name,Category,Campuses,Contact Information,Website,Google Map URL,Latitude,Longitude,Image URL,Established Since,Sector,Chartered By,City,Province,Recognized University,Distance Education
Abasyn University,General,Islamabad; Peshawar,"Peshawar Campus, Ring Road (Charsadda Link), Peshawar. +92-91-258 2934, +92-91- 2248675, +92-91-2247264",http://www.abasyn.edu.pk,https://www.google.com/maps/embed?pb=!1m18!1m12!1m3!1d3300.3033157088207!2d72.03481311474509!3d34.18972581792076!2m3!1f0!2f0!3f0!3m2!1i1024!2i768!4f13.1!3m3!1m2!1s0x38deca256ed2f867%3A0xb13125823db58c!2sAbdul+Wali+Khan+University+Mardan!5e0!3m2!1sen!2s!4v1468670032462,,,/Style%20Library/HEC/images/Placeholder-Image-Content.png,1/12/2007,Private,Government of Khyber Pakhtunkhwa,Peshawar,Khyber Pakhtunkhwa,Yes,No
Abbottabad University of Science and Technology (AUST),General,Mian Campus,"Captain Akaash Rabbani Shaheed Road, Tehsil Havelian, District Abbottabad, Khyber Pakhtunkhwa  +92 (992) 402 117",http://aust.edu.pk,https://www.google.com/maps/embed?pb=!1m18!1m12!1m3!1d3305.043554965926!2d73.14732301476624!3d34.068397724326864!2m3!1f0!2f0!3f0!3m2!1i1024!2i768!4f13.1!3m3!1m2!1s0x38de34eee2011a8f%3A0x9adaae6db5dcc089!2sAbbottabad+University+Of+Science+And+Technology!5e0!3m2!1sen!2s!4v1474965211708,,,/english/universities/PublishingImages/AUST.jpeg,6/1/2015,Public,Government of Khyber Pakhtunkhwa,Abbottabad,Khyber Pakhtunkhwa,Yes,No
Abdul Wali Khan University,General,Mardan,"Garden Campus Toru Road, Mardan. +92-937-843356, +92-937-840499",http://www.awkum.edu.pk,"https://www.google.com/maps/place/Abdul+Wali+Khan+University+Mardan+(+AWKUM+-+Garden+Campus+)/@34.1414521,72.0466476,15z/data=!4m2!3m1!1s0x0:0x2a74fe7d04c5d2c5?sa=X&ved=1t:2428&ictx=111",,,/Style%20Library/HEC/images/Placeholder-Image-Content.png,2/25/2009,Public,Government of Khyber Pakhtunkhwa,Mardan,Khyber Pakhtunkhwa,Yes,No
Aga Khan University,General,Karachi,"Stadium Road, Karachi 74800 +92-21-34863902, +92-21-34863900, +92-21-34863901, +92-21-34930051, +92-21-34932094",http://www.aku.edu/,https://www.google.com/maps/embed?pb=!1m18!1m12!1m3!1d3619.159132320841!2d67.07182391452413!3d24.892553050102087!2m3!1f0!2f0!3f0!3m2!1i1024!2i768!4f13.1!3m3!1m2!1s0x3eb33edcf21c1bc9%3A0xd51802ed8f0ac36c!2sAga+Khan+University!5e0!3m2!1sen!2s!4v1468933498318,,,/Style%20Library/HEC/images/Placeholder-Image-Content.png,3/2/1983,Private,Government of Pakistan,Karachi,Sindh,Yes,No
"Air University, Islamabad",General,Mian Campus; Kamra; Kharian; Lahore; Multan,"Main Campus, Sector E-9, Islamabad.  +92-51-9262557-9",http://www.au.edu.pk/,https://www.google.com/maps/embed?pb=!1m18!1m12!1m3!1d3318.8103728409487!2d73.02247351456579!3d33.71385538069931!2m3!1f0!2f0!3f0!3m2!1i1024!2i768!4f13.1!3m3!1m2!1s0x38dfbe5967d48243%3A0xcb2c90c562c4687e!2sAir+University!5e0!3m2!1sen!2s!4v1466927516643,,,/english/universities/PublishingImages/Islamabad/air%20university.jpg,10/29/2002,Public,Government of Pakistan,Islamabad,Islamabad Capital Territory,Yes,No
"Air War College Institute, Karachi",General,Mian Campus,Civil Number +92-21-99541500 Exchange : +92-21-99547569 Fax : +92-21-99240375 Email : support@awci.edu.pk,https://awci.edu.pk/,https://www.google.com/maps/embed?pb=!1m18!1m12!1m3!1d3619.262803636224!2d67.11187881447806!3d24.889015850243283!2m3!1f0!2f0!3f0!3m2!1i1024!2i768!4f13.1!3m3!1m2!1s0x3eb3393ee36cee2f%3A0x36b97ff0fad21ff4!2sAir%20War%20College%20Institute!5e0!3m2!1sen!2s!4v1621855925986!5m2!1sen!2s,,,/english/universities/PublishingImages/Sindh/Air%20War%20College%20Institute.jpg,1/21/2021,Public,Government of Pakistan,Karachi,Sindh,Yes,No
"Al-Ghazali University, Karachi",General,Mian Campus,"Plot # AS V/6, Sector V, Shahrah-e-Mullah Jewan, Ahsanabad Cooperative Housing Society, Karachi Tel # 0092-21-36881900 Email: info@alghazaliuniversity.edu.pk",http://www.alghazaliuniversity.edu.pk/,https://www.google.com/maps/embed?pb=!1m18!1m12!1m3!1d3615.9840026120955!2d67.11128247451339!3d25.000659539634896!2m3!1f0!2f0!3f0!3m2!1i1024!2i768!4f13.1!3m3!1m2!1s0x3eb347e485bda19d%3A0x7571c08596ad3548!2sAl-Ghazali%20University!5e0!3m2!1sen!2s!4v1692779891355!5m2!1sen!2s,,,/english/universities/PublishingImages/Placeholder-Image-Content.png,12/8/2022,Private,Government of Sindh,Karachi,Sindh,Yes,No
Al-Hamd Islamic University,General,Quetta,"Airport Road Quetta, Baleli Road, Quetta, Pakistan +92-81-2301771-6, 4, 3,2",http://www.aiu.edu.pk,https://www.google.com/maps/embed?pb=!1m18!1m12!1m3!1d3446.5810391496766!2d66.97711771464233!3d30.249021815835256!2m3!1f0!2f0!3f0!3m2!1i1024!2i768!4f13.1!3m3!1m2!1s0x3ed31fe10b1cde7b%3A0x6e76dd15bea2aabf!2sAlhamd+Islamic+University!5e0!3m2!1sen!2s!4v1468610776747,,,/Style%20Library/HEC/images/Placeholder-Image-Content.png,4/20/2005,Private,Government of Balochistan,Quetta,Balochistan,Yes,No
Ali Institute of Education,General,Lahore,"Shahrah-e-Roomi (Ferozpur Road), Lahore 54000. +92-42-35885065, +92-42-35882913, +92-42-35837080",http://www.aie.edu.pk/,https://www.google.com/maps/embed?pb=!1m18!1m12!1m3!1d3402.4040585046414!2d74.33841291467317!3d31.4855757560107!2m3!1f0!2f0!3f0!3m2!1i1024!2i768!4f13.1!3m3!1m2!1s0x3919043ca58a69ed%3A0xead888426fface6c!2sAli+Institute+of+Education!5e0!3m2!1sen!2s!4v1468740443740,,,/Style%20Library/HEC/images/Placeholder-Image-Content.png,2/15/2010,Private,Government of Punjab,Lahore,Punjab,Yes,No
"Al-Karam International Institute, Bhera",General,Mian Campus,"Bhera Distt Sargodha Punjab Pakistan Tel # +92 302-3723246, +92 331-5353320,  Email: info@akii.edu.pk",https://akii.edu.pk/,https://www.google.com/maps/embed?pb=!1m18!1m12!1m3!1d10380.738094181303!2d72.90620148230813!3d32.48504657139191!2m3!1f0!2f0!3f0!3m2!1i1024!2i768!4f13.1!3m3!1m2!1s0x3921b1d3fe4bbd57%3A0x10a53b1e59c1afce!2sAl-Karam%20International%20Institute%20-%20Bhera!5e0!3m2!1sen!2s!4v1660563127386!5m2!1sen!2s,,,"/english/universities/PublishingImages/Al%20Karam%20Institute,%20Bhera.png",1/12/2021,Private,Government of Pakistan,Bhera,Punjab,Yes,No
"Al-Kawthar University, Karachi",General,Mian Campus,"Street # 9, Block 7, Main University Road, Opposite Safari Park, Gulshan-e-Iqbal, Karachi East. Pakistan Tel # +92-312-6311110 Email: info@alkawthar.pk",https://www.alkawthar.pk/,https://www.google.com/maps/embed?pb=!1m18!1m12!1m3!1d7236.399762434504!2d67.1050953132141!3d24.92525979923521!2m3!1f0!2f0!3f0!3m2!1i1024!2i768!4f13.1!3m3!1m2!1s0x3eb339b1454b477f%3A0xb3c11c2abeb978c6!2sAl-Kawthar%20University!5e0!3m2!1sen!2s!4v1718945137014!5m2!1sen!2s,,,/english/universities/PublishingImages/Al-Kawthar%20University.png,7/10/2023,Private,Government of Sindh,Karachi,Sindh,Yes,No
Al-Khair University,General,Bhimber,"University Road, Bhimber (AJK) +92-5828-454085, +92-355-6103355",http://alkhair.edu.pk/new/,https://www.google.com/maps/embed?pb=!1m18!1m12!1m3!1d3340.9114599510544!2d73.77150941454654!3d33.137690580864614!2m3!1f0!2f0!3f0!3m2!1i1024!2i768!4f13.1!3m3!1m2!1s0x391febbdb02daa47%3A0x4eb281703dba8037!2sAl-Khair+University+AJK!5e0!3m2!1sen!2s!4v1467441717250,,,/Style%20Library/HEC/images/Placeholder-Image-Content.png,7/4/1994,Private,Government of AJK,Bhimber,Azad Jammu & Kashmir,Yes,No
Allama Iqbal Open University,General,Abbottabad; Islamabad,Address : Allama Iqbal Open University Sector H-8 Islamabad E-mail : support@aiou.edu.pk Call : +92-51-111-112-468,http://www.aiou.edu.pk,https://www.google.com/maps/embed?pb=!1m18!1m12!1m3!1d13280.057959640892!2d73.04682326676867!3d33.68268898070809!2m3!1f0!2f0!3f0!3m2!1i1024!2i768!4f13.1!3m3!1m2!1s0x38dfbfd916b82f59%3A0xdcb4b6f257eaac74!2sAllama+Iqbal+Open+University-Official!5e0!3m2!1sen!2s!4v1466856411191,,,/english/universities/PublishingImages/Islamabad/AIOU-Allama%20Iqbal%20Open%20University.png,7/5/1984,Public,Government of Pakistan,Islamabad,Islamabad Capital Territory,Yes,Yes
"Aror University of Art, Architecture, Design and Heritage, Sukkur",Arts & Design,Mian Campus,"RCW Rohri Bypass, Sukkur, Sindh-Pakistan Tel # 0092-71-9311300 Email: info@aroruniversitysindh.edu.pk",https://aroruniversitysindh.edu.pk/,https://www.google.com/maps/embed?pb=!1m18!1m12!1m3!1d3533.8111016753046!2d68.89828141434627!3d27.661315482811005!2m3!1f0!2f0!3f0!3m2!1i1024!2i768!4f13.1!3m3!1m2!1s0x3935d5067709454b%3A0x7e32c95e35857f31!2zQXJvciBVbml2ZXJzaXR5IG9mIEFydCwgQXJjaGl0ZWN0dXJlLCBEZXNpZ24gYW5kIEhlcml0YWdlcyBTdWtrdXIg2KfYsdmI2pkg2YrZiNmG2YrZiNix2LPZvdmKINii2YEg2KLYsdm92Iwg2KLYsdqq2YrZvdmK2qrahtix2Iwg2orZitiy2KfYptmGINu9INmH2YrYsdmK2b3Zitis2LIg2LPZg9ix!5e0!3m2!1sen!2s!4v1660623289850!5m2!1sen!2s,,,/english/universities/PublishingImages/Aror%20University.png,7/15/2020,Public,Government of Sindh,Sukkur,Sindh,Yes,No
"Baba Guru Nanak University, Nankana Sahib",General,Mian Campus,"Adampura, Nankana Sahib, Punjab, Pakistan 39100 Tel # +92-56-3549566 Email: info@bgnu.edu.pk",https://bgnu.edu.pk/,https://www.google.com/maps/embed?pb=!1m18!1m12!1m3!1d3402.092541611908!2d73.72249357476927!3d31.494140048439025!2m3!1f0!2f0!3f0!3m2!1i1024!2i768!4f13.1!3m3!1m2!1s0x391891c685a4a749%3A0x5bbfd63f9fba288!2sBaba%20Guru%20Nanak%20University%20(BGNU)!5e0!3m2!1sen!2s!4v1701924872758!5m2!1sen!2s,,,/english/universities/PublishingImages/Baba%20Guru%20Nanak%20University.png,7/2/2020,Public,Government of Punjab,Nankana Sahib,Punjab,Yes,No
Bacha Khan University,General,Charsada,"Palosa, Charsadda. +92-91-6540062",http://www.bkuc.edu.pk,https://www.google.com/maps/embed?pb=!1m18!1m12!1m3!1d3302.368592408826!2d71.83604381474363!3d34.13691092071176!2m3!1f0!2f0!3f0!3m2!1i1024!2i768!4f13.1!3m3!1m2!1s0x38d936923d154701%3A0x45699948986964d3!2sBacha+Khan+University!5e0!3m2!1sen!2s!4v1468671181735,,,/english/universities/PublishingImages/Placeholder-Image-Content.png,3/7/2012,Public,Government of Khyber Pakhtunkhwa,Charsada,Khyber Pakhtunkhwa,Yes,No
"Bahauddin Zakariya University (BZU), Multan",General,Multan; Sahiwal,"Bosan Road, Multan +92-61-9210069",http://www.bzu.edu.pk/,https://www.google.com/maps/embed?pb=!1m18!1m12!1m3!1d3446.0600944884236!2d71.50788791464265!3d30.263868915129418!2m3!1f0!2f0!3f0!3m2!1i1024!2i768!4f13.1!3m3!1m2!1s0x393b34c13413d3ed%3A0xc2efb8e4b3db1f58!2sBahauddin+Zakariya+University!5e0!3m2!1sen!2s!4v1468741400206,,,/Style%20Library/HEC/images/Placeholder-Image-Content.png,3/4/1975,Public,Government of Punjab,Multan,Punjab,Yes,No
Bahria University,General,Islamabad; Karachi; Lahore,"Shangrilla Road, Sector E-8 Islamabad +92-51-111-111-028",http://www.bahria.edu.pk/,https://www.google.com/maps/embed?pb=!1m18!1m12!1m3!1d3318.7398874537544!2d73.02723881434694!3d33.71567898069878!2m3!1f0!2f0!3f0!3m2!1i1024!2i768!4f13.1!3m3!1m2!1s0x38dfbef8c137888d%3A0xc3ccfd031ad14ba6!2sBahria+University!5e0!3m2!1sen!2s!4v1466859839637,,,/Style%20Library/HEC/images/Placeholder-Image-Content.png,2/7/2000,Public,Government of Pakistan,Islamabad,Islamabad Capital Territory,Yes,No
Balochistan University of Engineering & Technology,General,Khuzdar,"Balochistan University of Engg & Technology (BUET), Khuzdar. +92-848-412834, +92-848-5021000",http://www.buetk.edu.pk,https://www.google.com/maps/embed?pb=!1m18!1m12!1m3!1d3528.6971515684704!2d66.62587621458563!3d27.81909142718014!2m3!1f0!2f0!3f0!3m2!1i1024!2i768!4f13.1!3m3!1m2!1s0x3ecb76056f8b1dc5%3A0x95ab75585b9100c6!2sBalochistan+University+of+Engineering+and+Technology!5e0!3m2!1sen!2s!4v1468611482391,,,/Style%20Library/HEC/images/Placeholder-Image-Content.png,8/3/1994,Public,Government of Balochistan,Khuzdar,Balochistan,Yes,No
"Balochistan University of Information Technology, Engineering & Management Sciences (BUITEMS)",Engineering & Technology,Quetta,"Airport Road, Baleli, Quetta +92-81-2881042081, +92-81-9202463, +92-81-9201051",http://www.buitms.edu.pk,https://www.google.com/maps/embed?pb=!1m18!1m12!1m3!1d3445.913289547483!2d66.93802701464288!3d30.268051714930454!2m3!1f0!2f0!3f0!3m2!1i1024!2i768!4f13.1!3m3!1m2!1s0x3ed31e4efcd49773%3A0x43313d2851abe590!2sBalochistan+University+of+Information+Technology%2C+Engineering+%26+Management+Sciences!5e0!3m2!1sen!2s!4v1468612229690,,,/english/universities/PublishingImages/BUITEMS.jpg,7/18/2002,Public,Government of Balochistan,Quetta,Balochistan,Yes,No
Baqai Medical University,General,Karachi,"51, Deh Tor, Toll Plaza, Super Highway, Gadap Road, Karachi +92-21-34410-311, +92-21-34410-293-298, +92-21-34410427-28",http://www.baqai.edu.pk/,https://www.google.com/maps/embed?pb=!1m18!1m12!1m3!1d3616.3663589127373!2d67.211663214526!3d24.987664296302416!2m3!1f0!2f0!3f0!3m2!1i1024!2i768!4f13.1!3m3!1m2!1s0x3eb3483e28db8a9b%3A0x4118818c4c532b00!2sBaqai+Medical+University%2C+Karachi%2C+Pakistan!5e0!3m2!1sen!2s!4v1468945514321,,,/Style%20Library/HEC/images/Placeholder-Image-Content.png,5/26/1996,Private,Government of Sindh,Karachi,Sindh,Yes,No
Beaconhouse National University,General,Lahore,"13 KM Raiwaind Road, Near Jati Umrah Road, Lahore 54400. +92-42-38100156",http://www.bnu.edu.pk/,https://www.google.com/maps/embed?pb=!1m18!1m12!1m3!1d3406.791709609908!2d74.21318831467009!3d31.364726561950274!2m3!1f0!2f0!3f0!3m2!1i1024!2i768!4f13.1!3m3!1m2!1s0x391855549698f6f7%3A0x4ffb44644f967144!2sBeaconhouse+National+University+Tarogil+Campus!5e0!3m2!1sen!2s!4v1468741979411,,,/Style%20Library/HEC/images/Placeholder-Image-Content.png,7/2/2005,Private,Government of Punjab,Lahore,Punjab,Yes,No
"Begum Nustrat Bhutto Women University, Sukkur",General,Mian Campus,"National Highway, Rohri Bypass, Sukkur Tel # +92-71-9311200 Fax # +92-71-9311201",https://www.bnbwu.edu.pk/,https://www.google.com/maps/embed?pb=!1m18!1m12!1m3!1d3533.7605928930516!2d68.91947291460835!3d27.662877834052697!2m3!1f0!2f0!3f0!3m2!1i1024!2i768!4f13.1!3m3!1m2!1s0x39367fae3d37249d%3A0x6e71aa7dbfc1dc8d!2sBegum%20Nusrat%20Bhutto%20Woman%20University%20Sukkur%20-%20Main%20Campus!5e0!3m2!1sen!2s!4v1600167398485!5m2!1sen!2s,,,/english/universities/PublishingImages/Begum%20Nusrat%20Bhutto%20University.jpg,6/7/2018,Public,Government of Sindh,Sukkur,Sindh,Yes,No
Benazir Bhutto Shaheed University Lyari,General,Karachi,"Fakir Muhammad Dura Khan Road, Near “Kashti Chowk” Lyari, Karachi, Postal Code: 75660. +92-21-32744020, +92-21-32744021, +92-21-32742581",http://www.bbsul.edu.pk/,https://www.google.com/maps/embed?pb=!1m18!1m12!1m3!1d3619.8717653359695!2d67.00393471452367!3d24.868228951071643!2m3!1f0!2f0!3f0!3m2!1i1024!2i768!4f13.1!3m3!1m2!1s0x3eb33e2209666b9f%3A0xc4fff7ccafc0ec80!2sBenazir+Bhutto+Shaheed+University%2C+Lyari!5e0!3m2!1sen!2s!4v1468945855375,,,/Style%20Library/HEC/images/Placeholder-Image-Content.png,1/28/2010,Public,Government of Sindh,Karachi,Sindh,Yes,No
"Benazir Bhutto Shaheed University of Technology & Skill Development, Khairpur Mirs",Engineering & Technology,Khairpur,Station Road Near Mil Colony Khairpur MiRS Khairpur Khairpur Mirs,https://www.under%20process.pk/,https://www.google.com/maps/embed?pb=!1m14!1m8!1m3!1d14154.39850850852!2d68.7426956!3d27.5128244!3m2!1i1024!2i768!4f13.1!3m3!1m2!1s0x0%3A0xb83242b154993fc3!2sBenazir%20Bhutto%20Shaheed%20University%20of%20Technology%20and%20Skill%20Development%20(BBSUTSD)%20Khairpur%20Mirs!5e0!3m2!1sen!2s!4v1635931364012!5m2!1sen!2s,,,/english/universities/PublishingImages/Placeholder-Image-Content.png,4/22/2016,Public,Government of Sindh,Khairpur,Sindh,Yes,No
Brains Institute Peshawar,General,Peshawar,"Phase III Chowk, Jamrud Road, Peshawar Tel: +92-91-5611637, 0336-5700036 Email: info@brains.edu.pk",http://brains.edu.pk,https://www.google.com/maps/embed?pb=!1m18!1m12!1m3!1d3307.7884348685415!2d71.45819471468262!3d33.99796758062065!2m3!1f0!2f0!3f0!3m2!1i1024!2i768!4f13.1!3m3!1m2!1s0x38d910db91c4d1bd%3A0x5d9d866157d2c49c!2sBrains+Post+Graduate+College+And+University!5e0!3m2!1sen!2s!4v1539591503094&quot;,,,/english/universities/PublishingImages/Brains%20Institute%20Peshawar.png,10/20/2016,Private,Government of Khyber Pakhtunkhwa,Peshawar,Khyber Pakhtunkhwa,Yes,No
Capital University of Science & Technology,General,Islamabad,"Capital University of Science & Technology Islamabad Expressway,  Kahuta Road, Zone-V  Islamabad. +92-51-2512800-1, +92-51-4486700-4, +92-51-111-555-666",http://www.cust.edu.pk/,https://www.google.com/maps/embed?pb=!1m18!1m12!1m3!1d3325.2530223316508!2d73.18182121456017!3d33.54680178074638!2m3!1f0!2f0!3f0!3m2!1i1024!2i768!4f13.1!3m3!1m2!1s0x38dfedbd34b0d39f%3A0xcb4fb523ae9db9c2!2sCapital+University+of+Science+and+Technology!5e0!3m2!1sen!2s!4v1466928447812,,,/Style%20Library/HEC/images/Placeholder-Image-Content.png,9/28/2015,Private,Government of Pakistan,Islamabad,Islamabad Capital Territory,Yes,No
CECOS University of Information Technology & Emerging Sciences,General,Peshawar,"CECOS University, Phase 6, Sector F-5, Hayatabad, Peshawar. +92-91-5864291",http://www.cecos.edu.pk,https://www.google.com/maps/embed?pb=!1m18!1m12!1m3!1d3309.089849842069!2d71.4429116147388!3d33.96453002979562!2m3!1f0!2f0!3f0!3m2!1i1024!2i768!4f13.1!3m3!1m2!1s0x38d9109c649f6d1f%3A0xc25ef7d588164393!2sCECOS+University+of+Information+Technology+and+Emerging+Sciences!5e0!3m2!1sen!2s!4v1468671813877,,,/english/universities/PublishingImages/Placeholder-Image-Content.png,8/30/2001,Private,Government of Khyber Pakhtunkhwa,Peshawar,Khyber Pakhtunkhwa,Yes,No
"Cholistan University of Veterinary and Animal Sciences, Bahawalpur",Agriculture & Veterinary,Bahawal Pur,"Cholistan University of Veterinary & Animal Sciences, Near DHA, Bahawalpur, Punjab-Pakistan Tel: +92-062- 9255716 Email: registrar@cuvas.edu.pk",http://www.cuvas.edu.pk,https://www.google.com/maps/embed?pb=!1m18!1m12!1m3!1d3478.541314602243!2d71.64253055006016!3d29.325127682062085!2m3!1f0!2f0!3f0!3m2!1i1024!2i768!4f13.1!3m3!1m2!1s0x393b941fe161987b%3A0xfcc55b5c0b8175b9!2sCholistan+University+of+Veterinary+and+animal+Sciences!5e0!3m2!1sen!2s!4v1554806904266!5m2!1sen!2s&quot,,,/english/universities/PublishingImages/CUVAS%20Bahawalpur-1.jpg,5/4/2018,Public,Government of Punjab,Bahawal Pur,Punjab,Yes,No
City University of Science and Information Technology,General,Peshawar,"Dalazak Road, Peshawar. +92-91-2609501-8",http://www.cityuniversity.edu.pk,https://www.google.com/maps/embed?pb=!1m18!1m12!1m3!1d3306.2695171660475!2d71.61712361474085!3d34.03695692598386!2m3!1f0!2f0!3f0!3m2!1i1024!2i768!4f13.1!3m3!1m2!1s0x38d93daccda395f3%3A0xc147b84fa6b207de!2sCity+University+of+Science+and+Information+Technology!5e0!3m2!1sen!2s!4v1470031622795,,,/Style%20Library/HEC/images/IMG_2855.jpg,8/30/2001,Private,Government of Khyber Pakhtunkhwa,Peshawar,Khyber Pakhtunkhwa,Yes,No
Commecs Institute of Business & Emerging Sciences,General,Karachi,"Plot No. 40-B, Block-6, PECHS, Karachi. +92-21-34634104, +92-21-34320077 +92-21-34320074-76, +92-21-34615357-59",http://www.commecsinstitute.edu.pk/,https://www.google.com/maps/embed?pb=!1m18!1m12!1m3!1d3618.603682175154!2d67.12795761452445!3d24.91149664934641!2m3!1f0!2f0!3f0!3m2!1i1024!2i768!4f13.1!3m3!1m2!1s0x3eb338fd4dcbe3b3%3A0x4288533d1c8676b2!2sCOMMECS+College!5e0!3m2!1sen!2s!4v1468946192038,,,/Style%20Library/HEC/images/Placeholder-Image-Content.png,2/18/2010,Private,Government of Sindh,Karachi,Sindh,Yes,No
"COMSATS University, Islamabad",General,Mian Campus; Abbottabad; Attock; Lahore; Sahiwal; Vehari,"Park Road, Tarlai Kalan, Islamabad 45550, Pakistan +92-51-9247000-9247002  +92-51-111-001-007",https://www.comsats.edu.pk/,https://www.google.com/maps/embed?pb=!1m18!1m12!1m3!1d3321.205905458121!2d73.15440461456367!3d33.65182628071665!2m3!1f0!2f0!3f0!3m2!1i1024!2i768!4f13.1!3m3!1m2!1s0x38dfea4aee5bdf8f%3A0xe6b55e05d462beb1!2sCOMSATS+Institute+of+Information+Technology!5e0!3m2!1sen!2s!4v1466928931734,,,/english/universities/PublishingImages/COMSATS%20University%20Islamabad.jpeg,8/12/2000,Public,Government of Pakistan,Islamabad,Islamabad Capital Territory,Yes,No
Dadabhoy Institute of Higher Education,General,Karachi,"SNPA-17/B, Block 3, P.E.C.H.Society,Shaheed-e-Millat Road, Karachi. +92-21-34389108, +92-21-111-020-304.",http://www.dadabhoy.edu.pk/,https://www.google.com/maps/embed?pb=!1m18!1m12!1m3!1d3618.7802008958583!2d67.07275481452439!3d24.905477949586505!2m3!1f0!2f0!3f0!3m2!1i1024!2i768!4f13.1!3m3!1m2!1s0x3eb33f213cffffff%3A0x91ac2c245fd4319c!2sDadabhoy+Institute+of+Higher+Education!5e0!3m2!1sen!2s!4v1468947080372,,,/english/universities/PublishingImages/Dadabhoy%20Karachi.png,1/12/2004,Private,Government of Sindh,Karachi,Sindh,Yes,No
"Dar-ul-Madina International University, Islamabad",General,Mian Campus,"G 11 Markaz, Shabbir Sharif Road,  Islamabad. UAN Number: (051) 111 252 692, (051) 8745786 Email: ps.vc@darulmadinah.net",https://www.dmiu.edu.pk,https://www.google.com/maps/embed?pb=!1m18!1m12!1m3!1d3320.5378414034903!2d72.99882387479606!3d33.66913503786402!2m3!1f0!2f0!3f0!3m2!1i1024!2i768!4f13.1!3m3!1m2!1s0x38df955e3c7ef079%3A0x9d56fe7dbe6ecce0!2sDarul%20Madina%20International%20University%20Islamabad!5e0!3m2!1sen!2s!4v1704347172810!5m2!1sen!2s,,,/english/universities/PublishingImages/Dar%20ul%20Madina%20International%20University.png,3/14/2013,Private,Government of Pakistan,Islamabad,Islamabad Capital Territory,Yes,No
Dawood University of Engineering & Technology,Engineering & Technology,Karachi,"M.A. Jinnah Road, Karachi 74800. +92-21-99230701, +92-21-99231195 - 98",http://www.duet.edu.pk/,https://www.google.com/maps/embed?pb=!1m18!1m12!1m3!1d3618.938469796258!2d67.07954836452429!3d24.900080349801872!2m3!1f0!2f0!3f0!3m2!1i1024!2i768!4f13.1!3m3!1m2!1s0x3eb33ed9d335fbc9%3A0x71e1566814a0627b!2sDawood+University+of+Engineering+%26+Technology%2C+Karachi%2C+Pakistan!5e0!3m2!1sen!2s!4v1468947622890,,,/english/universities/PublishingImages/Dawood%20UET%20Karachi.png,10/31/2007,Public,Government of Pakistan,Karachi,Sindh,Yes,No
DHA Suffa University,General,Karachi,"DG-78, Off Khayaban-e-Tufail, Ph-VII (Ext),DHA, Karachi-75500. +92-21-35244875",http://www.dsu.edu.pk/,https://www.google.com/maps/embed?pb=!1m18!1m12!1m3!1d3621.4378130684086!2d67.07740921452262!3d24.814697053202487!2m3!1f0!2f0!3f0!3m2!1i1024!2i768!4f13.1!3m3!1m2!1s0x3eb33c62f239e641%3A0x4e41a2d7dd487cfc!2sDHA+Suffa+University!5e0!3m2!1sen!2s!4v1468947941060,,,/Style%20Library/HEC/images/Placeholder-Image-Content.png,5/27/2002,Private,Government of Sindh,Karachi,Sindh,Yes,No
DOW University of Health Sciences,General,Karachi,"Baba-E-Urdu Road, Karachi 74200. +92-21-99215754-7 +92-21-32715441-466",http://www.duhs.edu.pk/,https://www.google.com/maps/embed?pb=!1m18!1m12!1m3!1d3620.180635483527!2d67.00871281452343!3d24.857679451491997!2m3!1f0!2f0!3f0!3m2!1i1024!2i768!4f13.1!3m3!1m2!1s0x3eb33e0ffe49d2b9%3A0xf6264a8f9f3130fc!2sDow+University+of+Health+Sciences!5e0!3m2!1sen!2s!4v1468948290686,,,/Style%20Library/HEC/images/Placeholder-Image-Content.png,12/17/2005,Public,Government of Sindh,Karachi,Sindh,Yes,No
"Emaan Institute of Management & Sciences, Karachi",General,Mian Campus,"Plot No.A-2, Sector 28, Suparco Road, Gulzar E Hijri Scheme 33, Karachi-Pakistan Tel # 0092-21-34999200-2 Emal: info@emaan.edu.pk; hr@emaan.edu.pk",http://www.emaan.edu.pk,https://www.google.com/maps/embed?pb=!1m14!1m8!1m3!1d14470.215487073541!2d67.1327327!3d24.9472636!3m2!1i1024!2i768!4f13.1!3m3!1m2!1s0x0%3A0xb2e46cb7217938ca!2sEmaan%20Institute%20of%20Management%20and%20Sciences!5e0!3m2!1sen!2s!4v1660718607078!5m2!1sen!2s,,,/english/universities/PublishingImages/Emaan%20Institute%20Karachi.jfif,5/28/2018,Private,Government of Sindh,Karachi,Sindh,Yes,No
"Emerson University, Multan",General,Mian Campus,"Bosan Road, Near Gol Bagh, Multan-Pakistan Tel # 0092 - 61 - 9210037 Email:  info@eum.edu.pk",https://eum.edu.pk/,https://www.google.com/maps/embed?pb=!1m18!1m12!1m3!1d3447.5031338588724!2d71.474698314598!3d30.222725617084524!2m3!1f0!2f0!3f0!3m2!1i1024!2i768!4f13.1!3m3!1m2!1s0x393b338a0b41bcdb%3A0x30b022d117133795!2sEmerson%20University%20Multan!5e0!3m2!1sen!2s!4v1664354358152!5m2!1sen!2s,,,/english/universities/PublishingImages/Emerson%20University.jfif,5/17/2021,Public,Government of Punjab,Multan,Punjab,Yes,No
"Faisalabad Medical University, Faisalabad",Medical,Mian Campus,"Sargodha Road, Faisalabad-Punjab Pakistan Tel # +92 41 9210080 Email: vcfmuf@gmail.com",http://www.pmc.edu.pk/,https://www.google.com/maps/embed?pb=!1m18!1m12!1m3!1d3403.6058053120237!2d73.0815224146026!3d31.452517457637572!2m3!1f0!2f0!3f0!3m2!1i1024!2i768!4f13.1!3m3!1m2!1s0x39224279d366579b%3A0xdb56c457951d073b!2sFaisalabad%20Medical%20University!5e0!3m2!1sen!2s!4v1574311175576!5m2!1sen!2s,,,/english/universities/PublishingImages/Placeholder-Image-Content.png,9/28/2017,Public,Government of Punjab,Faisalabad,Punjab,Yes,No
"Fatima Jinnah Medical University, Lahore",Medical,Lahore,"Prof. Khalid Masud Gondal Vice Chancellor Shara-I-Fatima Jinnah ,Queens Road Lahore  Telephone# 99200572-8, 99203718 111-222-572",http://www.fjmu.edu.pk/,https://www.google.com/maps/embed?pb=!1m18!1m12!1m3!1d3399.877746130356!2d74.31751551476083!3d31.554969581358094!2m3!1f0!2f0!3f0!3m2!1i1024!2i768!4f13.1!3m3!1m2!1s0x391904ac25ae6a55%3A0x2085abebcd169bce!2sFatima+Jinnah+Medical+University!5e0!3m2!1sen!2s!4v1514457609564,,,/english/universities/PublishingImages/FJMU.jpeg,7/1/2015,Public,Government of Punjab,Lahore,Punjab,Yes,No
Fatima Jinnah Women University,General,Rawalpindi,"The Mall, Old Presidency, Rawalpindi +92-51-9292901, +92-51-9292902, +92-51-9292 900",http://www.fjwu.edu.pk/,https://www.google.com/maps/embed?pb=!1m18!1m12!1m3!1d3323.728064733942!2d73.0623198147285!3d33.58640914958259!2m3!1f0!2f0!3f0!3m2!1i1024!2i768!4f13.1!3m3!1m2!1s0x38df935d88751e21%3A0x6d71a383fef3e118!2sFatima+Jinnah+Women+University!5e0!3m2!1sen!2s!4v1468742515441,,,/Style%20Library/HEC/images/Placeholder-Image-Content.png,8/9/1999,Public,Government of Punjab,Rawalpindi,Punjab,Yes,No
"Federal Urdu University of Arts, Sciences & Technology",General,Islamabad; Karachi,"Sector G-7/1, Near Zero Point,Islamabad. +92-51-9252860-64",http://www.fuuastisb.edu.pk/,https://www.google.com/maps/embed?pb=!1m18!1m12!1m3!1d3319.4003029054643!2d73.06904511456521!3d33.69858928070365!2m3!1f0!2f0!3f0!3m2!1i1024!2i768!4f13.1!3m3!1m2!1s0x38dfbfec16c10e65%3A0xfef10fa74d46d99b!2sFederal+Urdu+University+of+Arts%2C+Sciences+%26+Technology+-+Islamabad+Campus!5e0!3m2!1sen!2s!4v1466929483707,,,/english/universities/PublishingImages/Urdu%20University.jpg,11/13/2002,Public,Government of Pakistan,Islamabad,Islamabad Capital Territory,Yes,No
Forman Christian College,General,Lahore,"Ferozpur Road, Lahore +92-42-99230782, +92-42-99231581-88",http://www.fccollege.edu.pk/,https://www.google.com/maps/embed?pb=!1m18!1m12!1m3!1d3401.0991789740133!2d74.3316307146741!3d31.52143585424436!2m3!1f0!2f0!3f0!3m2!1i1024!2i768!4f13.1!3m3!1m2!1s0x3919048b496a35a5%3A0x8a16719091174271!2sForman+Christian+College+(A+Chartered+University)!5e0!3m2!1sen!2s!4v1468743021529,,,/Style%20Library/HEC/images/Placeholder-Image-Content.png,10/12/2004,Private,Government of Punjab,Lahore,Punjab,Yes,No
Foundation University,General,Islamabad,"Defence Avenue, Phase-I, DHA,Islamabad +92-51-5788171, +92-51-5788250",http://www.fui.edu.pk/,https://www.google.com/maps/embed?pb=!1m18!1m12!1m3!1d212517.07988126494!2d72.89780862252364!3d33.66805922794079!2m3!1f0!2f0!3f0!3m2!1i1024!2i768!4f13.1!3m3!1m2!1s0x38dfed0515733cc3%3A0xaf0657755cd06a63!2sFoundation%20University!5e0!3m2!1sen!2s!4v1703066579026!5m2!1sen!2s,,,/english/universities/PublishingImages/Foundation%20University.jpeg,10/25/2002,Private,Government of Pakistan,Islamabad,Islamabad Capital Territory,Yes,No
Gambat Institute of Medical Sciences,General,Khairpur,"Gambat Institute of Medical Sciences, Gambat Station Road, Pakistan. +92-243-640160",http://www.xyz.edu.pk,https://www.google.com/maps/embed?pb=!1m18!1m12!1m3!1d3543.993488969716!2d68.53902341457515!3d27.344672047944197!2m3!1f0!2f0!3f0!3m2!1i1024!2i768!4f13.1!3m3!1m2!1s0x3935c010bd38ce3f%3A0xe225aa13b7a8b38a!2sGambat+Institute+of+Medical+Sciences%2C+Gambat+Station+Rd%2C+Pakistan!5e0!3m2!1sen!2s!4v1468948745938,,,/Style%20Library/HEC/images/Placeholder-Image-Content.png,12/18/2006,Public,Government of Sindh,Khairpur,Sindh,Yes,No
Gandhara University,General,Peshawar,"Canal Road University Town, Peshawar. +92-91-5844429-32",http://www.gandhara.edu.pk,https://www.google.com/maps/embed?pb=!1m18!1m12!1m3!1d3307.9940134438275!2d71.4787650147396!3d33.99268752831462!2m3!1f0!2f0!3f0!3m2!1i1024!2i768!4f13.1!3m3!1m2!1s0x38d917339083c561%3A0x9de61e8f2599940c!2sGandhara+University!5e0!3m2!1sen!2s!4v1468672689969,,,/Style%20Library/HEC/images/Placeholder-Image-Content.png,11/23/2002,Private,Government of Khyber Pakhtunkhwa,Peshawar,Khyber Pakhtunkhwa,Yes,No
"Ghazi National Institute of Engineering and Sciences, Dera Ghazi Khan",General,Mian Campus,"Taunsa By Pass Road, Near Pakistan Chowk,  Dera Ghazi Khan Khan,  Punjab-Pakistan. Tel # +92 64 268 9006; +64 268 9006 Email: info@gnies.edu.pk",https://www.gnies.edu.pk/,"https://www.google.com/maps/search/ghazi+national+institute+of+engineering+and+sciencess+dera+ghazi+khan/@30.0432206,70.6269693,13z/data=!3m1!4b1",,,/english/universities/PublishingImages/Ghazi%20Institute%20of%20Engg%20and%20Sciences.jpg,12/24/2021,Private,Government of Punjab,Dera Ghazi Khan,Punjab,Yes,No
Ghazi University,General,Dera Ghazi Khan,"Ghazi University, Dera Ghazi Khan Tel # +92 (64) 9260135 Email: info@gudgk.edu.pk",http://www.gudgk.edu.pk/,https://www.google.com/maps/embed?pb=!1m18!1m12!1m3!1d3456.526868328876!2d70.49828961463547!3d29.964284929310807!2m3!1f0!2f0!3f0!3m2!1i1024!2i768!4f13.1!3m3!1m2!1s0x393aa8bc4beb87df%3A0x7fbc53ee65d4d164!2sGhazi+University%2C+D.G.Khan!5e0!3m2!1sen!2s!4v1468930260471,,,/english/universities/PublishingImages/Ghazi%20University.jpg,2/11/2012,Public,Government of Punjab,Dera Ghazi Khan,Punjab,Yes,No
Ghulam Ishaq Khan Institute of Engineering Sciences & Technology,General,Mian Campus; Swabi,"Topi-23640, District Swabi +92-938-271875,+92-938-271897, exchange: 271858",http://www.giki.edu.pk,https://www.google.com/maps/embed?pb=!1m18!1m12!1m3!1d3304.924148993337!2d72.64397241474181!3d34.0714586241655!2m3!1f0!2f0!3f0!3m2!1i1024!2i768!4f13.1!3m3!1m2!1s0x38def93c5797c0d7%3A0x95445985be9ab625!2sGhulam+Ishaq+Khan+Institute+of+Engineering+Sciences+and+Technology!5e0!3m2!1sen!2s!4v1468673206870,,,/Style%20Library/HEC/images/Placeholder-Image-Content.png,7/18/1994,Private,Government of Khyber Pakhtunkhwa,Abbottabad,Khyber Pakhtunkhwa,Yes,No
GIFT University,General,Gujranwala,"Sialkot Bypass, Gujranwala, Pakistan. +92-55-3892981",http://www.gift.edu.pk/,https://www.google.com/maps/embed?pb=!1m18!1m12!1m3!1d3375.975363053278!2d74.19024631469165!3d32.20489452024389!2m3!1f0!2f0!3f0!3m2!1i1024!2i768!4f13.1!3m3!1m2!1s0x391f29b5c34355cd%3A0x3b491b5bb56ee82a!2sGIFT+University!5e0!3m2!1sen!2s!4v1468743614226,,,/Style%20Library/HEC/images/Placeholder-Image-Content.png,6/10/2004,Private,Government of Punjab,Gujranwala,Punjab,Yes,No
"Global Institute, Lahore",General,Lahore,"3-Aurangzeb Block, New Garden Town, Lahore. +92-42-35857924-6",http://global.edu.pk,https://www.google.com/maps/embed?pb=!1m18!1m12!1m3!1d1728874.3872980676!2d72.7882180916616!3d32.185153664592825!2m3!1f0!2f0!3f0!3m2!1i1024!2i768!4f13.1!3m3!1m2!1s0x39190f4c5619567d%3A0x9729943465fd05a4!2sGlobal+Institute+Lahore!5e0!3m2!1sen!2s!4v1468744026188,,,/english/universities/PublishingImages/Global%20Institute.png,1/22/2011,Private,Government of Punjab,Lahore,Punjab,Yes,No
Gomal University,General,Dera Ismail Khan,"Multan Road, D. I Khan +92-966-750266, +92-966-750279 +92-966-966-750-424-9",http://www.gu.edu.pk/,https://www.google.com/maps/embed?pb=!1m18!1m12!1m3!1d3390.225943809435!2d70.8949414146817!3d31.818839439527544!2m3!1f0!2f0!3f0!3m2!1i1024!2i768!4f13.1!3m3!1m2!1s0x39266ddaef2858fb%3A0x8583f67a3cdf87fe!2sGomal+University!5e0!3m2!1sen!2s!4v1468673767676,,,/Style%20Library/HEC/images/Placeholder-Image-Content.png,12/2/1974,Public,Government of Khyber Pakhtunkhwa,Dera Ismail Khan,Khyber Pakhtunkhwa,Yes,No
"Government College for Women University, Faisalabad",General,Faisalabad,"Government College for Women University, Faisalabad. +92-41-9220053, +92-41-9220297",http://www.gcuf.edu.pk/,https://www.google.com/maps/embed?pb=!1m18!1m12!1m3!1d3405.560630043671!2d73.09523016467095!3d31.39867636028366!2m3!1f0!2f0!3f0!3m2!1i1024!2i768!4f13.1!3m3!1m2!1s0x392267fd1adf0679%3A0x5eeef8628e55fc2f!2sGovernment+College+for+Women%2C+Faisalabad%2C+Pakistan!5e0!3m2!1sen!2s!4v1468745442551,,,/Style%20Library/HEC/images/Placeholder-Image-Content.png,1/5/2013,Public,Government of Pakistan,Faisalabad,Punjab,Yes,No
"Government College for Women University, Sialkot",General,Sialkot,"Kutchehry Road Sialkot - 51310 Punjab, Pakistan. +92-52-925 0170, +92-52-925 0556",http://www.gcwus.edu.pk/,https://www.google.com/maps/embed?pb=!1m18!1m12!1m3!1d3364.875285863895!2d74.52834451472442!3d32.502762305226604!2m3!1f0!2f0!3f0!3m2!1i1024!2i768!4f13.1!3m3!1m2!1s0x391eea4446bb27f7%3A0x398e021b83700153!2sGovernment+College+Women+University%2Csialkot!5e0!3m2!1sen!2s!4v1468911760050,,,/Style%20Library/HEC/images/Placeholder-Image-Content.png,4/23/2015,Public,Government of Punjab,Sialkot,Punjab,Yes,No
"Government College University, Faisalabad",General,Faisalabad,"Kotwali Rd, Faisalabad 38000, Pakistan. +92-41-9200670, +92-41-9201266, +92-41-9200670",http://www.gcuf.edu.pk/,https://www.google.com/maps/embed?pb=!1m18!1m12!1m3!1d3404.9377308865523!2d73.06711561469667!3d31.415841659440392!2m3!1f0!2f0!3f0!3m2!1i1024!2i768!4f13.1!3m3!1m2!1s0x392242bef30a05ed%3A0x39e814b7f874c28d!2sGovernment+College+University!5e0!3m2!1sen!2s!4v1468912193278,,,/Style%20Library/HEC/images/02.jpg,10/19/2002,Public,Government of Punjab,Faisalabad,Punjab,Yes,No
"Government College University, Hyderabad",General,Mian Campus,"Opposite Pinyari Police Station, Kali Mori, Hyderabad Sindh, Pakistan Tel # +92-22-2111877 Email: info@gcuh.edu.pk",http://www.gcuh.edu.pk,https://www.google.com/maps/embed?pb=!1m18!1m12!1m3!1d3603.931757092848!2d68.37609131446047!3d25.407094829388782!2m3!1f0!2f0!3f0!3m2!1i1024!2i768!4f13.1!3m3!1m2!1s0x394c70d90389ad11%3A0x1509aeaa45d7f2f2!2sGovernment+College+University+%2C+Hyderabad!5e0!3m2!1sen!2s!4v1561448448435!5m2!1sen!2s,,,/english/universities/PublishingImages/GCUH.jpg,6/17/2019,Public,Government of Sindh,Hyderabad,Sindh,Yes,No
"Government College University, Lahore",General,Lahore,"Near Nasir Bagh, Katchery Rd, Lahore 54000, Pakistan. +92-42-111 000 010",http://www.gcu.edu.pk/,https://www.google.com/maps/embed?pb=!1m18!1m12!1m3!1d3399.214816602976!2d74.30566981467544!3d31.573156551693728!2m3!1f0!2f0!3f0!3m2!1i1024!2i768!4f13.1!3m3!1m2!1s0x39191ca6eeacbc8b%3A0xf0c436e69e66658!2sGovernment+College+University!5e0!3m2!1sen!2s!4v1468915847194,,,/Style%20Library/HEC/images/Placeholder-Image-Content.png,9/10/2002,Public,Government of Punjab,Lahore,Punjab,Yes,No
Government Sadiq College Women University,General,Bahawal Pur,"Government Sadiq College Women University, Bahawalpur. +92-62-2284803, +92-62 9250075",http://www.gscwu.edu.pk/,https://www.google.com/maps/embed?pb=!1m18!1m12!1m3!1d3476.0166272637935!2d71.6927050146219!3d29.39906965572562!2m3!1f0!2f0!3f0!3m2!1i1024!2i768!4f13.1!3m3!1m2!1s0x393b90eb306e1bc1%3A0x969a9908097d5f05!2sThe+Government+Sadiq+College+Women+University+Bahawalpur+Pakistan+-+GSCWU!5e0!3m2!1sen!2s!4v1468916606732,,,/english/universities/PublishingImages/Govt.%20Sadiq%20Women%20University.png,5/25/2015,Public,Government of Punjab,Bahawal Pur,Punjab,Yes,No
Greenwich University,General,Karachi,"DK-10, 38th Street, Darkshan, DHA, Phase 6, Karachi 75500. +92-21-35840397-98, +92-21-35847663, +92-21-35847664 +92-21-35842270, UAN:(92)(21) 111 202 303",http://www.greenwichuniversity.edu.pk/,https://www.google.com/maps/embed?pb=!1m18!1m12!1m3!1d3622.226058454567!2d67.04734221452205!3d24.787711654275235!2m3!1f0!2f0!3f0!3m2!1i1024!2i768!4f13.1!3m3!1m2!1s0x3eb33ce057f6836d%3A0x71f51fbb642e3d9c!2sGreenwich+University!5e0!3m2!1sen!2s!4v1468949469263,,,/Style%20Library/HEC/images/Placeholder-Image-Content.png,2/3/1998,Private,Government of Sindh,Karachi,Sindh,Yes,No
Habib University,General,Karachi,"Habib University Foundation147, Block 7 & 8 Banglore Cooperative Housing SocietyTipu Sultan Road Karachi – 75350. +92-21-111-042 242",http://www.habib.edu.pk/,https://www.google.com/maps/embed?pb=!1m18!1m12!1m3!1d3618.7862389029046!2d67.13549821452446!3d24.905272049594725!2m3!1f0!2f0!3f0!3m2!1i1024!2i768!4f13.1!3m3!1m2!1s0x3eb33906ead1899d%3A0x3c0681e6f7d5dc14!2sHabib+University!5e0!3m2!1sen!2s!4v1468950071833,,,/Style%20Library/HEC/images/Placeholder-Image-Content.png,10/8/2012,Private,Government of Sindh,Karachi,Sindh,Yes,No
Hajvery University,General,Lahore,"43-52 Industrial Area Gulberg III, Lahore. +92-42-35717130-1, +92-42-111 777 007",http://www.hajvery.edu.pk/,https://www.google.com/maps/embed?pb=!1m18!1m12!1m3!1d3401.8636318565536!2d74.35530121467356!3d31.50043195527914!2m3!1f0!2f0!3f0!3m2!1i1024!2i768!4f13.1!3m3!1m2!1s0x3919044adbe6181f%3A0x339e44dede6d4732!2sHajvery+University+(HU)%2C+Main+Campus!5e0!3m2!1sen!2s!4v1468917061151,,,/english/universities/PublishingImages/Hajvery-University-logo.jpg,10/2/2002,Private,Government of Punjab,Lahore,Punjab,Yes,No
Hamdard University,General,Islamabad; Karachi,"Madinat-al-Hikmah, Sharea Madinat al-Hikmah, Muhammad Bin Qasim Avenue, Karachi 74600. +92-21-36440030021, +92-21-36440017 +92-21-36440030",http://www.hamdard.edu.pk/,https://www.google.com/maps/embed?pb=!1m18!1m12!1m3!1d3619.4993038346556!2d67.05958131452392!3d24.880944850564916!2m3!1f0!2f0!3f0!3m2!1i1024!2i768!4f13.1!3m3!1m2!1s0x3eb33eec4e7d368f%3A0x4708182740e2c3d1!2sHamdard+University!5e0!3m2!1sen!2s!4v1468950623453,,,/Style%20Library/HEC/images/Placeholder-Image-Content.png,2/22/1992,Private,Government of Sindh,Karachi,Sindh,Yes,No
"Hands Institute of Development Studies, Karachi",General,Mian Campus,"Plot No. 158, Off M9 (Karachi-Hyderabad) Motorway, Gaddap Road, Near Baqai University, Karachi-Pakistan Tel # registrar@hands-ida.edu.pk Email: 021-38102402",https://hands-ids.edu.pk,https://www.google.com/maps/embed?pb=!1m18!1m12!1m3!1d3616.3584065376426!2d67.21145247443421!3d24.98793464014666!2m3!1f0!2f0!3f0!3m2!1i1024!2i768!4f13.1!3m3!1m2!1s0x3eb349b77adb493b%3A0x78e9c4e5be98453a!2sHANDS-Institute%20of%20Development%20Studies%2C%20Karachi!5e0!3m2!1sen!2s!4v1706524562185!5m2!1sen!2s,,,/english/universities/PublishingImages/Hands%20Institute%20Karachi.png,9/4/2023,Private,Government of Sindh,Karachi,Sindh,Yes,No
Hazara University,General,Mian Campus; Mansehra,"Dhodial, Mansehra +92-997-530732, +92-997-414121",http://www.hu.edu.pk,https://www.google.com/maps/embed?pb=!1m18!1m12!1m3!1d3291.2121746173916!2d73.24854601475148!3d34.42136530563581!2m3!1f0!2f0!3f0!3m2!1i1024!2i768!4f13.1!3m3!1m2!1s0x38de17bf9b773903%3A0x8fa215c25efb071a!2sHazara+University+Mansehra!5e0!3m2!1sen!2s!4v1468674690391,,,/Style%20Library/HEC/images/Placeholder-Image-Content.png,5/14/1997,Public,Government of Khyber Pakhtunkhwa,Mansehra,Khyber Pakhtunkhwa,Yes,No
"Health Services Academy (HSA), Islamabad",General,Mian Campus,"Opposite National Institute of Health (NIH), Islamabad Tel # +92-51-9255590-94, Fax # +92-51-9255591 Email: academy@hsa.edu.pk",http://www.hsa.edu.pk/,https://www.google.com/maps/embed?pb=!1m18!1m12!1m3!1d3319.7900456422517!2d73.13955521475596!3d33.68850024425887!2m3!1f0!2f0!3f0!3m2!1i1024!2i768!4f13.1!3m3!1m2!1s0x38dfea78d7ce7d4f%3A0xd100eb5820997738!2sHealth%20Services%20Academy!5e0!3m2!1sen!2s!4v1582177216410!5m2!1sen!2s,,,/english/universities/PublishingImages/Health%20Services%20Academy%20Islamabad.png,5/24/2018,Public,Government of Pakistan,Islamabad,Islamabad Capital Territory,Yes,No
HITEC University,General,Rawalpindi,"Museum Road Taxila Cantt. +92-51-4908142, +92-51-3010514, +92-51-908146-50",http://www.hitecuni.edu.pk/,https://www.google.com/maps/embed?pb=!1m18!1m12!1m3!1d3318.391335751914!2d72.81715611475691!3d33.72469544236821!2m3!1f0!2f0!3f0!3m2!1i1024!2i768!4f13.1!3m3!1m2!1s0x38dfa3f13c5d1479%3A0x8b05f08f3d3a0c95!2sHITEC+University!5e0!3m2!1sen!2s!4v1468911380644,,,/Style%20Library/HEC/images/Placeholder-Image-Content.png,11/17/2009,Private,Government of Punjab,Rawalpindi,Punjab,Yes,No
Hyderabad Institute for Technology & Management Sciences,General,Mian Campus,Tell # 92-22-3823752 Email: rectorhitmshyd@gmail.com,http://www.hec.gov.pk,https://www.google.com/maps/embed?pb=!1m18!1m12!1m3!1d3605.9512415694394!2d68.35894247444666!3d25.33941712592736!2m3!1f0!2f0!3f0!3m2!1i1024!2i768!4f13.1!3m3!1m2!1s0x394c710070cc47db%3A0xaa037a78ba326c66!2sHYDERABAD%20INSTITUTE%20FOR%20TECHNOLOGY%20AND%20MANAGEMENT%20SCIENCES!5e0!3m2!1sen!2s!4v1725443566519!5m2!1sen!2s,,,/english/universities/PublishingImages/HEC.gif,12/3/2021,Public,Government of Pakistan,Hyderabad,Sindh,Yes,No
"Ibadat International University, Islamabad",General,Mian Campus,"6.7 Km, Japan Road, Sihala Islamabad-Pakistan Tel # 0092-51-4486422-25 UAN # 0092-51-111-448-448, Email: info@iiui.edu.pk",https://iiui.edu.pk/,https://www.google.com/maps/embed?pb=!1m18!1m12!1m3!1d3324.3123180133816!2d73.23278661468595!3d33.57123935037245!2m3!1f0!2f0!3f0!3m2!1i1024!2i768!4f13.1!3m3!1m2!1s0x38dfee56eaa66a77%3A0x5571fb34fd106359!2sUniversity%20Of%20Lahore!5e0!3m2!1sen!2s!4v1634536554486!5m2!1sen!2s,,,/english/universities/PublishingImages/IBADAT%20International%20University%20Islamabad%20Logo.jpg,10/8/2021,Private,Government of Pakistan,Islamabad,Islamabad Capital Territory,Yes,No
"Ibn-e-Sina University, Mirpurkhas",General,Mian Campus,"Mirpurkhas, Sindh-Pakistan Email: info@isu.edu.pk Tel # +92-0233 821503",https://isu.edu.pk,https://www.google.com/maps/embed?pb=!1m18!1m12!1m3!1d3600.7253550628757!2d68.9567406!3d25.514204600000003!2m3!1f0!2f0!3f0!3m2!1i1024!2i768!4f13.1!3m3!1m2!1s0x394eab4756b57827%3A0x439377dbbcea525e!2sIbn-e-Sina%20University%2C%20Mirpurkhas!5e0!3m2!1sen!2s!4v1688537144542!5m2!1sen!2s,,,/english/universities/PublishingImages/IBN-E-SINA%20UNIVERSITY.png,7/22/2022,Private,Government of Sindh,Mirpur Khas,Sindh,Yes,No
ILMA University,General,Karachi,"Main Ibrahim Hydri Road, Korangi Creek, Karachi. +92-21-35120462, +92-21-35091872, +92-21-35120461",http://www.ibt.edu.pk,https://www.google.com/maps/embed?pb=!1m18!1m12!1m3!1d3618.2623626145246!2d67.08815391452474!3d24.923130648881873!2m3!1f0!2f0!3f0!3m2!1i1024!2i768!4f13.1!3m3!1m2!1s0x3eb33f344545bec7%3A0x57b6813e63e0de6c!2sInstitute+of+Business+%26+Technology+(Biztek)+Gulshan+Executive+Campus!5e0!3m2!1sen!2s!4v1468987641190,,,/english/universities/PublishingImages/ILMA%20Karachi.jpg,10/11/2003,Private,Government of Sindh,Karachi,Sindh,Yes,No
Imperial College of Business Studies,General,Lahore,"Canal Bank Road Near Bahria Chowk, Lahore 53720. +92-42-35978525-32",http://www.imperial.edu.pk/,https://www.google.com/maps/embed?pb=!1m18!1m12!1m3!1d3405.578740577773!2d74.16846641467093!3d31.398177160308244!2m3!1f0!2f0!3f0!3m2!1i1024!2i768!4f13.1!3m3!1m2!1s0x3919039c71bb77fb%3A0x708216212e8a42cd!2sImperial+College+of+Business+Studies!5e0!3m2!1sen!2s!4v1468917451828,,,/english/universities/PublishingImages/Imperial%20College%20Lahore.jpg,4/10/2002,Private,Government of Punjab,Lahore,Punjab,Yes,No
Indus University,General,Karachi,"ST-2D, Block-17, Adjacent National Stadium Gulshan-e Iqbal, Opp: Mushriq Centre, Karachi. +92-21-34977457, +92-21- 34801430-35 +92-21-34811723, +92-21-34977457",http://www.indus.edu.pk/,https://www.google.com/maps/embed?pb=!1m18!1m12!1m3!1d3619.0056897599616!2d67.0776884145242!3d24.897787549893255!2m3!1f0!2f0!3f0!3m2!1i1024!2i768!4f13.1!3m3!1m2!1s0x3eb33ed99b197d7d%3A0xf77ba28a91dce806!2sIndus+University!5e0!3m2!1sen!2s!4v1468954617139,,,/Style%20Library/HEC/images/Placeholder-Image-Content.png,10/20/2004,Private,Government of Sindh,Karachi,Sindh,Yes,No
Indus Valley School of Art & Architecture,General,Karachi,"Street 33, Block 2, Scheme-5, Clifton, Karachi.75600 +92-21-111-111-487 Ext: 201,+92-21-35861055 +92-21-35861039-40",http://www.indusvalley.edu.pk/,https://www.google.com/maps/embed?pb=!1m18!1m12!1m3!1d3621.5290479993046!2d67.0133936145225!3d24.811575053326795!2m3!1f0!2f0!3f0!3m2!1i1024!2i768!4f13.1!3m3!1m2!1s0x3eb33d9a30d16fb1%3A0xc254b52219b282f!2sIndus+Valley+School+of+Art+and+Architecture!5e0!3m2!1sen!2s!4v1468986967270,,,/Style%20Library/HEC/images/Placeholder-Image-Content.png,7/27/1994,Private,Government of Sindh,Karachi,Sindh,Yes,No
Information Technology University of the Punjab,Engineering & Technology,Lahore,"6th Floor, Arfa Software Technology Park, Ferozepur Road, Lahore. +92-42-99232124, +9242-99232538, +92-42-99231170  +92-42-99231171",http://www.itu.edu.pk/,https://www.google.com/maps/embed?pb=!1m18!1m12!1m3!1d3402.7564410211944!2d74.34007021467293!3d31.475885456487656!2m3!1f0!2f0!3f0!3m2!1i1024!2i768!4f13.1!3m3!1m2!1s0x39190427235b67ed%3A0x80c2ec5016353f7d!2sInformation+Technology+University!5e0!3m2!1sen!2s!4v1468917848943,,,/english/universities/PublishingImages/information%20Technology%20University.jpg,9/10/2012,Public,Government of Punjab,Lahore,Punjab,Yes,No
Institute for Art and Culture,Arts & Design,Mian Campus,"Mian Riwand Road, Lahore Pakistan Tel: +92 42 32590040-7 Email: info@iac.edu.pk",http://www.iac.edu.pk,https://www.google.com/maps/embed?pb=!1m18!1m12!1m3!1d108904.94386251722!2d74.21943809568651!3d31.46149684090966!2m3!1f0!2f0!3f0!3m2!1i1024!2i768!4f13.1!3m3!1m2!1s0x0%3A0x27a4185da643510b!2sUniversity+Of+Culture+%26+Arts!5e0!3m2!1sen!2s!4v1530859914943,,,/english/universities/PublishingImages/ICA%20lahore.jpg,5/22/2018,Private,Government of Pakistan,Lahore,Punjab,Yes,No
Institute of Business Administration,General,Karachi,"Main Campus University Road, Karachi. +92-21-38104700-1",http://www.iba.edu.pk/,https://www.google.com/maps/embed?pb=!1m18!1m12!1m3!1d3617.727939488924!2d67.11166631452512!3d24.941336448154768!2m3!1f0!2f0!3f0!3m2!1i1024!2i768!4f13.1!3m3!1m2!1s0x3eb338bcd01921f5%3A0x5fd98736c5530784!2sInstitute+of+Business+Administration+Karachi+Main+Campus!5e0!3m2!1sen!2s!4v1468987205636,,,/Style%20Library/HEC/images/Placeholder-Image-Content.png,8/17/1994,Public,Government of Sindh,Karachi,Sindh,Yes,No
Institute of Business Managementhttp://www.iobm.edu.pk,General,Karachi,"Korangi Creek, Karachi-75190, Pakistan. +92-21-35091684, +92-21-350 91907",http://www.iobm.edu.pk,https://www.google.com/maps/embed?pb=!1m18!1m12!1m3!1d3621.499799637227!2d67.11483111452256!3d24.812575953286846!2m3!1f0!2f0!3f0!3m2!1i1024!2i768!4f13.1!3m3!1m2!1s0x3eb33b7680aed395%3A0x21d3c8026afe14ce!2sCollege+of+Business+Management!5e0!3m2!1sen!2s!4v1468988030182,,,/Style%20Library/HEC/images/Placeholder-Image-Content.png,4/27/1998,Private,Government of Sindh,Karachi,Sindh,Yes,No
Institute of Management Sciences,General,Lahore,"23-E-III, Gulberg-III, Lahore. +92-42-35751115-8, +92-42-35758664",http://www.pakaims.edu.pk/,https://www.google.com/maps/embed?pb=!1m18!1m12!1m3!1d3401.6522691786568!2d74.33740471467368!3d31.506240554993017!2m3!1f0!2f0!3f0!3m2!1i1024!2i768!4f13.1!3m3!1m2!1s0x3919044337da7039%3A0x4aef7cf6ff38111c!2sThe+Institute+of+Management+Sciences!5e0!3m2!1sen!2s!4v1468918608446,,,/Style%20Library/HEC/images/Placeholder-Image-Content.png,4/10/2002,Private,Government of Punjab,Lahore,Punjab,Yes,No
Institute of Management Sciences (2),General,Peshawar,"I-A, Sector E-5, Phase-VII, Hayatabad, Peshawar. +92-91-9219542",http://www.imsciences.edu.pk,https://www.google.com/maps/embed?pb=!1m18!1m12!1m3!1d3309.3368615679483!2d71.41474691473859!3d33.95818023012958!2m3!1f0!2f0!3f0!3m2!1i1024!2i768!4f13.1!3m3!1m2!1s0x38d910770b07434b%3A0xf26b39f7ba7ce17c!2sInstitute+of+Management+Sciences%2C+Peshawar!5e0!3m2!1sen!2s!4v1468675223460,,,/Style%20Library/HEC/images/Placeholder-Image-Content.png,10/2/2002,Public,Government of Khyber Pakhtunkhwa,Peshawar,Khyber Pakhtunkhwa,Yes,No
Institute of Southern Punjab,General,Multan,"City Campus: 31-A Gulgasht, Multan. +92-61-111-477-78600, +92-61-621-11-11",http://isp.edu.pk/,https://www.google.com/maps/embed?pb=!1m18!1m12!1m3!1d3445.074533592539!2d71.4952745146434!3d30.291939713794218!2m3!1f0!2f0!3f0!3m2!1i1024!2i768!4f13.1!3m3!1m2!1s0x3924cb4a94712d7d%3A0x68df50fd7a98ee6a!2sInstitute+of+Southern+Punjab+-+Main+Campus!5e0!3m2!1sen!2s!4v1468919160231,,,/Style%20Library/HEC/images/Placeholder-Image-Content.png,8/2/2010,Private,Government of Punjab,Multan,Punjab,Yes,No
Institute of Space Technology,General,Islamabad,"+92-51-9075100, +92-51-9273310",http://www.ist.edu.pk/,https://www.google.com/maps/embed?pb=!1m18!1m12!1m3!1d3326.269542754321!2d73.17372931455918!3d33.52037698075402!2m3!1f0!2f0!3f0!3m2!1i1024!2i768!4f13.1!3m3!1m2!1s0x38dff206d49e3247%3A0xc36973d93ffa92c5!2sInstitute+of+Space+Technology!5e0!3m2!1sen!2s!4v1466931070413,,,/english/universities/PublishingImages/IST%20Islamabad.jpg,4/12/2005,Public,Government of Pakistan,Islamabad,Islamabad Capital Territory,Yes,No
"International Institute of Science, Arts and Technology, Gujranwala",General,Mian Campus,"Lahore Road near Sialkot Bypass,  Gujranwala-Punjab  Tel # +92 55 3200003-5 Email: info@iisat.edu.pk",https://www.iisat.edu.pk,https://www.google.com/maps/embed?pb=!1m18!1m12!1m3!1d3376.548883708704!2d74.22049881448424!3d32.18943748115333!2m3!1f0!2f0!3f0!3m2!1i1024!2i768!4f13.1!3m3!1m2!1s0x391ed7953afcdf61%3A0xdf79015963dad1a2!2sInternational%20Institute%20of%20Science%2C%20Art%20and%20Technology%20(IISAT)!5e0!3m2!1sen!2s!4v1663323784950!5m2!1sen!2s,,,/english/universities/PublishingImages/IISAT%20Gujranwala.png,7/7/2022,Private,Government of Pakistan,Gujranwala,Punjab,Yes,No
International Islamic University,General,Islamabad,"New Campus, Sector H-10, Islamabad +92-51-9257988, +92-51-9019616",http://www.iiu.edu.pk/,https://www.google.com/maps/embed?pb=!1m18!1m12!1m3!1d3320.8424839304407!2d73.02646271456402!3d33.66124308071406!2m3!1f0!2f0!3f0!3m2!1i1024!2i768!4f13.1!3m3!1m2!1s0x38df95906a03cfff%3A0x2b2f1c1c99b676ce!2sInternational+Islamic+University+Islamabad+(IIUI)!5e0!3m2!1sen!2s!4v1466931342212,,,/Style%20Library/HEC/images/Placeholder-Image-Content.png,3/31/1985,Public,Government of Pakistan,Islamabad,Islamabad Capital Territory,Yes,No
Iqra National University,General,Mian Campus; Peshawar,"Phase-II, Hayatabad Peshawar +92-91-5822 852091 +92-91-5822982 (Direct)",http://www.inu.edu.pk,https://www.google.com/maps/embed?pb=!1m18!1m12!1m3!1d3308.72482456202!2d71.44082851473908!3d33.97391162930221!2m3!1f0!2f0!3f0!3m2!1i1024!2i768!4f13.1!3m3!1m2!1s0x38d9173b79ac76f7%3A0x9dff2240be2063b1!2sIqra+National+University!5e0!3m2!1sen!2s!4v1468675924514,,,/Style%20Library/HEC/images/HEC%20ICON-12.png,4/23/2011,Private,Government of Khyber Pakhtunkhwa,Peshawar,Khyber Pakhtunkhwa,Yes,No
Iqra University,General,Islamabad; Karachi; Quetta,"Defence View, Shaheed-e-Millat Road, (Ext), Karachi. +92-21-35310802, +92-21-35310818",http://www.iqra.edu.pk,https://www.google.com/maps/embed?pb=!1m18!1m12!1m3!1d3618.227918724166!2d67.08161761452476!3d24.924304398835027!2m3!1f0!2f0!3f0!3m2!1i1024!2i768!4f13.1!3m3!1m2!1s0x3eb33f37c03d4f5f%3A0x9e60b0e65a80317f!2sIqra+University%2C+Karachi%2C+Pakistan!5e0!3m2!1sen!2s!4v1468988480747,,,/Style%20Library/HEC/images/Placeholder-Image-Content.png,6/21/2000,Private,Government of Sindh,Karachi,Sindh,Yes,No
Islamia College Peshawar,General,Peshawar,"Jamrod Road, University Campus,Peshawar. +92-91-9216009",http://www.icp.edu.pk,https://www.google.com/maps/embed?pb=!1m18!1m12!1m3!1d3307.7121172677953!2d71.4737675147398!3d33.99992752793354!2m3!1f0!2f0!3f0!3m2!1i1024!2i768!4f13.1!3m3!1m2!1s0x38d910d324a9cf0d%3A0xf2df847901c6501!2sIslamia+College+University+Peshawar!5e0!3m2!1sen!2s!4v1468695467553,,,/Style%20Library/HEC/images/Placeholder-Image-Content.png,3/20/2008,Public,Government of Khyber Pakhtunkhwa,Peshawar,Khyber Pakhtunkhwa,Yes,No
Islamia University Bahawalpur,General,Bahawal Pur; Rahim Yar Khan,"Abbasia Campus, Bahawalpur. +92-62-9250231",http://www.iub.edu.pk/,https://www.google.com/maps/embed?pb=!1m18!1m12!1m3!1d13906.878434787475!2d71.75597372460972!3d29.37849806233783!2m3!1f0!2f0!3f0!3m2!1i1024!2i768!4f13.1!3m3!1m2!1s0x393b91d66391f8c5%3A0x425a9be19e3acf84!2sIslamia+University+of+Bahawalpur+Baghdad-ul-Jadeed+Campus%2C+Bahawalpur%2C+Pakistan!5e0!3m2!1sen!2s!4v1468919804654,,,/english/universities/PublishingImages/IUB.jpg,3/4/1975,Public,Government of Punjab,Bahawal Pur,Punjab,Yes,No
Isra University,General,Hyderabad; Islamabad; Karachi,"Halla Road, P.O. Box No.313, Hyderabad. +92-22-2030188022, +92-22-3203 0181-4 Islamabad Campus:School of Engineering & AppliedSciences Plot No. 176, Sohni Road, I-10/3,Islamabad, Pakistan. +92-51-8439901-10 +92-51-8358360-61",http://www.isra.edu.pk,https://www.google.com/maps/embed?pb=!1m18!1m12!1m3!1d3603.109219229374!2d68.3792493145349!3d25.434611828270008!2m3!1f0!2f0!3f0!3m2!1i1024!2i768!4f13.1!3m3!1m2!1s0x394c7727f34fad87%3A0x9d79f5a67bf65aee!2sIsra+University!5e0!3m2!1sen!2s!4v1468990062810,,,/Style%20Library/HEC/images/Placeholder-Image-Content.png,9/27/1997,Private,Government of Sindh,Hyderabad,Sindh,Yes,No
Jinnah Sindh Medical University,General,Karachi,"Rafique H.J Shaheed Road, Karachi. +92-21-99204776, +92-21- 35223812-16",http://www.jsmu.edu.pk,https://www.google.com/maps/embed?pb=!1m18!1m12!1m3!1d3620.375272307824!2d67.04333951452324!3d24.851029451756865!2m3!1f0!2f0!3f0!3m2!1i1024!2i768!4f13.1!3m3!1m2!1s0x3eb33dd546e80561%3A0x9fac68702d86bd41!2sJinnah+Sindh+Medical+University!5e0!3m2!1sen!2s!4v1468990505052,,,/Style%20Library/HEC/images/Placeholder-Image-Content.png,3/21/2013,Public,Government of Pakistan,Karachi,Sindh,Yes,No
Jinnah University for Women,General,Karachi,"Jinnah University for Women, 5-C, Nazimabad, Karachi 74600. +92-21-36611245, +92-21-36619902",http://www.juw.edu.pk,https://www.google.com/maps/embed?pb=!1m18!1m12!1m3!1d3618.2035510472606!2d67.02770151452481!3d24.925134748801906!2m3!1f0!2f0!3f0!3m2!1i1024!2i768!4f13.1!3m3!1m2!1s0x3eb33f91751192b9%3A0x7d44a810d3040989!2sJinnah+University+For+Women!5e0!3m2!1sen!2s!4v1468990715463,,,/Style%20Library/HEC/images/Placeholder-Image-Content.png,6/2/1998,Private,Government of Sindh,Karachi,Sindh,Yes,No
Karachi Institute of Economics & Technology,General,Karachi,"PAF Base, Korangi Creek, Karachi-75190. +92-21-35091114-7",http://www.pafkiet.edu.pk,https://www.google.com/maps/embed?pb=!1m18!1m12!1m3!1d3618.094549692311!2d67.03803781452474!3d24.92884874865367!2m3!1f0!2f0!3f0!3m2!1i1024!2i768!4f13.1!3m3!1m2!1s0x3eb33f9b59133921%3A0xc443b311fafafc9a!2sPAF-KIET+North+Nazimbad+Campus!5e0!3m2!1sen!2s!4v1468990999743,,,/Style%20Library/HEC/images/Placeholder-Image-Content.png,5/24/2001,Private,Government of Sindh,Karachi,Sindh,Yes,No
"Karachi Institute of Technology and Entrepreneurship (KITE), Karachi",General,Mian Campus,"Plot 3 & 3-A, Sector 47, Korangi Creek Road Karachi-75190, Pakistan Tel # 92-21-35092200, +92-21-35092201 Email: info@kite.edu.pk",http://kite.edu.pk/,https://www.google.com/maps/embed?pb=!1m18!1m12!1m3!1d3621.5755760113816!2d67.11951251447654!3d24.809982753390134!2m3!1f0!2f0!3f0!3m2!1i1024!2i768!4f13.1!3m3!1m2!1s0x3eb33b0dbd4eb289%3A0xf2d1e84fc1d9e949!2sKarachi%20Institute%20of%20Technology%20and%20Entrepreneurship%20(KITE)!5e0!3m2!1sen!2s!4v1615443397634!5m2!1sen!2s,,,/english/universities/PublishingImages/Sindh/KITE.png,10/7/2016,Private,Government of Sindh,Karachi,Sindh,Yes,No
Karachi School of Business and Leadership,General,Mian Campus,"National Stadium Road Opp. Liaquat National Hospital, Karachi – 74800. +92-21- 34855382  +92-21-721021, +92-21-38771999",http://www.ksbl.edu.pk,https://www.google.com/maps/embed?pb=!1m18!1m12!1m3!1d3619.2534312285543!2d67.06791421452395!3d24.889335650230453!2m3!1f0!2f0!3f0!3m2!1i1024!2i768!4f13.1!3m3!1m2!1s0x3eb33ddfd5bc0fa3%3A0xc3b3075fe325288b!2sKarachi+School+for+Business+%26+Leadership!5e0!3m2!1sen!2s!4v1468991282475,,,/english/universities/PublishingImages/KSBL%20logo.png,3/11/2013,Private,Government of Sindh,Karachi,Sindh,Yes,No
Karakurum International University,General,Mian Campus; Diamir; Ghizer,"University Road Gilgit, Gilgit Baltistan. +92-5811-960440",http://www.kiu.edu.pk/,https://www.google.com/maps/embed?pb=!1m18!1m12!1m3!1d3231.0719024126142!2d74.36388971479427!3d35.92074002440748!2m3!1f0!2f0!3f0!3m2!1i1024!2i768!4f13.1!3m3!1m2!1s0x38e64829f88d75a7%3A0x88b009cfe8e5e216!2sKarakoram+International+University!5e0!3m2!1sen!2s!4v1468951014171,,,/english/universities/PublishingImages/KIU%20Logo.jpg,8/28/2002,Public,Government of Pakistan,Gilgit,Gilgit Baltistan,Yes,No
KASB Institute of Technology,General,Karachi,"84-B, SMCHS Karachi-74400. +92-21-343 14970-3",http://www.kasbit.edu.pk,https://www.google.com/maps/embed?pb=!1m18!1m12!1m3!1d3620.153713225662!2d67.05418401452343!3d24.85859915145538!2m3!1f0!2f0!3f0!3m2!1i1024!2i768!4f13.1!3m3!1m2!1s0x3eb33e836e83f301%3A0x79df9cc8091a14c0!2sKASBIT+-+SMCHS+Campus!5e0!3m2!1sen!2s!4v1468991532130,,,/Style%20Library/HEC/images/Placeholder-Image-Content.png,6/28/2001,Private,Government of Sindh,Karachi,Sindh,Yes,No
"Khawaja Freed University of Engineering & Information Technology, Rahim Yar Khan",Engineering & Technology,Mian Campus,"Abu Dhabi Road, Rahim Yar Khan. Tel # +92-68-9239121, +92-68-9239122",http://www.kfueit.edu.pk/,https://www.google.com/maps/embed?pb=!1m18!1m12!1m3!1d3510.036367987927!2d70.37206651459844!3d28.387969501859395!2m3!1f0!2f0!3f0!3m2!1i1024!2i768!4f13.1!3m3!1m2!1s0x39375efadd8e3573%3A0xf516a4b3e4cb06b8!2sAuditorium+Hall%2CKhawaja+Fareed+University+of+Engineering+%26+Information+Technology+(KFUEIT)!5e0!3m2!1sen!2s!4v1468930680083,,,/english/universities/PublishingImages/Khawaja%20Fareed%20University%20RYK.jpg,5/29/2014,Public,Government of Punjab,Rahim Yar Khan,Punjab,Yes,No
Khushal Khan Khattak University,General,Karak,"Opposite Tableghi markaz, Karak. +92-927-291018",http://www.kkkuk.edu.pk,https://www.google.com/maps/embed?pb=!1m18!1m12!1m3!1d3341.38840408705!2d71.11353906471608!3d33.12515922346053!2m3!1f0!2f0!3f0!3m2!1i1024!2i768!4f13.1!3m3!1m2!1s0x38d87ea3e2d2d557%3A0x726a06bc0b2aea5a!2sKhushal+Khan+Khattak+University%2C+Academic+Block.%2C+Tehsill+Rd%2C+Karak%2C+Pakistan!5e0!3m2!1sen!2s!4v1468655468969,,,/Style%20Library/HEC/images/Placeholder-Image-Content.png,5/18/2012,Public,Government of Khyber Pakhtunkhwa,Karak,Khyber Pakhtunkhwa,Yes,No
Khyber Medical University,General,Mian Campus; Peshawar,PDA building Block-4 Phase-5 Hayatabad Peshawar +92-91- 9217695,http://www.kmu.edu.pk,https://www.google.com/maps/embed?pb=!1m18!1m12!1m3!1d3308.1264474713903!2d71.43632881473948!3d33.989285728493606!2m3!1f0!2f0!3f0!3m2!1i1024!2i768!4f13.1!3m3!1m2!1s0x38d910f0f41d5495%3A0x86b6234c2ac0005b!2sKhyber+Medical+University+Institute+Main+Campus!5e0!3m2!1sen!2s!4v1468656456344,,,/Style%20Library/HEC/images/Placeholder-Image-Content.png,1/13/2007,Public,Government of Khyber Pakhtunkhwa,Peshawar,Khyber Pakhtunkhwa,Yes,No
Khyber Pakhtunkhwa Agricultural University,General,Mian Campus; Peshawar,"University Campus, Peshawar +92-91-9216518091, +92--9216572-9",http://www.aup.edu.pk,https://www.google.com/maps/embed?pb=!1m18!1m12!1m3!1d3306.9366343644638!2d71.46633601474042!3d34.019837426885466!2m3!1f0!2f0!3f0!3m2!1i1024!2i768!4f13.1!3m3!1m2!1s0x38d916cdc967f91d%3A0xeceac377bd7cfbc1!2sKhyber+Pakhtunkhwa+Agricultural+University!5e0!3m2!1sen!2s!4v1468657105191,,,/Style%20Library/HEC/images/Placeholder-Image-Content.png,2/4/1981,Public,Government of Khyber Pakhtunkhwa,Peshawar,Khyber Pakhtunkhwa,Yes,No
King Edward Medical University,General,Lahore,"Nelagumbad near New Anarkali, Lahore. +92-42-99211151, +92-42-37354005",http://www.kemu.edu.pk/,https://www.google.com/maps/embed?pb=!1m18!1m12!1m3!1d3399.325727415751!2d74.31165331467531!3d31.57011445184382!2m3!1f0!2f0!3f0!3m2!1i1024!2i768!4f13.1!3m3!1m2!1s0x39191b5826f16dc3%3A0xd517b8ba9d8dcd98!2sKing+Edward+Medical+University!5e0!3m2!1sen!2s!4v1468931001438,,,/Style%20Library/HEC/images/Placeholder-Image-Content.png,2/15/2005,Public,Government of Punjab,Lahore,Punjab,Yes,No
Kinnaird College for Women,General,Lahore,"93-Jail Road, Lahore. +92-42-99203781-4",http://www.kinnaird.edu.pk/,https://www.google.com/maps/embed?pb=!1m18!1m12!1m3!1d3400.520357273392!2d74.33840001467445!3d31.53733105346098!2m3!1f0!2f0!3f0!3m2!1i1024!2i768!4f13.1!3m3!1m2!1s0x391904ebcc18c7bf%3A0x1c311b2dddb7ab8f!2sKinnaird+College+For+Women+University!5e0!3m2!1sen!2s!4v1468931411703,,,/Style%20Library/HEC/images/_MG_2858.jpg,10/25/2002,Public,Government of Punjab,Lahore,Punjab,Yes,No
Kohat University of Science and Technology,General,Mian Campus; Kohat,"Bannu Rd, Kohat 26000, Khyber Pakhtunkhwa. +92-922-554578, +92-922-52914776",http://www.kust.edu.pk,https://www.google.com/maps/embed?pb=!1m18!1m12!1m3!1d3326.157596916694!2d71.44370301472682!3d33.523287952867086!2m3!1f0!2f0!3f0!3m2!1i1024!2i768!4f13.1!3m3!1m2!1s0x38d8ec241a467237%3A0xf7409abf0918f110!2sKohat+University+of+Science+%26+Technology!5e0!3m2!1sen!2s!4v1468696336911,,,/Style%20Library/HEC/images/Placeholder-Image-Content.png,8/30/2001,Public,Government of Khyber Pakhtunkhwa,Kohat,Khyber Pakhtunkhwa,Yes,No
"Kohsar University, Murree",General,Mian Campus,"Near Kashmir Point, Murree, Rawalpindi, Punjab Pakistan Tel # +92-51- 9269170",https://www.kum.edu.pk/,https://www.google.com/maps/embed?pb=!1m18!1m12!1m3!1d3311.0035334510444!2d73.40305921469545!3d33.915308632382356!2m3!1f0!2f0!3f0!3m2!1i1024!2i768!4f13.1!3m3!1m2!1s0x38dfd7af70ae0c9f%3A0xc01b8b5597e7bf89!2sKohsar%20University%20Murree!5e0!3m2!1sen!2s!4v1615645128912!5m2!1sen!2s,,,/english/universities/PublishingImages/Kohsar%20University%20Logo.jfif,7/2/2020,Public,Government of Punjab,Rawalpindi,Punjab,Yes,No
Lahore College for Women University,General,Lahore,"Jail Road, Lahore. +92-42-99203088",http://www.lcwu.edu.pk/,https://www.google.com/maps/embed?pb=!1m18!1m12!1m3!1d3400.242473463942!2d74.32503151467469!3d31.544959553084727!2m3!1f0!2f0!3f0!3m2!1i1024!2i768!4f13.1!3m3!1m2!1s0x391904bb826e8067%3A0xffe46e244880e4a9!2sLahore+College+for+Women+University!5e0!3m2!1sen!2s!4v1468951323445,,,/Style%20Library/HEC/images/Placeholder-Image-Content.png,9/10/2002,Public,Government of Punjab,Lahore,Punjab,Yes,No
Lahore Garrison University,General,Lahore,"Main CampusSector C, DHA Phase-VI, Lahore. +92-42-37181821-22",http://lgu.edu.pk/,https://www.google.com/maps/embed?pb=!1m18!1m12!1m3!1d3403.1944969790407!2d74.44066491467265!3d31.463835457080663!2m3!1f0!2f0!3f0!3m2!1i1024!2i768!4f13.1!3m3!1m2!1s0x391908dd6138ade3%3A0xa6cc469044e1fbc1!2sLahore+Garrison+University!5e0!3m2!1sen!2s!4v1468951636753,,,/Style%20Library/HEC/images/Placeholder-Image-Content.png,3/19/2014,Private,Government of Punjab,Lahore,Punjab,Yes,No
"Lahore Institute of Science & Technology, Lahore",General,Mian Campus,"7-Madina Park, Bedian Road, Lahore Cantt Punjab-Pakistan. Tel # +92-383-546-00,1 +92-3-111-444-547 Email: academics.head@list.edu.pk",http://www.list.edu.pk/,https://www.google.com/maps/embed?pb=!1m18!1m12!1m3!1d3402.3122331733607!2d74.42958121463008!3d31.488100455886453!2m3!1f0!2f0!3f0!3m2!1i1024!2i768!4f13.1!3m3!1m2!1s0x39190f9bdca567d5%3A0x356d5811931772e6!2sLahore%20Institute%20of%20Science%20and%20Technology!5e0!3m2!1sen!2s!4v1652848067959!5m2!1sen!2s,,,/english/universities/PublishingImages/LIST%20Lahore.png,1/18/2022,Private,Government of Punjab,Lahore,Punjab,Yes,No
Lahore Leads University,General,Lahore,"5-Tipu Block, New Garden Town, Lahore. +92-42-35846330, +92-4235843208, +92-42 111 002 005",http://www.leads.edu.pk/,https://www.google.com/maps/embed?pb=!1m18!1m12!1m3!1d3401.770243018111!2d74.32677301467356!3d31.502998555152796!2m3!1f0!2f0!3f0!3m2!1i1024!2i768!4f13.1!3m3!1m2!1s0x3919046f2bde7e89%3A0x1a623a4c577232a8!2sLahore+Leads+University!5e0!3m2!1sen!2s!4v1468952212139,,,/Style%20Library/HEC/images/Placeholder-Image-Content.png,1/22/2001,Private,Government of Punjab,Lahore,Punjab,Yes,No
Lahore School of Economics,General,Lahore,"Intersection Main Boulevard Phase VI DHA, Burki 53200, Lahore. +92-42-36560938",http://www.lahoreschoolofeconomics.edu.pk/,https://www.google.com/maps/embed?pb=!1m18!1m12!1m3!1d3401.7903724448256!2d74.47272111467359!3d31.502445355179926!2m3!1f0!2f0!3f0!3m2!1i1024!2i768!4f13.1!3m3!1m2!1s0x39190ec7be8d3369%3A0x9acfdcc9d2a86101!2sLahore+School+of+Economics!5e0!3m2!1sen!2s!4v1468952573841,,,/Style%20Library/HEC/images/Placeholder-Image-Content.png,6/16/1997,Private,Government of Punjab,Lahore,Punjab,Yes,No
"Lahore University of Biological and Applied Sciences,Lahore",General,Mian Campus,"Canal Road, North Tulsapur,  Lahore. Tel # 0092346 4418891",https://ubas.edu.pk/,https://www.google.com/maps/embed?pb=!1m18!1m12!1m3!1d3398.9769758273274!2d74.46129587481629!3d31.579679244210872!2m3!1f0!2f0!3f0!3m2!1i1024!2i768!4f13.1!3m3!1m2!1s0x391911052e8f60f1%3A0x594b730d4a391723!2sLahore%20University%20of%20Biological%20%26%20Applied%20Sciences%20(UBAS)!5e0!3m2!1sen!2s!4v1689865545067!5m2!1sen!2s,,,"/english/universities/PublishingImages/Lahore%20University%20of%20Biological%20and%20Applied%20Sciences,%20Lahore.png",2/8/2023,Private,Government of Punjab,Lahore,Punjab,Yes,No
Lahore University of Management Sciences,General,Lahore,"D.H.A, Lahore Cantt. 54792 Lahore, Pakistan. +92-42-35608000",http://www.lums.edu.pk/,https://www.google.com/maps/embed?pb=!1m18!1m12!1m3!1d3402.9551916664136!2d74.40856431467286!3d31.470418756756665!2m3!1f0!2f0!3f0!3m2!1i1024!2i768!4f13.1!3m3!1m2!1s0x391908a610715697%3A0xa58f8e89d5669a0e!2sLahore+University+of+Management+Sciences!5e0!3m2!1sen!2s!4v1468952896833,,,/Style%20Library/HEC/images/Placeholder-Image-Content.png,3/31/1985,Private,Government of Pakistan,Lahore,Punjab,Yes,No
"Lasbela University of Agriculture, Water & Marine Sciences",General,Lasbella,"Lasbela University of Agriculture, Water and Marine Sciences, Uthal, District Lasbela +92-853-610847",http://www.luawms.edu.pk/,https://www.google.com/maps/embed?pb=!1m18!1m12!1m3!1d3590.8073288635105!2d66.62752841454328!3d25.842893411543415!2m3!1f0!2f0!3f0!3m2!1i1024!2i768!4f13.1!3m3!1m2!1s0x3eb4f8b0177c94ad%3A0xe4f9e864b9249424!2sLasbela+University+of+Agriculture%2C+Water+%26+Marine+Sciences!5e0!3m2!1sen!2s!4v1468612725392,,,/Style%20Library/HEC/images/Placeholder-Image-Content.png,3/10/2005,Public,Government of Balochistan,Lasbella,Balochistan,Yes,No
Liaquat University of Medical & Health Sciences,General,Jamshoro,"Indus Highway, Jamshoro. +92-22-9213305, +92-22-9213307",http://www.lumhs.edu.pk,https://www.google.com/maps/embed?pb=!1m18!1m12!1m3!1d3603.232899589933!2d68.26913671453488!3d25.430476028438083!2m3!1f0!2f0!3f0!3m2!1i1024!2i768!4f13.1!3m3!1m2!1s0x394c791237c0330f%3A0xc8f6d04d460201fc!2sLiaquat+University+of+Medical+and+Health+Sciences!5e0!3m2!1sen!2s!4v1468992096518,,,/Style%20Library/HEC/images/Placeholder-Image-Content.png,1/20/2001,Public,Government of Sindh,Jamshoro,Sindh,Yes,No
"Malir University of Science & Technology, Karachi",General,Mian Campus,"Koohi Goth, Deh Landhi, Bin Qasim Town,  National Highway, Karachi,  Sindh-Pakistan Tel # 0092-21- 35002417 Email: admissions@maliruniversity.edu.pk",http://www.maliruniversity.edu.pk/,https://www.google.com/maps/embed?pb=!1m18!1m12!1m3!1d3619.8951541113242!2d67.23176941441086!3d24.867430251103738!2m3!1f0!2f0!3f0!3m2!1i1024!2i768!4f13.1!3m3!1m2!1s0x3eb331ccb26cc195%3A0x4c030cf261a8d7b9!2sMalir%20University!5e0!3m2!1sen!2s!4v1652251368715!5m2!1sen!2s,,,/english/universities/PublishingImages/Malir%20University%20Karachi.png,4/29/2022,Private,Government of Sindh,Karachi,Sindh,Yes,No
Mehran University of Engineering & Technology,General,Khairpur,"Indus Highway, Jamshoro 76062, Pakistan. +92-22-2771197",http://www.muet.edu.pk,https://www.google.com/maps/embed?pb=!1m18!1m12!1m3!1d3603.8928863352594!2d68.25835531453437!3d25.408395829335674!2m3!1f0!2f0!3f0!3m2!1i1024!2i768!4f13.1!3m3!1m2!1s0x394c795e86cdf11b%3A0xef1bd0f6ec31ced3!2sMehran+University+of+Engineering+and+Technology!5e0!3m2!1sen!2s!4v1468992328380,,,/Style%20Library/HEC/images/Placeholder-Image-Content.png,5/30/1977,Public,Government of Sindh,Khairpur,Sindh,Yes,No
Metropolitan University Karachi,General,Mian Campus,"Sector 34-A, KDA Schem 33, Main University Road, Malir Cantt, Karachi. Tel # +92-21-34151399",http://www.metropolitanuniversity.pk/,https://www.google.com/maps/embed?pb=!1m18!1m12!1m3!1d3617.740087523574!2d67.1558542144792!3d24.94092274817146!2m3!1f0!2f0!3f0!3m2!1i1024!2i768!4f13.1!3m3!1m2!1s0x3eb338684fc0354b%3A0x41723b040622738c!2sMetropolitan%20University%20Karachi!5e0!3m2!1sen!2s!4v1624267960752!5m2!1sen!2s,,,/english/universities/PublishingImages/Sindh/Metropolitan%20University%20karachi.jpeg,4/5/2016,Private,Government of Sindh,Karachi,Sindh,Yes,No
"Millennium Institute of Technology and Entrepreneurship, Karachi",General,Mian Campus,"Plot # 10, Sector 47, Korangi Creek Road, Korangi Creek, Karachi-Pakistan Tel # 0092-21-35090042  Email: registrar@mite.edu.pk; info@mite.edu.pk",https://mite.edu.pk/,"https://www.google.com/maps/search/mite+karachi/@24.873663,67.0964385,12z/data=!3m1!4b1",,,/english/universities/PublishingImages/Mite%20Karachi.png,4/28/2021,Private,Government of Sindh,Karachi,Sindh,Yes,No
Minhaj University,General,Lahore,"Near Hamdard Chowk, Township, Lahore. +92-42-351206800, +92-42-35145621-4 +92-42-351206322",http://www.mul.edu.pk/,https://www.google.com/maps/embed?pb=!1m18!1m12!1m3!1d3403.8697169381703!2d74.31513231467218!3d31.44525345799472!2m3!1f0!2f0!3f0!3m2!1i1024!2i768!4f13.1!3m3!1m2!1s0x391906cbd12a8403%3A0x568e8ad71dab1c6d!2sMinhaj+University+Lahore+-+Main+Campus!5e0!3m2!1sen!2s!4v1468953557347,,,/Style%20Library/HEC/images/Placeholder-Image-Content.png,10/15/2005,Private,Government of Punjab,Lahore,Punjab,Yes,No
Mir Chakar Khan Rind University,General,Mian Campus,"Mir Chakar Khan Rind University Luni Road, Sibi Balochistan Tel #  0833-500903 Email:  registrar@mckru.edu.pk",https://www.mckru.edu.pk/,https://www.google.com/maps/embed?pb=!1m18!1m12!1m3!1d3469.7342379931742!2d67.88338591465175!3d29.582334982052792!2m3!1f0!2f0!3f0!3m2!1i1024!2i768!4f13.1!3m3!1m2!1s0x39329bf8eaebc71d%3A0x15637bcfbdb6694b!2sMir%20Chakar%20Khan%20Rind%20University%20Sibi!5e0!3m2!1sen!2s!4v1602656966665!5m2!1sen!2s,,,/english/universities/PublishingImages/Mir%20Chakar%20Rind%20University.jpg,6/13/2018,Public,Government of Balochistan,Sibi,Balochistan,Yes,No
Mir Chakar Khan Rind University of Technology,Engineering & Technology,Mian Campus,"12-km, Sakhi Sarwar Road, Dera Ghazi Khan Punjab- Pakistan Tel # + 92 335 091 1214 Email:  registrar@mcut.edu.pk",http://www.mcut.edu.pk/,https://www.google.com/maps/embed?pb=!1m18!1m12!1m3!1d3455.2091638664106!2d70.55029391459249!3d30.00214992752545!2m3!1f0!2f0!3f0!3m2!1i1024!2i768!4f13.1!3m3!1m2!1s0x393aaf18256d9131%3A0x9ae0a7306a05c250!2sMir%20Chakar%20Khan%20Rind%20University%20of%20Technology%20DG%20Khan!5e0!3m2!1sen!2s!4v1624342157613!5m2!1sen!2s,,,/english/universities/PublishingImages/Mir%20Chakar%20Rind%20University%20of%20Technology%20D%20G%20Khan.jpg,3/15/2019,Public,Government of Punjab,Dera Ghazi Khan,Punjab,Yes,No
Mirpur University of Science & Technology,General,Mirpur,"Mirpur University of Science and Technology (MUST), Admin Block, Allama Iqbal Road, Sector B-3, Mirpur. +92-5827-961034",http://www.must.edu.pk/,https://www.google.com/maps/embed?pb=!1m18!1m12!1m3!1d3340.4190963002156!2d73.74302281471668!3d33.15062267214972!2m3!1f0!2f0!3f0!3m2!1i1024!2i768!4f13.1!3m3!1m2!1s0x391fec085ec688ef%3A0xd988766d3ccdd31c!2sMirpur+University+of+Science+and+Technology!5e0!3m2!1sen!2s!4v1468499286028,,,/Style%20Library/HEC/images/Placeholder-Image-Content.png,1/18/2008,Public,Government of AJK,Mirpur,Azad Jammu & Kashmir,Yes,No
Mohi-ud-Din Islamic University,General,Nerian Sharif,"Mohi-ud-Din Islamic University, Nerian Sharif AJ&K. +92-5825-450284-5 +92-342-5552062, +92-344-4366008, +92-343-5133628",http://www.miu.edu.pk/,https://www.google.com/maps/embed?pb=!1m18!1m12!1m3!1d3317.293300156329!2d73.76891251453704!3d33.75308594088442!2m3!1f0!2f0!3f0!3m2!1i1024!2i768!4f13.1!3m3!1m2!1s0x38e01494d59a2b1d%3A0xc37e1979ece95189!2sMohi-Ud-Din+Islamic+University+Nerian+Sharif!5e0!3m2!1sen!2s!4v1468504617373,,,/Style%20Library/HEC/images/Placeholder-Image-Content.png,1/18/2000,Private,Government of AJK,Nerian Sharif,Azad Jammu & Kashmir,Yes,No
Muhammad Ali Jinnah University,General,Karachi; Lahore; Quetta,"22-E, Block-6, PECHS, Karachi 75400 +92-21-111-87-87-87, +92-21-34311325-6, +92-21-34543321-25",http://www.jinnah.edu,https://www.google.com/maps/embed?pb=!1m18!1m12!1m3!1d3620.1070764103815!2d67.06775401452347!3d24.860192251391958!2m3!1f0!2f0!3f0!3m2!1i1024!2i768!4f13.1!3m3!1m2!1s0x3eb33e9f60d36339%3A0x1d64ea8b0a7ca381!2sMohammad+Ali+Jinnah+University!5e0!3m2!1sen!2s!4v1468992857483,,,/Style%20Library/HEC/images/Placeholder-Image-Content.png,5/18/2000,Private,Government of Sindh,Karachi,Sindh,Yes,No
Muhammad Nawaz Shareef University of Agriculture,Agriculture & Veterinary,Mian Campus,"Old Shujabad Road, Multan. Tel # +92-61-9201680, 9201711 Email: registrar@mnsuam.edu.pk",http://www.mnsuam.edu.pk/,https://www.google.com/maps/embed?pb=!1m18!1m12!1m3!1d3449.7000999885117!2d71.44797001464018!3d30.159989120060935!2m3!1f0!2f0!3f0!3m2!1i1024!2i768!4f13.1!3m3!1m2!1s0x393b31170593881d%3A0x90d09c94962b2464!2sMuhammad+Nawaz+Shareef+University+of+Agriculture+Multan!5e0!3m2!1sen!2s!4v1468953938234,,,/english/universities/PublishingImages/MNSUAM-Logo.png,9/11/2013,Public,Government of Punjab,Multan,Punjab,Yes,No
Muhammad Nawaz Sharif University of  Engineering & Technology,General,Multan,"GCT, Old Bahwalpur Road, Multan. +92-61-4482453",http://www.mnsuet.edu.pk/,https://www.google.com/maps/embed?pb=!1m18!1m12!1m3!1d3449.535559751756!2d71.49341951464041!3d30.164691819837998!2m3!1f0!2f0!3f0!3m2!1i1024!2i768!4f13.1!3m3!1m2!1s0x1458d336766f6f79%3A0x38546c04c733d572!2sMuhammad+Nawaz+Sharif+University+of+Engineering+%26+Technology!5e0!3m2!1sen!2s!4v1469009948172,,,/Style%20Library/HEC/images/Placeholder-Image-Content.png,5/29/2014,Public,Government of Punjab,Multan,Punjab,Yes,No
"Multan University of Science and Technology, Multan",General,Mian Campus,"0.5 Km from Nag Shah Chowk,  Main Muzaffargarah Road, Multan-Punjab Tel # +92304-1111952 Email: multanust@gmail.com",http://www.multanust.edu.pk,"https://www.google.com/maps/embed?pb=!1m18!1m12!1m3!1d4104.65483460853!2d71.40882043980456!3d30.105939731060502!2m3!1f0!2f0!3f0!3m2!1i1024!2i768!4f13.1!3m3!1m2!1s0x393b31ebd90e0a55%3A0xf382f9bedae102bb!2sMultan%20University%20of%20Science%20%26%20Technology!5e0!3m2!1sen!2s!4v1673602771743!5m2!1sen!2s""",,,/english/universities/PublishingImages/Multan%20UST.png,11/16/2022,Private,Government of Punjab,Multan,Punjab,Yes,No
"MY University, Islamabad",General,Mian Campus,"MY University, Japan Road, Islamabad.  +92-51-2355222",http://myu.edu.pk/,https://www.google.com/maps/embed?pb=!1m18!1m12!1m3!1d3324.170095124451!2d73.22649677490618!3d33.574932642784255!2m3!1f0!2f0!3f0!3m2!1i1024!2i768!4f13.1!3m3!1m2!1s0x38dfefdcb68ec83d%3A0xaf25a3f88ee7e951!2sMY%20University%2C%20Islamabad!5e0!3m2!1sen!2s!4v1684134296240!5m2!1sen!2s,,,/english/universities/PublishingImages/Pages/Islamabad/MY-University/MY%20University%20Logo.png,1/1/2013,Private,Government of Pakistan,Islamabad,Islamabad Capital Territory,Yes,No
"Namal University, Mianwali",Engineering & Technology,Mian Campus,"Namal University, 30-Km Talagang Road, Mianwali Punjab Pakistan Tel # +92-459-236995",https://www.namal.edu.pk/,https://www.google.com/maps/embed?pb=!1m18!1m12!1m3!1d3358.160798422008!2d71.78895521474157!3d32.68176938100086!2m3!1f0!2f0!3f0!3m2!1i1024!2i768!4f13.1!3m3!1m2!1s0x392730edd7b69295%3A0x555ce28c5c807cd9!2zTmFtYWwgQ29sbGVnZSBNaWFud2FsaSDZhtmF2YQg2qnYp9mE2Kwg2YXbjNin2YbZiNin2YTbjA!5e0!3m2!1sen!2s!4v1555654305575!5m2!1sen!2s&quot;,,,/english/universities/PublishingImages/Namal%20Institute%20Mianwali.jpg,1/25/2019,Private,Government of Punjab,Mianwali,Punjab,Yes,No
National College of Arts,Arts & Design,Lahore; Rawalpindi,"4-Shahrah-e-Quaid-I-Azam, Lahore. +92-42-99211622",http://www.nca.edu.pk/,https://www.google.com/maps/embed?pb=!1m18!1m12!1m3!1d3399.4021646567753!2d74.3050492146753!3d31.568017751947302!2m3!1f0!2f0!3f0!3m2!1i1024!2i768!4f13.1!3m3!1m2!1s0x39191ca8c0b8e735%3A0xa3ac1db9d38d7805!2sNational+College+of+Arts!5e0!3m2!1sen!2s!4v1469010396941,,,/english/universities/PublishingImages/NCA%20Lahore.png,3/31/1985,Public,Government of Punjab,Lahore,Punjab,Yes,No
National College of Business Administration & Economics,General,Mian Campus; Bahawal Pur; Multan; Rahim Yar Khan,"40-E/1, Gulberg III, Lahore. +92-42-35752716 +92-42-35878583, +92-42-35752716-9",http://www.ncbae.edu.pk,https://www.google.com/maps/embed?pb=!1m18!1m12!1m3!1d3401.2966260699945!2d74.33694651467401!3d31.516012054511545!2m3!1f0!2f0!3f0!3m2!1i1024!2i768!4f13.1!3m3!1m2!1s0x3919045f0de514f7%3A0x225ffefa1e47f17!2sNational+College+of+Business+Administration+%26+Economics!5e0!3m2!1sen!2s!4v1469010683938,,,/english/universities/PublishingImages/NCBAE-Logo.jpg,4/10/2002,Private,Government of Punjab,Lahore,Punjab,Yes,No
National Defense University,General,Islamabad,"Sector E-9, Islamabad",http://www.ndu.edu.pk/,https://www.google.com/maps/embed?pb=!1m14!1m8!1m3!1d3318.5229131637852!2d73.0198906!3d33.721292!3m2!1i1024!2i768!4f13.1!3m3!1m2!1s0x38dfbef43471f98b%3A0x510166360beac403!2sNational+Defence+University!5e0!3m2!1sen!2s!4v1466938856777,,,/Style%20Library/HEC/images/Placeholder-Image-Content.png,2/5/2007,Public,Government of Pakistan,Islamabad,Islamabad Capital Territory,Yes,No
"National Skills University, Islamabad",Engineering & Technology,Islamabad,"National Skills University, Faiz Ahmed Faiz Road, H-8/1, Islamabad Tel # +92-051-9250908 Public Relations Office: pro@nsu.edu.pk",https://www.nsu.edu.pk/,https://www.google.com/maps/embed?pb=!1m18!1m12!1m3!1d3320.191975124525!2d73.05453061468889!3d33.6780929448025!2m3!1f0!2f0!3f0!3m2!1i1024!2i768!4f13.1!3m3!1m2!1s0x38df951902018483%3A0xa9a2f48b62117ec4!2sNATIONAL%20SKILLS%20UNIVERSITY%2C%20ISLAMABAD!5e0!3m2!1sen!2s!4v1629098420751!5m2!1sen!2s,,,/english/universities/PublishingImages/Skills%20University.png,3/15/2018,Public,Government of Pakistan,Islamabad,Islamabad Capital Territory,Yes,No
National Textile University,General,Mian Campus; Karachi,"Sheikhupura Road, Faisalabad. +92-41-9230099",http://www.ntu.edu.pk/,https://www.google.com/maps/embed?pb=!1m18!1m12!1m3!1d3403.1867914032287!2d73.14678591467268!3d31.464047457070173!2m3!1f0!2f0!3f0!3m2!1i1024!2i768!4f13.1!3m3!1m2!1s0x3922691075c289bf%3A0xd48f8a2cd3c489f8!2sNational+Textile+University!5e0!3m2!1sen!2s!4v1469015607961,,,/english/universities/PublishingImages/NTU-.png,11/15/2002,Public,Government of Pakistan,Faisalabad,Punjab,Yes,No
"National University of Computer & Emerging Sciences, Islamabad",General,Mian Campus; Chiniot; Karachi; Lahore; Peshawar,"A.K Brohi Road Sector H-11/4, Islamabad. +92-51-111 128 128, +92-51-8314100 - 03",http://www.nu.edu.pk/,https://www.google.com/maps/embed?pb=!1m18!1m12!1m3!1d3321.050375514073!2d73.0131113145638!3d33.65585658071552!2m3!1f0!2f0!3f0!3m2!1i1024!2i768!4f13.1!3m3!1m2!1s0x38df95eb4930f6a3%3A0x42849753112383b!2sNational+University+of+Computer+%26+Emerging+Sciences!5e0!3m2!1sen!2s!4v1466939886439,,,/Style%20Library/HEC/images/Placeholder-Image-Content.png,7/1/2000,Private,Government of Pakistan,Islamabad,Islamabad Capital Territory,Yes,No
National University of Medical Sciences (NUMS),Medical,Rawalpindi,"National University of Medical Sciences , The Mall Rawalpindi, Paksitan. Tel # +92-51-9270677 Email: info@numspak.edu.pk",http://numspak.edu.pk/,https://www.google.com/maps/embed?pb=!1m18!1m12!1m3!1d3323.279807888027!2d73.04055601453099!3d33.59804378073195!2m3!1f0!2f0!3f0!3m2!1i1024!2i768!4f13.1!3m3!1m2!1s0x38df94871af1ee47%3A0xb6f418ce6a74565d!2sNational%20University%20Of%20Medical%20Sciences%20(NUMS)!5e0!3m2!1sen!2s!4v1669628533695!5m2!1sen!2s,,,/english/universities/PublishingImages/NUMS%20Rwp.png,10/31/2015,Public,Government of Pakistan,Rawalpindi,Punjab,Yes,No
National University of Modern Languages,General,Mian Campus; Faisalabad; Hyderabad; Karachi; Lahore; Multan; Peshawar; Quetta; Rawalpindi,"National University of Modern Languages H-9 Islamabad ,Pakistan. +92-51-111-11-6878, +92-51-90856878",http://www.numl.edu.pk/,https://www.google.com/maps/embed?pb=!1m18!1m12!1m3!1d3320.643839292459!2d73.04784161456412!3d33.66638928071254!2m3!1f0!2f0!3f0!3m2!1i1024!2i768!4f13.1!3m3!1m2!1s0x38df9570806ed9ed%3A0x894fbeb9e70954d4!2sNational+University+of+Modern+Languages!5e0!3m2!1sen!2s!4v1466941112518,,,/english/universities/PublishingImages/NUML%20Logo.jpeg,5/29/2000,Public,Government of Pakistan,Islamabad,Islamabad Capital Territory,Yes,No
National University of Pakistan,General,Mian Campus,"FGEIs (Cantt/Garrison) Directorate Secretariat, Sir Syed Road, Rawalpindi Cantt. Tel # 051-5910020",https://www.nup.edu.pk,https://www.google.com/maps/embed?pb=!1m18!1m12!1m3!1d3323.571317078206!2d73.05791557525038!3d33.59047798305615!2m3!1f0!2f0!3f0!3m2!1i1024!2i768!4f13.1!3m3!1m2!1s0x38df9360f51ad6a9%3A0x2bab3e71499dde76!2sNational%20University%20of%20Pakistan!5e0!3m2!1sen!2s!4v1698903716250!5m2!1sen!2s,,,/english/universities/PublishingImages/HEC.gif,4/20/2023,Public,Government of Pakistan,Rawalpindi,Punjab,Yes,No
National University of Sciences & Technology,General,Islamabad,"National University of Sciences and Technology. NUST Campus, H-12, Islamabad, Pakistan. +92-51-111-11-6878",http://www.nust.edu.pk/,https://www.google.com/maps/embed?pb=!1m18!1m12!1m3!1d53163.026539708!2d72.97635314124595!3d33.61336881607172!2m3!1f0!2f0!3f0!3m2!1i1024!2i768!4f13.1!3m3!1m2!1s0x38df9675aaaaaaab%3A0xc5180922c44eb86b!2sNUST-SEECS+(School+Of+Electrical+Engineering+and+Computer+Science)!5e0!3m2!1sen!2s!4v1466942296580,,,/Style%20Library/HEC/images/NUST-011.jpg,6/10/1997,Public,Government of Pakistan,Islamabad,Islamabad Capital Territory,Yes,No
"National University of Technology (NUTECH), Islamabad",Engineering & Technology,Mian Campus,"National University of Technology (NUTECH), IJP Road, Sector I-12, Islamabad. Tel: 9251-5476768",http://www.nutech.edu.pk,https://www.google.com/maps/embed?pb=!1m18!1m12!1m3!1d212685.2494298694!2d73.1037488627908!3d33.599932614241936!2m3!1f0!2f0!3f0!3m2!1i1024!2i768!4f13.1!3m3!1m2!1s0x0%3A0xb7afdd090e577e90!2sNational+University+of+Technology!5e0!3m2!1sen!2s!4v1525241718805,,,/english/universities/PublishingImages/NUTECH.png,2/26/2018,Public,Government of Pakistan,Islamabad,Islamabad Capital Territory,Yes,No
Nazeer Hussain University,General,Karachi,ST-2 Block-4 Federal B Area Karachi. +92-21- 3636 2046-54,http://www.nhu.edu.pk/,https://www.google.com/maps/embed?pb=!1m18!1m12!1m3!1d3618.2620544969955!2d67.0491072145247!3d24.92314114888149!2m3!1f0!2f0!3f0!3m2!1i1024!2i768!4f13.1!3m3!1m2!1s0x3eb33f74f52fe64f%3A0x47c471271394014!2sNazeer+Hussain+University!5e0!3m2!1sen!2s!4v1468922033566,,,/Style%20Library/HEC/images/Placeholder-Image-Content.png,5/30/2003,Private,Government of Sindh,Karachi,Sindh,Yes,No
NED University of Engineering & Technology,General,Karachi,"University Road, Karachi. +92-21-99261253, +92-21-99261 262-68/2242",http://www.neduet.edu.pk,https://www.google.com/maps/embed?pb=!1m18!1m12!1m3!1d3618.007610655506!2d67.10900591452489!3d24.931810648535368!2m3!1f0!2f0!3f0!3m2!1i1024!2i768!4f13.1!3m3!1m2!1s0x3eb338b8d4494c91%3A0xf864ed97b4a8ec0e!2sNED+University+of+Engineering+and+Technology!5e0!3m2!1sen!2s!4v1468993314616,,,/Style%20Library/HEC/images/Placeholder-Image-Content.png,5/30/1977,Public,Government of Sindh,Karachi,Sindh,Yes,No
Newport Institute of Communications & Economics,General,Karachi,"40-L, PECHS Block-6, Karachi +92-21-34547417, +92-21-34313070, +92-21-34541067 +92-21-34541074. +92-21-34381842",http://www.newports.edu.pk,https://www.google.com/maps/embed?pb=!1m18!1m12!1m3!1d3619.430658486608!2d67.05427701452403!3d24.88328775047137!2m3!1f0!2f0!3f0!3m2!1i1024!2i768!4f13.1!3m3!1m2!1s0x3eb33ef1966567f7%3A0x8a3b27b6fab64e5b!2sNewports+Institute+of+Communication+%26+Economics!5e0!3m2!1sen!2s!4v1468993513648,,,/Style%20Library/HEC/images/Placeholder-Image-Content.png,5/30/2002,Private,Government of Sindh,Karachi,Sindh,Yes,No
NFC Institute of Engineering & Technology,Engineering & Technology,Mian Campus,"Opposite Pak Arab Fertilizers, Khanewal Road, Multan, Punjab-Pakistan Tel # +92-61-9220044, +92-61-9220012",http://www.nfciet.edu.pk,https://www.google.com/maps/embed?pb=!1m18!1m12!1m3!1d3447.5860181396324!2d71.53645211464169!3d30.22036091719669!2m3!1f0!2f0!3f0!3m2!1i1024!2i768!4f13.1!3m3!1m2!1s0x393b35c5e1760b13%3A0x1220e866c021c2a7!2sNFC+Institute+of+Engineering+and+Technology!5e0!3m2!1sen!2s!4v1469015803601,,,/english/universities/PublishingImages/NFC-IET_Logo.jpg,5/8/2012,Public,Government of Punjab,Multan,Punjab,Yes,No
"Nishtar Medical University, Multan",Medical,Multan,"Nishtar Medical University (NMU), Nishtar Road, Gillani Colony, Multan Punjab, Pakistan Tel # +92-61-9200231-35 Fax # +92-61-9200227 Email:   nishtarmed@gmail.com",http://www.nmch.edu.pk,https://www.google.com/maps/embed?pb=!1m18!1m12!1m3!1d3448.182308924241!2d71.4390553144275!3d30.203343718004955!2m3!1f0!2f0!3f0!3m2!1i1024!2i768!4f13.1!3m3!1m2!1s0x393b33cf76d44955%3A0xb3808aee2bfa3217!2sNishtar+Medical+University!5e0!3m2!1sen!2s!4v1551951935504&quot;,,,/english/universities/PublishingImages/Nishtar%20Medical%20University%20Multan.png,9/28/2017,Public,Government of Punjab,Multan,Punjab,Yes,No
"Northern University, Nowshera",General,Mian Campus,"Wattar Wali, Ziarat Kaka Sahib Road,  Nowhsera, Khyber Pakhunkhwa. Tel # +92-923-616000, 616001, 616002, 616003 Email: registrar@northern.edu.pk",http://www.northern.edu.pk,https://www.google.com/maps/embed?pb=!1m18!1m12!1m3!1d3307.404069747269!2d72.03012361474003!3d34.007837627517304!2m3!1f0!2f0!3f0!3m2!1i1024!2i768!4f13.1!3m3!1m2!1s0x38ded232e0bbd6e9%3A0x84e0d30a01326ccd!2sNorthern+University!5e0!3m2!1sen!2s!4v1468697048309,,,/english/universities/PublishingImages/Northen%20University.jpg,11/2/2002,Private,Government of Khyber Pakhtunkhwa,Nowshehra,Khyber Pakhtunkhwa,Yes,No
Nur International University,General,Lahore,"Chairperson Secretariat,Fatima Memorial Hospital, Shadman, Lahore. +92-42-111555600, +92-42-37421967, +92-42-37503694",http://www.niu.edu.pk/,https://www.google.com/maps/embed?pb=!1m18!1m12!1m3!1d3408.5678817779703!2d74.22214011466892!3d31.315686364354804!2m3!1f0!2f0!3f0!3m2!1i1024!2i768!4f13.1!3m3!1m2!1s0x3919ab2e731b6231%3A0x86ffc171567f617!2sNur+International+University!5e0!3m2!1sen!2s!4v1469016210308,,,/Style%20Library/HEC/images/Placeholder-Image-Content.png,2/26/2015,Private,Government of Punjab,Lahore,Punjab,Yes,No
"Pak-Austria Fachhochschule Institute of Applied Sciences and Technology, Haripur",General,Mian Campus,"Mang, Haripur-Khyber Pakhtunkhwa Pakistan Tel # +92-995-645112-18 Fax # +92-995-645117",http://www.paf-iast.edu.pk,https://www.google.com/maps/embed?pb=!1m14!1m8!1m3!1d13245.041886248497!2d72.9179687!3d33.9086952!3m2!1i1024!2i768!4f13.1!3m3!1m2!1s0x0%3A0xecea542d8a6b1d0a!2sPak-Austria%20Fachhochschule%20Institute%20of%20Applied%20Sciences%20and%20Technology!5e0!3m2!1sen!2s!4v1635920497016!5m2!1sen!2s,,,/english/universities/PublishingImages/PAK-IAST%20Haripur.jpg,4/1/2019,Public,Government of Khyber Pakhtunkhwa,Haripur,Khyber Pakhtunkhwa,Yes,No
"Pakistan Global Institute, Rawat",General,Mian Campus,"Moza Bagha Sheikhan, Rawat, Rawalpindi. Tel # +92 051 885 0570 Email: pgiadmissions@mypgi.edu.pk",http://www.mypgi.edu.pk,https://www.google.com/maps/embed?pb=!1m18!1m12!1m3!1d6657.064975565431!2d73.18839558732587!3d33.461484762175424!2m3!1f0!2f0!3f0!3m2!1i1024!2i768!4f13.1!3m3!1m2!1s0x38dff1bdcf97a8e1%3A0x57608ce2cf0c4adc!2sPakistan%20Global%20Institute%20(PGI)%20RAWAT!5e0!3m2!1sen!2s!4v1685336148653!5m2!1sen!2s,,,/english/universities/PublishingImages/Pakistan%20Global%20Institute-Rawat.png,3/17/2023,Private,Government of Pakistan,Rawat,Punjab,Yes,No
Pakistan Institute of Development Economics (PIDE),General,Islamabad,"Pakistan Institute of Development Economics (PIDE),  Quaid-i-Azam University Campus,  P.O. Box. 1091, Islamabad, 44000, Pakistan. +92-51-9248074 +92-51-9248065",http://www.pide.org.pk/,https://www.google.com/maps/embed?pb=!1m18!1m12!1m3!1d3317.4381333309943!2d73.13656871456696!3d33.74934238068935!2m3!1f0!2f0!3f0!3m2!1i1024!2i768!4f13.1!3m3!1m2!1s0x38dfc11dc418db5d%3A0x6ecd9345f02150b5!2sPakistan+Institute+of+Development+Economics!5e0!3m2!1sen!2s!4v1466942670248,,,/Style%20Library/HEC/images/Placeholder-Image-Content.png,11/8/2006,Public,Government of Pakistan,Islamabad,Islamabad Capital Territory,Yes,No
Pakistan Institute of Engineering & Applied Sciences,Engineering & Technology,Mian Campus; Islamabad,"Nilore, Islamabad, Pakistan. +92 (51) 1111 PIEAS +92 (51) 1111 74327 +92 (51) 924 8600",http://www.pieas.edu.pk/,https://www.google.com/maps/embed?pb=!1m18!1m12!1m3!1d3321.1253466800636!2d73.26623871456374!3d33.65391388071615!2m3!1f0!2f0!3f0!3m2!1i1024!2i768!4f13.1!3m3!1m2!1s0x38dfe88544506195%3A0xeece07c3d316ebed!2sPakistan+Institute+of+Engineering+%26+Applied+Sciences+(PIEAS)!5e0!3m2!1sen!2s!4v1466942904039,,,/english/universities/PublishingImages/PIEAS.jpg,3/22/2000,Public,Government of Pakistan,Islamabad,Islamabad Capital Territory,Yes,No
Pakistan Institute of Fashion & Design,Arts & Design,Lahore,"51-J/3, Johar Town, Lahore. +92-42 99232951-57",http://www.pifd.edu.pk/,https://www.google.com/maps/embed?pb=!1m18!1m12!1m3!1d3403.1185623123347!2d74.2537086146727!3d31.46592455697781!2m3!1f0!2f0!3f0!3m2!1i1024!2i768!4f13.1!3m3!1m2!1s0x39190228557806b1%3A0x94368bf6f2a8e7ee!2sPakistan+Institute+of+Fashion+and+Design!5e0!3m2!1sen!2s!4v1469016800916,,,/english/universities/PublishingImages/PFID%20Lahore.jpg,5/4/2011,Public,Government of Punjab,Lahore,Punjab,Yes,No
Pakistan Military Academy,General,Abbottabad,"Kakul Road, Abbottabad Pakistan",http://www.pma.edu.pk,https://www.google.com/maps/embed?pb=!1m18!1m12!1m3!1d3300.3420740825904!2d73.26113021474507!3d34.18873531797313!2m3!1f0!2f0!3f0!3m2!1i1024!2i768!4f13.1!3m3!1m2!1s0x38de302df8f90399%3A0x57f0e9f512fae96f!2sPakistan+Military+Academy!5e0!3m2!1sen!2s!4v1468697574141,,,/Style%20Library/HEC/images/Placeholder-Image-Content.png,9/18/1959,Public,Government of Pakistan,Abbottabad,Khyber Pakhtunkhwa,Yes,No
Pakistan Naval Academy,General,Karachi,"Pakistan Naval Academy Karachi, Pakistan",http://www.paknavy.gov.pk,https://www.google.com/maps/embed?pb=!1m18!1m12!1m3!1d3621.865375842522!2d66.96943371452238!3d24.800062953784273!2m3!1f0!2f0!3f0!3m2!1i1024!2i768!4f13.1!3m3!1m2!1s0x3eb3164a314e5d19%3A0xa01aebb313363b8b!2sPakistan+Naval+Academy!5e0!3m2!1sen!2s!4v1468993776976,,,/Style%20Library/HEC/images/Placeholder-Image-Content.png,6/4/1965,Public,Government of Sindh,Karachi,Sindh,Yes,No
Peoples University of Medical & Health Sciences for Women,General,Nawabshah,"Peoples University of Medical & Health Sciences for Women, Nawabshah 67480 (SBA). +92-244-9370260",http://www.pumhs.edu.pk,https://www.google.com/maps/embed?pb=!1m18!1m12!1m3!1d3578.5530455445974!2d68.40067581455156!3d26.243708494887404!2m3!1f0!2f0!3f0!3m2!1i1024!2i768!4f13.1!3m3!1m2!1s0x394a4cc854944097%3A0xf9bec6d24cfab1f5!2sPeoples+University+of+Medical+and+Health+Sciences!5e0!3m2!1sen!2s!4v1468994146053,,,/Style%20Library/HEC/images/Placeholder-Image-Content.png,12/21/2009,Public,Government of Sindh,Nawabshah,Sindh,Yes,No
Pir Mehr Ali Shah Arid Agriculture University,General,Rawalpindi,"Shamsabad, Murree Road, Rawalpindi. +92-51-9292104",http://www.uaar.edu.pk/,https://www.google.com/maps/embed?pb=!1m18!1m12!1m3!1d3321.3996102879746!2d73.07892041473016!3d33.64680614643471!2m3!1f0!2f0!3f0!3m2!1i1024!2i768!4f13.1!3m3!1m2!1s0x38df952e017d0acd%3A0xf20be4a76782ceaf!2sPir+Mehr+Ali+Shah+Arid+Agriculture+University!5e0!3m2!1sen!2s!4v1469017165334,,,/Style%20Library/HEC/images/Placeholder-Image-Content.png,5/24/1995,Public,Government of Punjab,Rawalpindi,Punjab,Yes,No
"Preston Institute of Management, Science & Technology",General,Karachi,"177/2, IEP Building, Karachi. +92-21-32791216, +92-21-32789888, +92-21-32789889  +92-21-32789890",http://pimsat-khi.edu.pk,https://www.google.com/maps/embed?pb=!1m18!1m12!1m3!1d3620.2203073031533!2d67.03766141452341!3d24.856324151545955!2m3!1f0!2f0!3f0!3m2!1i1024!2i768!4f13.1!3m3!1m2!1s0x3eb33e79504389a1%3A0x50c70882844229bd!2sPreston+Institute+of+Management%2C+Science+and+Technology!5e0!3m2!1sen!2s!4v1468995096903,,,/Style%20Library/HEC/images/Placeholder-Image-Content.png,7/31/2001,Private,Government of Sindh,Karachi,Sindh,Yes,No
"Preston University, Karachi",General,Karachi,"Main Campus:15, Banglore Town, Shahrah-e-Faisal,Karachi. +92-21-34398727, +92-21-34534663-4 UAN:021-111-707-808",http://www.preston.edu.pk,https://www.google.com/maps/embed?pb=!1m18!1m12!1m3!1d3619.8877718030944!2d67.08308761452369!3d24.86768235109345!2m3!1f0!2f0!3f0!3m2!1i1024!2i768!4f13.1!3m3!1m2!1s0x3eb33eae52943efb%3A0xf3c0191e0dd7bff0!2sPreston+University!5e0!3m2!1sen!2s!4v1468995714444,,,/Style%20Library/HEC/images/Placeholder-Image-Content.png,4/15/2004,Private,Government of Sindh,Karachi,Sindh,Yes,No
"Preston University, Kohat",General,Mian Campus; Islamabad,"Sector 10 Street 3 KDA Kohat, Kohat, Pakistan, Tel # +92 922 860211 Islamabad Campus: Plot No 85, Street 3, Sector H-8/1,Islamabad. +92-51-8491300",http://www.preston.edu.pk,https://www.google.com/maps/embed?pb=!1m18!1m12!1m3!1d3323.303139856728!2d71.42577761466967!3d33.597438280732035!2m3!1f0!2f0!3f0!3m2!1i1024!2i768!4f13.1!3m3!1m2!1s0x38d8ef9db96cedb7%3A0xf2f0e47a38bd9813!2sPreston+University+Kohat!5e0!3m2!1sen!2s!4v1539682263407&quot;,,,/english/universities/PublishingImages/Preston%20University%20Kohat.jpg,11/23/2002,Private,Government of Khyber Pakhtunkhwa,Kohat,Khyber Pakhtunkhwa,Yes,No
"Punjab Tianjin University of Technology, Lahore",Engineering & Technology,Lahore,"Punjab Tianjin University of Technology (PTUT),  Near Green Town Police station, Township,  Lahore, Pakistan Email:    info@ptut.edu.pk Tel:    +92 42 9933 2438  & +92 42 9933 2439",http://ptut.edu.pk/,https://www.google.com/maps/embed?pb=!1m14!1m8!1m3!1d27233.144269631953!2d74.296372!3d31.437729!3m2!1i1024!2i768!4f13.1!3m3!1m2!1s0x0%3A0x3f699edaa3903074!2sPunjab+Tianjin+University+of+Technology%2CLahore!,,,/english/universities/PublishingImages/PTUT%20Lahore.png,3/20/2018,Public,Government of Punjab,Lahore,Punjab,Yes,No
"Punjab University of Technology, Rasul-Mandi Bahauddin",Engineering & Technology,Mian Campus,"13-km Mandi Bahauddin - Sarai Alamgir Rd, Rasul, Mandi Bahauddin, Punjab 50370, Pakistan Tel # 0092-0546-553216 Email: registrar@putrasul.edu.pk URL # www.putrasul.edu.pk",https://www.putrasul.edu.pk/,https://www.google.com/maps/embed?pb=!1m18!1m12!1m3!1d3358.282888013573!2d73.55997371450026!3d32.678522281001825!2m3!1f0!2f0!3f0!3m2!1i1024!2i768!4f13.1!3m3!1m2!1s0x14e4cadbdb58c789%3A0x1aa21c1e2dd5014f!2sPunjab%20University%20of%20Technology%20Rasul!5e0!3m2!1sen!2s!4v1649323336044!5m2!1sen!2s,,,"/english/universities/PublishingImages/Punjab%20University%20of%20Technology,%20Rasul-Mandi%20Bahauddin.jpg",5/24/2018,Public,Government of Punjab,Mandi Bahauddin,Punjab,Yes,No
Qarshi University,General,Mian Campus; Lahore,"08-km Thokar Niaz baig, Canal Road,Lahore. +92-42-37499163",http://www.qu.edu.pk/,https://www.google.com/maps/embed?pb=!1m18!1m12!1m3!1d3401.0826320490396!2d74.32272821467409!3d31.521890354221917!2m3!1f0!2f0!3f0!3m2!1i1024!2i768!4f13.1!3m3!1m2!1s0x3919048f4a5f785d%3A0x6cd13df620b8b4ff!2sQarshi+University!5e0!3m2!1sen!2s!4v1469017359433,,,/english/universities/PublishingImages/Qarshi%20University.jpg,5/2/2011,Private,Government of Punjab,Lahore,Punjab,Yes,No
"Quaid-e-Awam University of Engineering, Sciences & Technology",General,Larkana; Nawabshah,"Quaid-e-Awam University of Engineering, Science & Technology (QUEST), Nawabshah. +92-244-9370366, +92-244-937 0381",http://www.quest.edu.pk,https://www.google.com/maps/embed?pb=!1m18!1m12!1m3!1d3578.798651913855!2d68.38792921455142!3d26.235731095221304!2m3!1f0!2f0!3f0!3m2!1i1024!2i768!4f13.1!3m3!1m2!1s0x394a4cd3075ee1f5%3A0xa3643f4b36eec24f!2sQuaid-e-Awam+University+of+Engineering%2C+Sciences+%26+Technology+Nawabshah!5e0!3m2!1sen!2s!4v1468995994418,,,/Style%20Library/HEC/images/Placeholder-Image-Content.png,10/29/1996,Public,Government of Sindh,Nawabshah,Sindh,Yes,No
Quaid-i-Azam University,General,Islamabad,"Quaid-i-Azam University Islamabad, 45320, Pakistan. +92-051-9064 0000",https://www.qau.edu.pk/,https://www.google.com/maps/embed?pb=!1m18!1m12!1m3!1d3317.67053334762!2d73.1581704145667!3d33.7433346806912!2m3!1f0!2f0!3f0!3m2!1i1024!2i768!4f13.1!3m3!1m2!1s0x38dfc11d3571e5bf%3A0x841a9ed6d869644f!2sQuaid-i-Azam+University!5e0!3m2!1sen!2s!4v1466947277311,,,/Style%20Library/HEC/images/Placeholder-Image-Content.png,1/1/1973,Public,Government of Pakistan,Islamabad,Islamabad Capital Territory,Yes,No
Qurtaba University of Science & Information Technology,General,Dera Ismail Khan; Peshawar,"Sheikh Yousaf Road, D.I Khan. +92-966-714007-8",http://www.qurtuba.edu.pk,https://www.google.com/maps/embed?pb=!1m18!1m12!1m3!1d3389.243107601772!2d70.89731791468238!3d31.845599238197504!2m3!1f0!2f0!3f0!3m2!1i1024!2i768!4f13.1!3m3!1m2!1s0x39266c25b1775edf%3A0xeb3a3eba1ff09b1!2sQurtaba+University+of+Science+and+Information+Technology!5e0!3m2!1sen!2s!4v1469027311062,,,/Style%20Library/HEC/images/Placeholder-Image-Content.png,8/30/2001,Private,Government of Khyber Pakhtunkhwa,Peshawar,Khyber Pakhtunkhwa,Yes,No
"Rashid Latif Khan University, Lahore",General,Mian Campus,"Lahore-Punjab, Pakistan. Tel # +92-49-2451091  Email: info@rlku.edu.pk",https://rlku.edu.pk,https://www.google.com/maps/embed?pb=!1m18!1m12!1m3!1d1705.015797021867!2d74.40316878853723!3d31.275221286023406!2m3!1f0!2f0!3f0!3m2!1i1024!2i768!4f13.1!3m3!1m2!1s0x3919af62190f0185%3A0xacf2f842b7744c44!2sRashid%20Latif%20Medical%20College!5e0!3m2!1sen!2s!4v1685098520873!5m2!1sen!2s,,,/english/universities/PublishingImages/Rashid%20Latif%20Khan%20University.jpg,11/24/2021,Private,Government of Punjab,Lahore,Punjab,Yes,No
Rawalpindi Medical University,Medical,Mian Campus,"Tipu Rd, Rawalpindi 46000, +92 51 9281011",http://rmur.edu.pk,https://www.google.com/maps/embed?pb=!1m18!1m12!1m3!1d3323.13944988413!2d73.06664221482143!3d33.60168608073094!2m3!1f0!2f0!3f0!3m2!1i1024!2i768!4f13.1!3m3!1m2!1s0x38df94a399921851%3A0x5be66d90ca6b91de!2sRawalpindi+Medical+University!5e0!3m2!1sen!2s!4v1504596716828,,,/english/universities/PublishingImages/Rwp%20Medical%20University.jpeg,5/5/2017,Public,Government of Punjab,Rawalpindi,Punjab,Yes,No
"Rawalpindi Women University, Rawalpindi",General,Mian Campus,"6th Road, Satellite Town, Rawalpindi Punjab Pakistan Tel # +92-51-4426873 Fax # + 92-51-4426873 Email:  info@rwu.edu.pk",https://rwu.edu.pk,https://www.google.com/maps/embed?pb=!1m18!1m12!1m3!1d3321.511483975461!2d73.06567241474461!3d33.64390648071898!2m3!1f0!2f0!3f0!3m2!1i1024!2i768!4f13.1!3m3!1m2!1s0x38df9523ab510d05%3A0xca4a5fd0c50d3085!2sRawalpindi%20Women%20University%206th%20Road%20Satellite%20Town%20Rawalpindi!5e0!3m2!1sen!2s!4v1587457538961!5m2!1sen!2s,,,/english/universities/PublishingImages/Rawalpindi%20Women%20University.jpg,8/13/2019,Public,Government of Punjab,Rawalpindi,Punjab,Yes,No
Riphah International University,General,Faisalabad; Islamabad; Lahore,"Hajj Complex Road, Sector I-14, Islamabad +92-51-111-RIPHAH, +92-51-8446000-8 +92-51-5469641-7",https://www.riphah.edu.pk/,https://www.google.com/maps/embed?pb=!1m18!1m12!1m3!1d3322.568738986546!2d72.96970361456246!3d33.61649248072672!2m3!1f0!2f0!3f0!3m2!1i1024!2i768!4f13.1!3m3!1m2!1s0x38df968cf40a7279%3A0xc5f472b78a8bcfc4!2sRiphah+International+University!5e0!3m2!1sen!2s!4v1466947595083,,,/Style%20Library/HEC/images/Placeholder-Image-Content.png,10/16/2002,Private,Government of Pakistan,Islamabad,Islamabad Capital Territory,Yes,No
Saifee Burhani University,General,Mian Campus,"Plot No. ST-3, Allama Rasheed Turabi Road, Block-G, North Nazimabad, Karachi. and  Saifee Hospital, ST # 1, Block F, North Nazimabad, Karachi. Email: saifeeburhaniuniversity@gmail.com",https://www.sbu.edu.pk,"https://www.google.com/maps/place/Saifee+Burhani+University/@24.9310152,67.0478833,17z/data=!3m1!4b1!4m6!3m5!1s0x3eb33f3c379b77a9:0x48afbd92490a1164!8m2!3d24.9310104!4d67.0504582!16s%2Fg%2F11y3kdpr_z?entry=ttu&g_ep=EgoyMDI0MTAwNy4xIKXMDSoASAFQAw%3D%3D",,,/PublishingImages/Banner%20Images/university-banner.png,6/5/2023,Private,Government of Sindh,Karachi,Sindh,Yes,No
"Salim Habib University (Former Barret Hodgson University), Karachi",General,Mian Campus,"The Salim Habib Campus, NC-24, Deh Dih, Korangi Creek, Karachi +92 21 35122931-35",http://www.shu.edu.pk,https://www.google.com/maps/embed?pb=!1m14!1m8!1m3!1d14487.527988192798!2d67.1112943!3d24.7994939!3m2!1i1024!2i768!4f13.1!3m3!1m2!1s0x0%3A0xc0cf0be71ddbed22!2sBarrett+Hodgson+University!5e0!3m2!1sen!2s!4v1502080462253&quot;,,,/english/universities/PublishingImages/Salim%20Habib%20University.jpg,8/25/2015,Private,Government of Sindh,Karachi,Sindh,Yes,No
Sardar Bahadur Khan Women University,General,Quetta,"Bawrery Road, Quetta. +92-81-9213301",http://www.sbkwu.edu.pk,https://www.google.com/maps/embed?pb=!1m18!1m12!1m3!1d3448.585627456545!2d66.96012611464107!3d30.191828718550934!2m3!1f0!2f0!3f0!3m2!1i1024!2i768!4f13.1!3m3!1m2!1s0x3ed2e0fa5ca8d339%3A0x2c0987ee35d7385e!2sSardar+Bahadur+Khan+Women+University!5e0!3m2!1sen!2s!4v1468613307793,,,/Style%20Library/HEC/images/Placeholder-Image-Content.png,3/11/2004,Public,Government of Balochistan,Quetta,Balochistan,Yes,No
Sarhad University of Science & Information Technology,General,Abbottabad; Bannu; Dera Ismail Khan; Haripur; Hyderabad; Islamabad; Kohat; Mansehra; Mardan; Swabi; Swat,"Campus Ring Road LANDI AKHUN AHMAD? Peshawar. +92-91-5230941, +92-91-5230931-33",http://www.suit.edu.pk,https://www.google.com/maps/embed?pb=!1m18!1m12!1m3!1d3309.194688328799!2d71.52686861473875!3d33.96183512993728!2m3!1f0!2f0!3f0!3m2!1i1024!2i768!4f13.1!3m3!1m2!1s0x38d9182d8f5ce6b5%3A0xc7ccb333f2b5d3e6!2sSarhad+University+of+Science+%26+Information+Technology!5e0!3m2!1sen!2s!4v1468699212278,,,/Style%20Library/HEC/images/Placeholder-Image-Content.png,8/30/2001,Private,Government of Khyber Pakhtunkhwa,Peshawar,Khyber Pakhtunkhwa,Yes,No
Shah Abdul Latif University,General,Khairpur,"Khairpur Mir's, Sindh. +92-243-9280061-62",http://www.salu.edu.pk,https://www.google.com/maps/embed?pb=!1m18!1m12!1m3!1d14157.481211986214!2d68.75478022391727!3d27.488856861338245!2m3!1f0!2f0!3f0!3m2!1i1024!2i768!4f13.1!3m3!1m2!1s0x3935dba786ac5d51%3A0xb6820eada33e392e!2sShah+Abdul+Latif+University%2C+Khairpur%2C+Pakistan!5e0!3m2!1sen!2s!4v1468996862454,,,/Style%20Library/HEC/images/Placeholder-Image-Content.png,12/8/1986,Public,Government of Sindh,Khairpur,Sindh,Yes,No
"Shaheed Allah Buksh Soomro University of Arts, Design and Heritages, Jamshoro",Arts & Design,Mian Campus,"Sonwillhar Hills, Near East Toll Plaza,  Jamshoro, Sindh. Tel # 0092(22) 9213600 Email: registrar@sabsu.edu.pk",https://www.sabsu.edu.pk/,https://www.google.com/maps/embed?pb=!1m18!1m12!1m3!1d3604.376090328516!2d68.25400157457291!3d25.39221862377551!2m3!1f0!2f0!3f0!3m2!1i1024!2i768!4f13.1!3m3!1m2!1s0x394c7946c864fb3b%3A0xce77b801481f2683!2sShaheed%20Allah%20Buksh%20Soomro%20University%20of%20Art%2C%20Design%2C%20and%20Heritages%20Jamshoro%2C%20Sindh!5e0!3m2!1sen!2s!4v1689866787187!5m2!1sen!2s,,,"/english/universities/PublishingImages/Shaheed%20Allah%20Buksh%20Soomro%20University%20of%20Arts,%20Design%20and%20Heritages,%20Jamshoro.png",7/15/2020,Public,Government of Sindh,Jamshoro,Sindh,Yes,No
Shaheed Benazir Bhutto City University,General,Karachi,"Plot F-201 1st floor & 2nd Floor, Near Site Philips Chowrangi, Labour Square, Site Police Station, Binoria Restaurant, Karachi. +92-21-34242136, +92-21-34242091",http://www.sbbcu.edu.pk,https://www.google.com/maps/embed?pb=!1m18!1m12!1m3!1d327306.1053765798!2d66.86535229936392!3d24.991424964965155!2m3!1f0!2f0!3f0!3m2!1i1024!2i768!4f13.1!3m3!1m2!1s0x3eb33e06651d4bbf%3A0x9cf92f44555a0c23!2sKarachi%2C+Pakistan!5e0!3m2!1sen!2s!4v1468997859488,,,/Style%20Library/HEC/images/Placeholder-Image-Content.png,3/13/2013,Private,Government of Sindh,Karachi,Sindh,Yes,No
Shaheed Benazir Bhutto Dewan University,General,Karachi,"Plot 30-A/1, Sector-23, Korangi Industrial Area, Karachi 74900 +92-21-3511 5008-10, +92-21-35115031, +92-21-35115036-7",http://Under%20construction,https://www.google.com/maps/embed?pb=!1m18!1m12!1m3!1d462805.0880862178!2d66.7845045546518!3d25.011505198514644!2m3!1f0!2f0!3f0!3m2!1i1024!2i768!4f13.1!3m3!1m2!1s0x3eb33e06651d4bbf%3A0x9cf92f44555a0c23!2sKarachi%2C+Pakistan!5e0!3m2!1sen!2s!4v1468998634685,,,/Style%20Library/HEC/images/Placeholder-Image-Content.png,3/7/2013,Private,Government of Sindh,Karachi,Sindh,Yes,No
Shaheed Benazir Bhutto University,General,Upper Dir,"Sheringal, Upper Dir, Khyber Pakhtunkhwa. +92-944-885527, +92-944 885529",http://www.sbbu.edu.pk/,https://www.google.com/maps/embed?pb=!1m18!1m12!1m3!1d3257.295530564419!2d72.00277421477558!3d35.2737778598179!2m3!1f0!2f0!3f0!3m2!1i1024!2i768!4f13.1!3m3!1m2!1s0x38dc80f7296c5685%3A0xce2efae652d7fcd1!2sShaheed+Benazir+Bhuto+University!5e0!3m2!1sen!2s!4v1468700417778,,,/Style%20Library/HEC/images/Placeholder-Image-Content.png,10/6/2009,Public,Government of Khyber Pakhtunkhwa,Upper Dir,Khyber Pakhtunkhwa,Yes,No
Shaheed Benazir Bhutto University of Veterinary & Animal Sciences,General,Nawabshah,"Main Nawabshah road, Sakrand, District Shaheed Benazirabad. +92-244-322150",http://www.sbbuvas.edu.pk,https://www.google.com/maps/embed?pb=!1m18!1m12!1m3!1d223.83797242054985!2d68.27471882802303!3d26.150853122150618!2m3!1f0!2f0!3f0!3m2!1i1024!2i768!4f13.1!3m3!1m2!1s0x394bac4850b14867%3A0x510ba42e43b5f4bc!2sNawabshah+Rd%2C+Sakrand%2C+Pakistan!5e0!3m2!1sen!2s!4v1468999476088,,,/Style%20Library/HEC/images/Placeholder-Image-Content.png,9/13/2012,Public,Government of Sindh,Nawabshah,Sindh,Yes,No
"Shaheed Benazir Bhutto University, Shaheed Benazirabad",General,Nawabshah,"Civil Lines, Nawabshah. +92-244-9370520, +92-244-9370527-28-29",http://http://www.sbbusba.edu.pk/,https://www.google.com/maps/embed?pb=!1m18!1m12!1m3!1d3578.4324121305044!2d68.39657691455167!3d26.247625894723537!2m3!1f0!2f0!3f0!3m2!1i1024!2i768!4f13.1!3m3!1m2!1s0x394a4cc5e74ea88d%3A0x4b47132568d06f7!2sShaheed+Benazir+Bhutto+University!5e0!3m2!1sen!2s!4v1468999004980,,,/Style%20Library/HEC/images/Placeholder-Image-Content.png,11/12/2010,Public,Government of Sindh,Nawabshah,Sindh,Yes,No
Shaheed Benazir Bhutto Women University,General,Peshawar,"Opposite Fort Balahisar near LRH, Peshawar. +92-91-9212422, +92-91-922 4777",http://www.sbbwu.edu.pk/,https://www.google.com/maps/embed?pb=!1m18!1m12!1m3!1d3305.5280063399614!2d71.56501381474135!3d34.05597662498174!2m3!1f0!2f0!3f0!3m2!1i1024!2i768!4f13.1!3m3!1m2!1s0x38d91603774ee399%3A0xc26a04d64ff68cd9!2sShaheed+Benazir+Bhutto+Women+University!5e0!3m2!1sen!2s!4v1468702767665,,,/Style%20Library/HEC/images/Placeholder-Image-Content.png,2/1/2005,Public,Government of Pakistan,Peshawar,Khyber Pakhtunkhwa,Yes,No
Shaheed Mohtarma Benazir Bhutto Medical University,General,Larkana,"Chandka Medical College, SMBBU, Larkana, Sindh. +92-74-9410908",http://www.smbbmu.edu.pk,https://www.google.com/maps/embed?pb=!1m18!1m12!1m3!1d3542.2562126538!2d68.16331021457633!3d27.39893514558558!2m3!1f0!2f0!3f0!3m2!1i1024!2i768!4f13.1!3m3!1m2!1s0x3935a70cc6300fff%3A0xe491aef31408d7c9!2sSMBBMU!5e0!3m2!1sen!2s!4v1469004237667,,,/Style%20Library/HEC/images/Placeholder-Image-Content.png,10/18/2008,Public,Government of Sindh,Larkana,Sindh,Yes,No
"Shaheed Zulfikar Ali Bhutto Institute of Science & Technology  University, Karachi",General,Mian Campus; Hyderabad; Islamabad; Larkana,"90 & 100 Clifton, Karachi 75600. +92-21-35830447Ext: 138,  +92-21-111-922-478 Email: info@szabist.edu.pk",https://szabist.edu.pk/,https://www.google.com/maps/embed?pb=!1m18!1m12!1m3!1d3621.3150643768713!2d67.02961431452263!3d24.818896853035525!2m3!1f0!2f0!3f0!3m2!1i1024!2i768!4f13.1!3m3!1m2!1s0x3eb33dbafc53b46b%3A0xbe0305d9d435e0a5!2sShaheed+Zulfikar+Ali+Bhutto+Institute+of+Science+and+Technology+-+Karachi+Campus!5e0!3m2!1sen!2s!4v1469004697464,,,/english/universities/PublishingImages/SZABIST%20University%20karachi.png,10/25/1995,Private,Government of Sindh,Karachi,Sindh,Yes,No
Shaheed Zulfiqar Ali Bhutto Medical University,Medical,Islamabad,"Shaheed Zulfiqar Ali Bhutto Medical University (SZABMU), PIMS, G-8/3, Islamabad, 44000 +92-51-9107687",http://www.szabmu.edu.pk/,https://www.google.com/maps/embed?pb=!1m18!1m12!1m3!1d3319.2678933700267!2d73.0516210145653!3d33.70201628070264!2m3!1f0!2f0!3f0!3m2!1i1024!2i768!4f13.1!3m3!1m2!1s0x38dfbfb826dae131%3A0xba5e1cbcad4376fe!2sPakistan+Institutes+of+Medical+Sciences!5e0!3m2!1sen!2s!4v1466947853444,,,/english/universities/PublishingImages/SZABMU%20Islamabad.jpg,3/21/2013,Public,Government of Pakistan,Islamabad,Islamabad Capital Territory,Yes,No
Shaheed Zulfiqar Ali Bhutto University of Law,General,Karachi,"Chaudry Khaliq-uz-Zaman Road, Near Lilly Bridge, Clifton, Karachi. +92-21-99206452-53",http://www.szabul.edu.pk,https://www.google.com/maps/embed?pb=!1m18!1m12!1m3!1d462805.0880862178!2d66.7845045546518!3d25.011505198514644!2m3!1f0!2f0!3f0!3m2!1i1024!2i768!4f13.1!3m3!1m2!1s0x3eb33e06651d4bbf%3A0x9cf92f44555a0c23!2sKarachi%2C+Pakistan!5e0!3m2!1sen!2s!4v1469005330797,,,/english/universities/PublishingImages/SZABUL%20Karachi.jpeg,3/1/2013,Public,Government of Sindh,Karachi,Sindh,Yes,No
Shifa Tameer-e-Millat University,General,Islamabad,"Shifa Tameer-e-Millat University Pitras Bukhari Road, H-8/4 Islamabad 44000 Pakistan +92-51-8464214, +92-51-8464215 +92-51-4863264",http://www.stmu.edu.pk/,https://www.google.com/maps/embed?pb=!1m18!1m12!1m3!1d3320.2052416880824!2d73.06369821456452!3d33.67774938070937!2m3!1f0!2f0!3f0!3m2!1i1024!2i768!4f13.1!3m3!1m2!1s0x38df955e4dfcd591%3A0xf4dcfec8c423cf53!2sShifa+Tameer-e-Millat+University!5e0!3m2!1sen!2s!4v1466948101356,,,/Style%20Library/HEC/images/Placeholder-Image-Content.png,3/6/2012,Private,Government of Pakistan,Islamabad,Islamabad Capital Territory,Yes,No
"Shuhada-e-Army Public School University of Technology, Nowshera",Engineering & Technology,Nowshehra,"Ex-Adamjee Paper and Board Mills, Amangarh, Nowshera. 24100 Phone: 0923-560301",http://uotnowshera.edu.pk/,https://www.google.com/maps/embed?pb=!1m14!1m8!1m3!1d13229.778256190599!2d71.933318!3d34.0067979!3m2!1i1024!2i768!4f13.1!3m3!1m2!1s0x0%3A0xf2e4ef506958552!2sUniversity+Of+Technology+Nowshera!5e0!3m2!1sen!2s!4v1482986640326,,,/english/universities/PublishingImages/Placeholder-Image-Content.png,5/14/2015,Public,Government of Khyber Pakhtunkhwa,Nowshehra,Khyber Pakhtunkhwa,Yes,No
"Sindh Agriculture University, Tandojam",General,Hyderabad,"Mirpurkhas-Hyderabad Dual Carriageway, TandoJam, Pakistan. +92-22-2765869, +92-22-2766523",http://www.sau.edu.pk,https://www.google.com/maps/embed?pb=!1m18!1m12!1m3!1d3603.3521063602057!2d68.5411576145347!3d25.426489228600442!2m3!1f0!2f0!3f0!3m2!1i1024!2i768!4f13.1!3m3!1m2!1s0x394c0c9175a8d631%3A0xb54bd399a54e2c44!2sSindh+Agriculture+University!5e0!3m2!1sen!2s!4v1469006298618,,,/Style%20Library/HEC/images/Placeholder-Image-Content.png,5/30/1977,Public,Government of Sindh,Hyderabad,Sindh,Yes,No
Sindh Institute of Management & Technology,General,Mian Campus,"ST-25 , Block 14, Gulistan-e-Johar, Karachi. +92-21-34184407, +92-21-34184407, +92-21-34184409 +92-21-34184409-10",http://www.simat.edu.pk,https://www.google.com/maps/embed?pb=!1m18!1m12!1m3!1d3619.1814287382945!2d67.1751489145241!3d24.891792350132476!2m3!1f0!2f0!3f0!3m2!1i1024!2i768!4f13.1!3m3!1m2!1s0x3eb339e89f0a598b%3A0x90d87cc8d9c5ccbb!2sSindh+Institute+Of+Management+%26+Technology+Malir+Campus!5e0!3m2!1sen!2s!4v1469006570670,,,/english/universities/PublishingImages/SIMAT%20Karachi.jpeg,3/18/2015,Private,Government of Sindh,Karachi,Sindh,Yes,No
Sindh Institute of Medical Sciences,General,Mian Campus,"Civil Hospital Karachi 74200. +92-21-32730351, +92-21-32730387",http://www.siut.org,https://www.google.com/maps/embed?pb=!1m18!1m12!1m3!1d3620.0937531830823!2d67.01029521452354!3d24.86064735137365!2m3!1f0!2f0!3f0!3m2!1i1024!2i768!4f13.1!3m3!1m2!1s0x3eb33e105ea15407%3A0x9bc3a1fc504af815!2sSindh+Institute+of+Medical+Sciences!5e0!3m2!1sen!2s!4v1469007272226,,,/english/universities/PublishingImages/SUIT%20Karachi.png,6/29/2009,Private,Government of Sindh,Karachi,Sindh,Yes,No
Sindh Madresatul Islam University,General,Karachi,"Aiwan-e-Tijarat Road, Karachi +92-21-99211274, +92-21-99211275",http://www.smiu.edu.pk,https://www.google.com/maps/embed?pb=!1m18!1m12!1m3!1d3620.3815057338893!2d67.00179071452321!3d24.85081645176525!2m3!1f0!2f0!3f0!3m2!1i1024!2i768!4f13.1!3m3!1m2!1s0x3eb33e03e02fabc1%3A0x96c129db3ee25a57!2sSindh+Madressa-tul-Islam+University!5e0!3m2!1sen!2s!4v1469007482851,,,/Style%20Library/HEC/images/JPA_1458.jpg,12/22/2011,Public,Government of Sindh,Karachi,Sindh,Yes,No
"Sir Syed (CASE) Institute of Technology, Islamabad",General,Mian Campus,"Sir Syed (CASE) Institute of Technology Block A, Multi Garden, Sector B-17, Islamabad, Pakistan. Tel # +92-51-5203473 Email: registrar@case.edu.pk",https://case.edu.pk/,https://www.google.com/maps/embed?pb=!1m18!1m12!1m3!1d3319.5951130384205!2d72.8218066146727!3d33.69354668070506!2m3!1f0!2f0!3f0!3m2!1i1024!2i768!4f13.1!3m3!1m2!1s0x38dfa3966d33e4c1%3A0xe10f4a10178e8ee0!2sSSCIT!5e0!3m2!1sen!2s!4v1558329155273!5m2!1sen!2s,,,/english/universities/PublishingImages/Sir%20Syed%20Case%20Institute.jpg,5/24/2018,Private,Government of Pakistan,Islamabad,Islamabad Capital Territory,Yes,No
Sir Syed University of Engineering & Technology,General,Karachi,"University Road, Karachi-75300. +92-21-34988777, +92-21-34988000, +92-21-234988000 +92-21-534980072",http://www.ssuet.edu.pk,https://www.google.com/maps/embed?pb=!1m18!1m12!1m3!1d3618.4799600715573!2d67.09062781452458!3d24.915714349177975!2m3!1f0!2f0!3f0!3m2!1i1024!2i768!4f13.1!3m3!1m2!1s0x3eb33f32a0f2c3f3%3A0x4fc0a6fd386117f0!2sSir+Syed+University+of+Engineering+and+Technology!5e0!3m2!1sen!2s!4v1468923310218,,,/Style%20Library/HEC/images/Placeholder-Image-Content.png,10/25/1995,Private,Government of Sindh,Karachi,Sindh,Yes,No
"Sohail University, Karachi",General,Mian Campus,"Sohail University, 22-23 Shaheed-e-Millat Road, Karachi-Sindh Pakistan Tel # +92-21-34931886-9 Email: baqarnawab@hotmail.com",http://www.sohailuniversity.edu.pk,https://www.google.com/maps/embed?pb=!1m14!1m8!1m3!1d11892.678581556852!2d-71.402593!3d41.824645!3m2!1i1024!2i768!4f13.1!3m3!1m2!1s0x3eb33f1adededbd3%3A0xbfc697cb382d3a59!2sSohail%20University!5e0!3m2!1sen!2s!4v1567078204762!5m2!1sen!2s,,,"/english/universities/PublishingImages/Sindh/Sohail%20University,%20Karachi.png",5/9/2018,Private,Government of Sindh,Karachi,Sindh,Yes,No
Sukkur Institute of Business Administration,General,Sukkur,"Main Campus, Airport Road, Sukkur +92-71-5804420",http://www.iba-suk.edu.pk,https://www.google.com/maps/embed?pb=!1m18!1m12!1m3!1d3531.7096702411645!2d68.81723281458355!3d27.726249031268928!2m3!1f0!2f0!3f0!3m2!1i1024!2i768!4f13.1!3m3!1m2!1s0x3935d4af0e0f6721%3A0x6a57455ae708c7b!2sSukkur+Institute+of+Business+Administration!5e0!3m2!1sen!2s!4v1468922882070,,,/Style%20Library/HEC/images/Placeholder-Image-Content.png,4/24/2006,Public,Government of Sindh,Sukkur,Sindh,Yes,No
Textile Institute of Pakistan,General,Karachi,"Main Campus: EZ/I/P-8, Eastern Zone, Bin Qasim, Karachi. +92-21-38109641-7, +92-21-38109659",http://www.tip.edu.pk,https://www.google.com/maps/embed?pb=!1m18!1m12!1m3!1d3620.7602870326687!2d67.43083801452305!3d24.837870052280614!2m3!1f0!2f0!3f0!3m2!1i1024!2i768!4f13.1!3m3!1m2!1s0x394ccd9ca2a5ab03%3A0xac17408159abac53!2sTextile+Institute+of+Pakistan!5e0!3m2!1sen!2s!4v1468922571568,,,/Style%20Library/HEC/images/Placeholder-Image-Content.png,4/21/2001,Private,Government of Sindh,Karachi,Sindh,Yes,No
"Thal University, Bhakkar",General,Mian Campus,"University Road, Bhakkar-Punjab Tel # 0092-453-9200070 Email: info@tu.edu.pk",https://tu.edu.pk/,https://www.google.com/maps/embed?pb=!1m18!1m12!1m3!1d3397.6278474223886!2d71.08622817481793!3d31.616655742380086!2m3!1f0!2f0!3f0!3m2!1i1024!2i768!4f13.1!3m3!1m2!1s0x3925d673afec5a7b%3A0x7fd011dcef7ef5c!2sThal%20University%20Bhakkar!5e0!3m2!1sen!2s!4v1684128395097!5m2!1sen!2s,,,/english/universities/PublishingImages/Thal%20University%20Bhakkar.png,2/9/2022,Public,Government of Punjab,Bhakkar,Punjab,Yes,No
The Azad Jammu & Kashmir University of Bhimber,General,Mian Campus,"University of Bhimber,  Bhimber, Azad State of Jammu & Kashmir. Tel # 058289-20235, 058289-60015 Email: registrar@ajkuob.edu.pk",https://ajkuob.edu.pk/,https://www.google.com/maps/embed?pb=!1m17!1m12!1m3!1d3347.7744074185744!2d74.04083367567019!3d32.95696497358903!2m3!1f0!2f0!3f0!3m2!1i1024!2i768!4f13.1!3m2!1m1!2zMzLCsDU3JzI1LjEiTiA3NMKwMDInMzYuMyJF!5e0!3m2!1sen!2s!4v1724836343153!5m2!1sen!2s,,,/english/universities/PublishingImages/University%20of%20Bhimber.jpg,12/15/2023,Public,Government of AJK,Bhimber,Azad Jammu & Kashmir,Yes,No
"The Bolan University of Medical and Health Sciences, Quetta",Medical,Quetta,"The Bolan University of Medical & Health Sciences.  Brewery Road  (87300), Quetta Balochistan, Pakistan Tel # +92-81-9213070 Email: registrar@bumhs.edu.pk",http://www.bumhs.edu.pk,https://www.google.com/maps/embed?pb=!1m18!1m12!1m3!1d3448.5729083254528!2d66.97408751459726!3d30.192191918533798!2m3!1f0!2f0!3f0!3m2!1i1024!2i768!4f13.1!3m3!1m2!1s0x3ed2e08d413d3b89%3A0x89dc45df1226d224!2sBolan+University+of+Medical+and+Health+Sciences!5e0!3m2!1sen!2s!4v1557122377955!5m2!1sen!2s,,,/english/universities/PublishingImages/Bolan%20University%20Quetta.png,12/11/2017,Public,Government of Balochistan,Quetta,Balochistan,Yes,No
"The Grand Asian University, Sialkot",General,Mian Campus,"7 KM, Pasrur Road, Sialkot Punjab Pakistan. Tel # 0092-52-3310617-18-19-20 Email: info@gaus.edu.pk",https://gaus.edu.pk/,https://www.google.com/maps/embed?pb=!1m18!1m12!1m3!1d3367.3260056456547!2d74.57614291449234!3d32.43720758107585!2m3!1f0!2f0!3f0!3m2!1i1024!2i768!4f13.1!3m3!1m2!1s0x391ec1df62e2ffc5%3A0xf3fb519d03e8d30e!2sGRAND%20ASIAN%20UNIVERSITY%20SIALKOT!5e0!3m2!1sen!2s!4v1653032494182!5m2!1sen!2s,,,"/english/universities/PublishingImages/Grand%20Asian%20University,%20Sialkot.jpg",12/24/2021,Private,Government of Punjab,Sialkot,Punjab,Yes,No
"The Green International University, Lahore",General,Mian Campus,"Bhubtain chowk, Bhobtian Lahore, Punjab Pakistan Tel # +92-042-35459807 Email: info@giu.edu.pk",https://www.giu.edu.pk/,https://www.google.com/maps/embed?pb=!1m18!1m12!1m3!1d3405.484615222848!2d74.22733871462783!3d31.40077156018089!2m3!1f0!2f0!3f0!3m2!1i1024!2i768!4f13.1!3m3!1m2!1s0x39190177223ce9e9%3A0xd980b21e154410ba!2sGreen%20International%20University%20Lahore!5e0!3m2!1sen!2s!4v1610351992335!5m2!1sen!2s,,,/english/universities/PublishingImages/Green%20International%20University.png,6/4/2020,Private,Government of Punjab,Lahore,Punjab,Yes,No
"The Shaikh Ayaz University, Shikarpur Sindh",General,Mian Campus,"Shikarpur, Sindh",https://saus.edu.pk/,https://www.google.com/maps/embed?pb=!1m18!1m12!1m3!1d3524.5396613181196!2d68.65152161453466!3d27.946754321538034!2m3!1f0!2f0!3f0!3m2!1i1024!2i768!4f13.1!3m3!1m2!1s0x39343b2a86a7ccbb%3A0x334d8f65c5dc9304!2sSheikh%20Ayaz%20University%20Shikarpur!5e0!3m2!1sen!2s!4v1579851431075!5m2!1sen!2s,,,/english/universities/PublishingImages/Shaikh%20Ayaz%20University.png,6/7/2018,Public,Government of Sindh,Shikarpur,Sindh,Yes,No
"The Sindh Institute of Physical Medicine and Rehabilitation, Karachi",General,Main campus,"Sindh Institute of Physical Medicine and Rehabilitation, Opposite SIUT, Near Mujahid Masjid, Chand Bibi Road, South Karachi, Sindh – 74200 (021) 99216212-13-14",https://sipmr.edu.pk/,"https://www.google.com.hk/maps/place/Sindh+Institute+of+Physical+Medicine+and+Rehabilitation+KDA+Campus./@24.8896875,67.0654375,15z/data=!4m2!3m1!1s0x0:0x58e5b79b756dba76?sa=X&ved=1t:2428&ictx=111","The Sindh Institute of Physical Medicine and Rehabilitation, Karachi","The Sindh Institute of Physical Medicine and Rehabilitation, Karachi","The Sindh Institute of Physical Medicine and Rehabilitation, Karachi",2007,Public,Government of Sindh,Karachi,Sindh,Yes,No
"The Superior University, Lahore",General,Mian Campus,"17 K.M Raiwind Road, Lahore. +92-42-35330361-3, +92-42 381 03777",http://www.superior.edu.pk/,https://www.google.com/maps/embed?pb=!1m18!1m12!1m3!1d3407.8998636986375!2d74.2337292146694!3d31.334138463450312!2m3!1f0!2f0!3f0!3m2!1i1024!2i768!4f13.1!3m3!1m2!1s0x3919aadc70075215%3A0xf14fa2ec4eba8377!2sSuperior+University!5e0!3m2!1sen!2s!4v1469017680941,,,/english/universities/PublishingImages/University_logo-01.png,6/16/2004,Private,Government of Punjab,Lahore,Punjab,Yes,No
The University of Agriculture,General,Mian Campus,"Near Baahoo Flour Mill, Bhakkar Road, Dera Ismail Khan Khyber Pakhtunkhwa, Pakistan Tel # +92-966 851545 Email: info@uad.edu.pk",https://www.uad.edu.pk/,https://www.google.com/maps/embed?pb=!1m18!1m12!1m3!1d3391.6450553472428!2d70.87271091463765!3d31.780165541448245!2m3!1f0!2f0!3f0!3m2!1i1024!2i768!4f13.1!3m3!1m2!1s0x392673ef45791f65%3A0x338caa116d1aefaa!2sThe%20University%20of%20Agriculture%20DIKhan!5e0!3m2!1sen!2s!4v1620199802043!5m2!1sen!2s,,,/english/universities/PublishingImages/Agri%20University%20D.%20I.%20Khan.jpg,3/7/2018,Public,Government of Khyber Pakhtunkhwa,Dera Ismail Khan,Khyber Pakhtunkhwa,Yes,No
"The University of Agriculture, Swat",Agriculture & Veterinary,Mian Campus,"The University of Agriculture, Swat-Khyber Pakhunkhwa Tel # 0092-946-811888 Email: registrar@uoas.edu.pk",https://www.uoas.edu.pk/,https://www.google.com/maps/embed?pb=!1m18!1m12!1m3!1d419197.3293524379!2d71.69397957118926!3d34.831617105483076!2m3!1f0!2f0!3f0!3m2!1i1024!2i768!4f13.1!3m3!1m2!1s0x38dc1740cf966f6d%3A0xdc0ff3c3d9146083!2sAgriculture%20University%20Swat%20Campus!5e0!3m2!1sen!2s!4v1698217591926!5m2!1sen!2s,,,/english/universities/PublishingImages/UOA%20Swat-%20LOGO.png,12/28/2020,Public,Government of Khyber Pakhtunkhwa,Swat,Khyber Pakhtunkhwa,Yes,No
The University of Faisalabad,General,Faisalabad,"4-KM Sargodha Road, Faisalabad. +92-41-8868326-30, +92-41-8869358, +92-41-8754396",http://www.tuf.edu.pk/,https://www.google.com/maps/embed?pb=!1m18!1m12!1m3!1d3403.4259987230284!2d73.15582081467247!3d31.457465657394053!2m3!1f0!2f0!3f0!3m2!1i1024!2i768!4f13.1!3m3!1m2!1s0x3922691f5e0fa2b3%3A0x3adfcd42fe315ba5!2sThe+University+of+Faisalabad!5e0!3m2!1sen!2s!4v1469021671744,,,/Style%20Library/HEC/images/Placeholder-Image-Content.png,10/2/2003,Private,Government of Punjab,Faisalabad,Punjab,Yes,No
The Women University,General,Multan,"Katchery campus. LMQ Road, Multan. +92-61-9200811",http://www.wum.edu.pk/,https://www.google.com/maps/embed?pb=!1m18!1m12!1m3!1d3448.1295397253352!2d71.4585445146413!3d30.20485001793302!2m3!1f0!2f0!3f0!3m2!1i1024!2i768!4f13.1!3m3!1m2!1s0x393b33ef46207033%3A0x567ae769830b9f9c!2sThe+Women+University+Multan!5e0!3m2!1sen!2s!4v1469017892641,,,/Style%20Library/HEC/images/Placeholder-Image-Content.png,8/2/2010,Public,Government of Pakistan,Multan,Punjab,Yes,No
"Times Institute, Multan",General,Mian Campus,"Main Road, Peer Khursheed Colony, Multan, Punjab Pakistan Tel: +92-61-6222951-3 UAN: +92-348-111-3330 Email: info@t.edu.pk",https://www.t.edu.pk/,https://www.google.com/maps/embed?pb=!1m18!1m12!1m3!1d3447.8537592407715!2d71.46632601466947!3d30.2127210818213!2m3!1f0!2f0!3f0!3m2!1i1024!2i768!4f13.1!3m3!1m2!1s0x393b33f7a65fb04d%3A0x3131fe807b59cd5c!2sTimes%20Institute%20Multan%20City%20Campus!5e0!3m2!1sen!2s!4v1606827018667!5m2!1sen!2s&quot; width=&quot;600&quot; height=&quot;450,,,/english/universities/PublishingImages/Times%20Institute.png,9/16/2020,Private,Government of Punjab,Multan,Punjab,Yes,No
"UIT University, Karachi",General,Mian Campus,"Street # 13, Abul Hasan Isphahani Road, Block # 7, Gulshan-e-Iqbal, Karachi. Tel # 0092-21-34994305 Email: info@uituniversity.edu.pk",https://www.uitu.edu.pk,https://www.google.com/maps/embed?pb=!1m18!1m12!1m3!1d3618.1268085160823!2d67.10669581447894!3d24.927749648697564!2m3!1f0!2f0!3f0!3m2!1i1024!2i768!4f13.1!3m3!1m2!1s0x3eb338c700571b09%3A0xd86779b29e77f36a!2sUsman%20Institute%20of%20Technology!5e0!3m2!1sen!2s!4v1625546568386!5m2!1sen!2s,,,/english/universities/PublishingImages/UITU%20Logo.png,5/28/2018,Private,Government of Sindh,Karachi,Sindh,Yes,No
University of Agriculture,General,Faisalabad,"University of Agriculture University Main Rd? Faisalabad, Pakistan. +92-41-9200200, +92-419200161",http://www.uaf.edu.pk/,https://www.google.com/maps/embed?pb=!1m14!1m8!1m3!1d3404.2787901708502!2d73.071527!3d31.433990999999995!3m2!1i1024!2i768!4f13.1!3m3!1m2!1s0x3922429065ab4f41%3A0x3a567c6cab2e2c63!2spakistan+pyaas+universty+faisalabad!5e0!3m2!1sen!2s!4v1469018900155,,,/Style%20Library/HEC/images/Placeholder-Image-Content.png,5/24/1973,Public,Government of Punjab,Faisalabad,Punjab,Yes,No
University of Art and Culture,Arts & Design,Mian Campus,Jamshoro Sindh-Pakistan Tel: +92-333-2777550 Email: info@uac.edu.pk,http://uac.edu.pk,https://www.google.com/maps/embed?pb=!1m18!1m12!1m3!1d3604.530139453838!2d68.25276931428422!3d25.387059183808255!2m3!1f0!2f0!3f0!3m2!1i1024!2i768!4f13.1!3m3!1m2!1s0x394c7b7d3c7aeb05%3A0xc58b09b59c71868c!2zVW5pdmVyc2l0eSBvZiBBcnQgYW5kIEN1bHR1cmUg24zZiNmG24zZiNix2LPZuduMINii2YEg2KLYsdm5INin24zZhtqIINqp2YTahtixINis2KfZhdi02YjYsdmI!5e0!3m2!1sen!2s!4v1611746588636!5m2!1sen!2s,,,/english/universities/PublishingImages/UAC%20Jamshoro.jpg,4/17/2018,Private,Government of Sindh,Jamshoro,Sindh,Yes,No
University of Azad Jammu & Kashmir,General,Muzaffarabad,Challa campus Muzafarabad.13100 (AJK) +92-5822-960479,http://www.ajku.edu.pk/,https://www.google.com/maps/embed?pb=!1m18!1m12!1m3!1d3293.073815032358!2d73.4677606145556!3d34.3740428081517!2m3!1f0!2f0!3f0!3m2!1i1024!2i768!4f13.1!3m3!1m2!1s0x38e09e2b0192fdf9%3A0x36610135d628dfe0!2sUniversity+of+Azad+Jammu+%26+Kashmir!5e0!3m2!1sen!2s!4v1468508183984,,,/Style%20Library/HEC/images/Placeholder-Image-Content.png,12/8/1985,Public,Government of AJK,Muzaffarabad,Azad Jammu & Kashmir,Yes,No
University of Balochistan,General,Mian Campus; Kharan,"Sariab Road, Quetta. +9281-9211288",http://www.uob.edu.pk,https://www.google.com/maps/embed?pb=!1m18!1m12!1m3!1d3449.5010966731165!2d66.98842141464031!3d30.1656767197913!2m3!1f0!2f0!3f0!3m2!1i1024!2i768!4f13.1!3m3!1m2!1s0x3ed2e0ac398e831f%3A0x422af49e5a0e626e!2sUniversity+of+Balochistan!5e0!3m2!1sen!2s!4v1468613883700,,,/english/universities/PublishingImages/UoB%20Quetta.jfif,10/1/1970,Public,Government of Balochistan,Quetta,Balochistan,Yes,No
"University of Baltistan, Skardu",General,Mian Campus,"Kargil Road, Skardu-Pakistan Ph: +92-05815-960070, 05815-960061 Fax: +92-05815-960256",http://www.uobs.edu.pk,https://www.google.com/maps/embed?pb=!1m14!1m8!1m3!1d13025.100211105706!2d75.7044321!3d35.2991465!3m2!1i1024!2i768!4f13.1!3m3!1m2!1s0x0%3A0x9d472513a44c5c89!2sUniversity%20of%20Baltistan%2C%20Skardu!5e0!3m2!1sen!2s!4v1640684440573!5m2!1sen!2s,,,/english/universities/PublishingImages/University%20of%20Baltistan.jpg,8/25/2017,Public,Government of Pakistan,Skardu,Gilgit Baltistan,Yes,No
University of Buner,General,Bunair,"University of Buner Sowari, Buner, Khyber Pakhtunkhwa Tel # +92-939-555211, 555438 Email: registrar@ubuner.edu.pk",https://www.ubuner.edu.pk/,https://www.google.com/maps/embed?pb=!1m18!1m12!1m3!1d3289.0018075903668!2d72.48751871471138!3d34.47747840264924!2m3!1f0!2f0!3f0!3m2!1i1024!2i768!4f13.1!3m3!1m2!1s0x38de9a926973cd93%3A0x837830904d265633!2sThe+University+Of+Buner!5e0!3m2!1sen!2s!4v1556529182042!5m2!1sen!2s,,,/english/universities/PublishingImages/University%20of%20Buner.png,11/30/2016,Public,Government of Khyber Pakhtunkhwa,Bunair,Khyber Pakhtunkhwa,Yes,No
University of Central Punjab,General,Lahore,"Khayaban-e-Jinnah Road, Johar Town, Lahore. +92-42-35954890, +92-42-35880007, +92-42-35870689",http://www.ucp.edu.pk/,https://www.google.com/maps/embed?pb=!1m18!1m12!1m3!1d3403.8091536211828!2d74.2656733146722!3d31.446920557912705!2m3!1f0!2f0!3f0!3m2!1i1024!2i768!4f13.1!3m3!1m2!1s0x3919017432b1835b%3A0xe396992a5b05891c!2sUniversity+of+Central+Punjab!5e0!3m2!1sen!2s!4v1469019290021,,,/Style%20Library/HEC/images/Placeholder-Image-Content.png,4/10/2002,Private,Government of Punjab,Lahore,Punjab,Yes,No
"University of Chakwal, Chakwal",General,Mian Campus,Chakwal Punjab-Pakistan Tel # +92-0543-555087 Email: registrar@uoc.edu.pk,http://uoc.edu.pk,https://www.google.com/maps/embed?pb=!1m18!1m12!1m3!1d3348.601544002136!2d72.85906971450878!3d32.9351241809245!2m3!1f0!2f0!3f0!3m2!1i1024!2i768!4f13.1!3m3!1m2!1s0x39205d7534acc2db%3A0x711df2596d2bb494!2sUniversity%20of%20Chakwal!5e0!3m2!1sen!2s!4v1611748504347!5m2!1sen!2s,,,/english/universities/PublishingImages/University%20of%20Chakwal.png,1/9/2020,Public,Government of Punjab,Chakwal,Punjab,Yes,No
"University of Chenab, Gujrat",General,Mian Campus; Gujrat,"G.T. Road, adjacent Chenab Bridge, Gujrat, Punjab-Pakistan. Ph:- (+92) 053 111 243 622 Email: info@uchenab.edu.pk",https://uchenab.edu.pk/,https://www.google.com/maps/embed?pb=!1m14!1m8!1m3!1d13461.620848339364!2d74.0911942!3d32.4885972!3m2!1i1024!2i768!4f13.1!3m3!1m2!1s0x0%3A0x743bdde6e69ebd8f!2sThe%20University%20of%20Chenab%2C%20Gujrat!5e0!3m2!1sen!2s!4v1660729172849!5m2!1sen!2s,,,"/english/universities/PublishingImages/Pages/Punjab/University-of-Chenab,-Gujrat/Logo%20of%20Uni%20of%20Chenab.jpg",10/1/2021,Private,Government of Punjab,Gujrat,Punjab,Yes,No
"University of Child Health Sciences, Lahore",Medical,Mian Campus,"Ferozpur Road, Lahore. Tel # 0092-42-99230901 Email: info@chich.edu.pk",http://www.chich.edu.pk,https://www.google.com/maps/embed?pb=!1m18!1m12!1m3!1d3402.5601288472867!2d74.34419847481207!3d31.481284249073482!2m3!1f0!2f0!3f0!3m2!1i1024!2i768!4f13.1!3m3!1m2!1s0x391905794f3aebf9%3A0x81758ddbc07b42fa!2sUniversity%20of%20Child%20Health%20Sciences%2C%20Lahore!5e0!3m2!1sen!2s!4v1685516062033!5m2!1sen!2s,,,/english/universities/PublishingImages/Child%20Health%20Sciences%20University.jpg,6/30/2021,Public,Government of Punjab,Lahore,Punjab,Yes,No
University of Chitral,General,Chitral,"University of Chitral Seen, Lasht Chitral, Khyber Pakhtunkhwa Tel # +92-943-412401 Email: registrar@uoch.edu.pk",http://www.uoch.edu.pk,https://www.google.com/maps/embed?pb=!1m18!1m12!1m3!1d3231.2595467594615!2d71.81214221461168!3d35.91614658014017!2m3!1f0!2f0!3f0!3m2!1i1024!2i768!4f13.1!3m3!1m2!1s0x38c4acde993c92d5%3A0x65a122d6f58eb221!2sUniversity+of+Chitral!5e0!3m2!1sen!2s!4v1558337273555!5m2!1sen!2s,,,/english/universities/PublishingImages/University%20of%20chitral.jpg,5/2/2019,Public,Government of Khyber Pakhtunkhwa,Chitral,Khyber Pakhtunkhwa,Yes,No
University of Education,General,Faisalabad; Lahore; Multan; Vehari,"College Road, Township, Lahore. +92-42-99262223-4",http://www.ue.edu.pk/,https://www.google.com/maps/embed?pb=!1m18!1m12!1m3!1d3403.562071499797!2d74.29682491467243!3d31.45372105757824!2m3!1f0!2f0!3f0!3m2!1i1024!2i768!4f13.1!3m3!1m2!1s0x39190145ae97af17%3A0x6d1f02b5cd2ab9f7!2sUniversity+of+Education!5e0!3m2!1sen!2s!4v1469020445223,,,/Style%20Library/HEC/images/Placeholder-Image-Content.png,9/10/2002,Public,Government of Punjab,Lahore,Punjab,Yes,No
"University of Engineering & Applied Sciences, Swat",Engineering & Technology,Mian Campus; Swat,"Street 20, Sector D, Kanju Township, District Swat, Khyber Pakhtunkhwa.  Phone : +92 946 613289 +92 (0946)-613282 Email: info@ueas.edu.pk",https://ueas.edu.pk/,https://www.google.com/maps/embed?pb=!1m18!1m12!1m3!1d3275.089547665223!2d72.35158441457887!3d34.82884098385349!2m3!1f0!2f0!3f0!3m2!1i1024!2i768!4f13.1!3m3!1m2!1s0x38dc1724a1093297%3A0x561d79fc1bef4f8d!2sUniversity%20of%20Engineering%20%26%20Applied%20Sciences%2C%20Swat!5e0!3m2!1sen!2s!4v1670390919434!5m2!1sen!2s,,,/english/universities/PublishingImages/Pages/Logo%20UEAS.png,9/21/2021,Public,Government of Khyber Pakhtunkhwa,Swat,Khyber Pakhtunkhwa,Yes,No
University of Engineering & Technology,General,Peshawar,"Post Box No. 814, Peshawar. +92-91-9216493",http://www.uetpeshawar.edu.pk/,"https://www.google.com/maps/place/University+of+Engineering+and+Technology,+Peshawar/@34.0031097,70.3650354,9z/data=!4m10!1m2!2m1!1suniversity+of+Engineering+%26+Technology+Category+General+Campuses+Peshawar!3m6!1s0x38d9172ebe9aaad1:0x74de395b0ec3efb!8m2!3d34.0031097!4d71.4856409!15sCkl1bml2ZXJzaXR5IG9mIEVuZ2luZWVyaW5nICYgVGVjaG5vbG9neSBDYXRlZ29yeSBHZW5lcmFsIENhbXB1c2VzIFBlc2hhd2FyWksiSXVuaXZlcnNpdHkgb2YgZW5naW5lZXJpbmcgJiB0ZWNobm9sb2d5IGNhdGVnb3J5IGdlbmVyYWwgY2FtcHVzZXMgcGVzaGF3YXKSAQp1bml2ZXJzaXR5mgEjQ2haRFNVaE5NRzluUzBWSlEwRm5TVU13TURaNlkyUjNFQUXgAQA!16s%2Fg%2F121lm_18?entry=ttu&g_ep=EgoyMDI0MTAwNy4xIKXMDSoASAFQAw%3D%3D",,,./Universities University of Engineering & Technology_files/Placeholder-Image-Content.png,10/23/1980,Public,Government of Pakistan,Peshawar,Khyber Pakhtunkhwa,Yes,No
University of Engineering & Technology (2),Engineering & Technology,Mian Campus; Faisalabad; Narowal,"GT Road, Lahore-Pakistan Email: registrar@uet.edu.pk Tel # 0092-42-99029216, 042-99029452",http://www.uet.edu.pk/,https://www.google.com/maps/embed?pb=!1m18!1m12!1m3!1d3398.9780404010844!2d74.35215981467555!3d31.57965005137322!2m3!1f0!2f0!3f0!3m2!1i1024!2i768!4f13.1!3m3!1m2!1s0x39191b273d6ed0c1%3A0x4dcac84ea2200944!2sUniversity+of+Engineering+%26+Technology+Lahore!5e0!3m2!1sen!2s!4v1469021352543,,,/english/universities/PublishingImages/UET%20Lahore.png,4/11/1974,Public,Government of Punjab,Lahore,Punjab,Yes,No
"University of Engineering & Technology (UET), Mardan",Engineering & Technology,Mardan,"University of Engineering & Technology (UET), Mardan Phone: +92-937-9230295 Fax: +92-937-9230296 Email: Registrar@uetmardan.edu.pk",http://www.uetmardan.edu.pk,https://www.google.com/maps/embed?pb=!1m18!1m12!1m3!1d105598.11144458112!2d71.94936779525002!3d34.198984298204444!2m3!1f0!2f0!3f0!3m2!1i1024!2i768!4f13.1!3m3!1m2!1s0x38deca6a8ba575a9%3A0xe24a786be5cb5a40!2sUniversity+of+Engineering+and+Technology+Mardan!,,,/english/universities/PublishingImages/UET%20Mardan.png,3/7/2018,Public,Government of Khyber Pakhtunkhwa,Mardan,Khyber Pakhtunkhwa,Yes,No
"University of Engineering & Technology, Taxila",General,Chakwal,"University of Engg. & Technology (UET) Taxila. +92-51-9047403, +92-51-9047400",http://www.uettaxila.edu.pk/,https://www.google.com/maps/embed?pb=!1m18!1m12!1m3!1d3348.650000144356!2d72.85766141471089!3d32.93384428328058!2m3!1f0!2f0!3f0!3m2!1i1024!2i768!4f13.1!3m3!1m2!1s0x39205d733cdfbac5%3A0xdffc2ac6d20a106f!2sUniversity+of+Engineering+and+Technology+Taxila+Sub-Campus+Chakwal!5e0!3m2!1sen!2s!4v1469020959741,,,/Style%20Library/HEC/images/Placeholder-Image-Content.png,12/7/1994,Public,Government of Punjab,Rawalpindi,Punjab,Yes,No
University of FATA,General,Mian Campus,"Govt Degree College Darra Adam Khel Akhurwal F.R Kohat, N-55, KPK-Pakistan. Email: info@fu.edu.pk Tel # +92-91-9218182, 92 91 588 5502",https://www.fu.edu.pk/,https://www.google.com/maps/embed?pb=!1m14!1m8!1m3!1d13271.635717458794!2d71.511136!3d33.737171!3m2!1i1024!2i768!4f13.1!3m3!1m2!1s0x0%3A0x76ff6baa8e978d9f!2sGovt+Degree+College+Darra+Adam+Khel+Akhurwal+F.R+Kohat!5e0!3m2!1sen!2sus!4v1468704370426,,,/english/universities/PublishingImages/Fata%20University.jfif,5/22/2013,Public,Government of Khyber Pakhtunkhwa,Kohat,Khyber Pakhtunkhwa,Yes,No
University of Gujrat,General,Gujrat,"Camp Office, Fawara Chowk, Gujrat. +92-53-364334",http://www.uog.edu.pk/,https://www.google.com/maps/embed?pb=!1m18!1m12!1m3!1d3359.7881863935036!2d74.1621765147031!3d32.63846369834535!2m3!1f0!2f0!3f0!3m2!1i1024!2i768!4f13.1!3m3!1m2!1s0x391f03050c9a9403%3A0x547af0d30e96d8b!2sUniversity+of+Gujrat!5e0!3m2!1sen!2s!4v1469021958596,,,/Style%20Library/HEC/images/uog.jpg,2/23/2004,Public,Government of Pakistan,Gujrat,Punjab,Yes,No
University of Gwadar,General,Mian Campus,"Sarawan Avenue, New Town, Phase IV Gwadar Balochistan. Tel # +92-86-4411380-81, 86-4411222 Email: registrar@ug.edu.pk",https://ug.edu.pk/,https://www.google.com/maps/embed?pb=!1m18!1m12!1m3!1d3610.4063551318545!2d62.31185661427913!3d25.189515283899745!2m3!1f0!2f0!3f0!3m2!1i1024!2i768!4f13.1!3m3!1m2!1s0x3ebf1d54a9be93c7%3A0xa0f33c12d0940df2!2sUniversity%20of%20Gwadar!5e0!3m2!1sen!2s!4v1670817754461!5m2!1sen!2s,,,/english/universities/PublishingImages/University%20of%20Gwadar.jfif,9/20/2018,Public,Government of Balochistan,Gawadar,Balochistan,Yes,No
University of Haripur,General,Haripur,"Hattar Road, Near Swat Chowk, Tehsil & District Haripur. +92-995-615393",http://www.uoh.edu.pk/,https://www.google.com/maps/embed?pb=!1m18!1m12!1m3!1d3308.5632475780944!2d72.91064641473919!3d33.978063629083955!2m3!1f0!2f0!3f0!3m2!1i1024!2i768!4f13.1!3m3!1m2!1s0x38dfb29116f4f94f%3A0xaf454a05b9dadc43!2sUniversity+of+Haripur!5e0!3m2!1sen!2sus!4v1468704837835,,,/Style%20Library/HEC/images/Placeholder-Image-Content.png,9/20/2012,Public,Government of Khyber Pakhtunkhwa,Haripur,Khyber Pakhtunkhwa,Yes,No
University of Health Sciences,General,Lahore,"Khayaban-e-Jamia Punjab,Lahore-54600 +92-42-99231304-09, +92-42-111-33-33-66",http://www.uhs.edu.pk/,https://www.google.com/maps/embed?pb=!1m18!1m12!1m3!1d3401.6327125614835!2d74.30761591467375!3d31.50677795496651!2m3!1f0!2f0!3f0!3m2!1i1024!2i768!4f13.1!3m3!1m2!1s0x3919038710ff167d%3A0x7f0a1f0c5e8c5791!2sUniversity+of+Health+Sciences!5e0!3m2!1sen!2s!4v1469022177576,,,/Style%20Library/HEC/images/Placeholder-Image-Content.png,9/28/2002,Public,Government of Punjab,Lahore,Punjab,Yes,No
"University of Home Economics, Lahore",General,Mian Campus,"Dr. Mateen Fatima Road, Gulberg II ,  Lahore Punjab-Pakistan Tel #+92-42-99263324 Email: registrar@uhe.edu.pk",https://uhe.edu.pk/,https://www.google.com/maps/embed?pb=!1m18!1m12!1m3!1d3400.9154823696626!2d74.34912431467998!3d31.526481181367607!2m3!1f0!2f0!3f0!3m2!1i1024!2i768!4f13.1!3m3!1m2!1s0x39190502851a9cb5%3A0xf97a4e2680821cd!2sUniversity%20of%20Home%20Economics!5e0!3m2!1sen!2s!4v1587452495588!5m2!1sen!2s,,,/english/universities/PublishingImages/University%20of%20Home%20Economics%20Lahore.jpg,2/13/2017,Public,Government of Punjab,Lahore,Punjab,Yes,No
University of Jhang,General,Mian Campus,"12 Km Chiniot Road, Jhang Punjab, Pakistan Tel # +92-47-9200425 Email: info@uoj.edu.pk",https://uoj.edu.pk/,https://www.google.com/maps/embed?pb=!1m18!1m12!1m3!1d3410.7995808181363!2d72.35871241462405!3d31.253971067376188!2m3!1f0!2f0!3f0!3m2!1i1024!2i768!4f13.1!3m3!1m2!1s0x3923a34876f38419%3A0xdc3e70409293cb79!2sUniversity%20of%20Jhang%20ghazali%20college!5e0!3m2!1sen!2s!4v1612248220089!5m2!1sen!2s,,,/english/universities/PublishingImages/University%20of%20Jhang.jpg,6/16/2015,Public,Government of Punjab,Jhang,Punjab,Yes,No
University of Karachi,General,Karachi,"University Road, Karachi 75270. +92-21-99261336-7",http://www.uok.edu.pk,https://www.google.com/maps/embed?pb=!1m18!1m12!1m3!1d3617.7663621054226!2d67.11874131452505!3d24.94002794820711!2m3!1f0!2f0!3f0!3m2!1i1024!2i768!4f13.1!3m3!1m2!1s0x3eb338980b4615af%3A0xe968e4f0fd0119cd!2sUniversity+of+Karachi!5e0!3m2!1sen!2s!4v1468920205114,,,/Style%20Library/HEC/images/Placeholder-Image-Content.png,12/28/1972,Public,Government of Sindh,Karachi,Sindh,Yes,No
University of Kotli,General,Mian Campus,"Kotli, Azad Jammu & Kashmir, Pakistan Tel # +92 5826 960044 Email: info@uokajk.edu.pk",https://www.uokajk.edu.pk,https://www.google.com/maps/embed?pb=!1m18!1m12!1m3!1d818.283486990207!2d73.90155261927151!3d33.48453225455105!2m3!1f0!2f0!3f0!3m2!1i1024!2i768!4f13.1!3m3!1m2!1s0x14e3c3cb1fc05bed%3A0x92d313a2a8bb2347!2sUniversity+of+Management+Sciences+%26+Information+Technology!5e0!3m2!1sen!2s!4v1468505700250,,,/english/universities/PublishingImages/University%20of%20Kotli.png,1/2/2014,Public,Government of AJK,Kotli,Azad Jammu & Kashmir,Yes,No
University of Lahore,General,Lahore,"1-K.M, Raiwind Road, Lahore. +92-42-35963421-30",http://www.uol.edu.pk/,https://www.google.com/maps/embed?pb=!1m18!1m12!1m3!1d3403.473959803752!2d74.24233831467248!3d31.456145857458964!2m3!1f0!2f0!3f0!3m2!1i1024!2i768!4f13.1!3m3!1m2!1s0x3919018b7f74bd7f%3A0xd22d91bbd19026b3!2sUniversity+College+Lahore!5e0!3m2!1sen!2s!4v1469022399448,,,/Style%20Library/HEC/images/Placeholder-Image-Content.png,10/2/2002,Private,Government of Punjab,Lahore,Punjab,Yes,No
University of Lakki Marwat,General,Mian Campus,"University of Lakki Marwat Mianwali Road, Lakki Marwat Khyber Pakhtunkhwa Pakistan Tel #   0092-969-511819 Email:   ulm_2017@outlook.com",http://www.ulm.edu.pk,https://www.google.com/maps/embed?pb=!1m18!1m12!1m3!1d3360.6996474772745!2d70.89078631452938!3d32.614186881021496!2m3!1f0!2f0!3f0!3m2!1i1024!2i768!4f13.1!3m3!1m2!1s0x3927bf0a9e88449f%3A0xfbaacc50e77bdf!2sUniversity+of+Lakki+Marwat+Campus!5e0!3m2!1sen!2s!4v1556872713037!5m2!1sen!2s,,,/english/universities/PublishingImages/University%20of%20Lakki%20Marwat-New%20logo.jpg,2/26/2018,Public,Government of Khyber Pakhtunkhwa,Lakki Marwat,Khyber Pakhtunkhwa,Yes,No
University of Layyah,General,Mian Campus,"Katchehry Road, Layyah. Tel # +92-0606-920237-39,920249 Email: info@ul.edu.pk",https://ul.edu.pk/,https://www.google.com/maps/embed?pb=!1m18!1m12!1m3!1d3419.2209174328277!2d70.95582677474857!3d31.02009407168966!2m3!1f0!2f0!3f0!3m2!1i1024!2i768!4f13.1!3m3!1m2!1s0x3925a5cc67e4f25b%3A0xf9787b60cea61148!2sUniversity%20of%20Layyah!5e0!3m2!1sen!2s!4v1692698384027!5m2!1sen!2s,,,/english/universities/PublishingImages/University%20of%20Layyah-.jfif,12/8/2022,Public,Government of Punjab,Layyah,Punjab,Yes,No
University of Loralai,General,Loralai,"College Road, Loralai at Loralai Zhob Division, Balochistan. +92-824-410782",http://www.uoli.edu.pk/,https://www.google.com/maps/embed?pb=!1m18!1m12!1m3!1d3441.398285956693!2d68.55519681464595!3d30.396439808814097!2m3!1f0!2f0!3f0!3m2!1i1024!2i768!4f13.1!3m3!1m2!1s0x392dc9b32c03b8b1%3A0x30c135e77261314c!2sUniversity+Rd%2C+Loralai%2C+Pakistan!5e0!3m2!1sen!2s!4v1468614475429,,,/Style%20Library/HEC/images/Placeholder-Image-Content.png,9/27/2012,Public,Government of Balochistan,Loralai,Balochistan,Yes,No
"University of Makran, Panjgur",General,Mian Campus,"Panjgur District Panjgur, Balochistan-Pakistan Tel # 0092-855-642053 Email:  info@uomp.edu.pk",https://uomp.edu.pk/,https://www.google.com/maps/embed?pb=!1m18!1m12!1m3!1d3555.9950758422574!2d64.10027227450716!3d26.967055257754783!2m3!1f0!2f0!3f0!3m2!1i1024!2i768!4f13.1!3m3!1m2!1s0x3ec633bb363132cb%3A0x6c60de9e8ad331d8!2zVW5pdmVyc2l0eSBvZiBNYWtyYW4g2KzYp9mF2LnbgSDZhdqp2LHYp9mG!5e0!3m2!1sen!2s!4v1718865273096!5m2!1sen!2s,,,/english/universities/PublishingImages/University%20of%20Makran.jpeg,4/21/2024,Public,Government of Balochistan,Punjgur,Balochistan,Yes,No
University of Malakand,General,Malakand,"Chakdara, Dir, Lower, Malakand Khyber Pakhtunkhwa +92-945-763441",http://www.uom.edu.pk/,https://www.google.com/maps/embed?pb=!1m18!1m12!1m3!1d3281.418007178432!2d72.05868241475848!3d34.669398192402596!2m3!1f0!2f0!3f0!3m2!1i1024!2i768!4f13.1!3m3!1m2!1s0x38dc0410fd8f6bd1%3A0xd9a1bdbac1a3aff4!2sUOM!5e0!3m2!1sen!2sus!4v1468705259836,,,/Style%20Library/HEC/images/Placeholder-Image-Content.png,10/27/2001,Public,Government of Khyber Pakhtunkhwa,Malakand,Khyber Pakhtunkhwa,Yes,No
University of Management & Technology,General,Lahore; Sialkot,"PO Box 10033, CII, Johar Town, Lahore. +92-42-35184790",http://www.umt.edu.pk/,https://www.google.com/maps/embed?pb=!1m18!1m12!1m3!1d3403.6541919946058!2d74.2910765146723!3d31.451185757702905!2m3!1f0!2f0!3f0!3m2!1i1024!2i768!4f13.1!3m3!1m2!1s0x39190143e0e99feb%3A0xf39379efff4dd86!2sUniversity+of+Management+%26+Technology!5e0!3m2!1sen!2s!4v1469022642137,,,/Style%20Library/HEC/images/umt02.jpg,6/16/2004,Private,Government of Punjab,Lahore,Punjab,Yes,No
University of Mianwali,General,Mian Campus,"University of Mianwali, Punjab Pakistan",https://umw.edu.pk/,https://www.google.com/maps/embed?pb=!1m18!1m12!1m3!1d3361.4165110111617!2d71.55527101471217!3d32.59508188102727!2m3!1f0!2f0!3f0!3m2!1i1024!2i768!4f13.1!3m3!1m2!1s0x392717f50b2168a9%3A0xb7282e394b237e3a!2sUniversity%20of%20Mianwali!5e0!3m2!1sen!2s!4v1589438183945!5m2!1sen!2s,,,/english/universities/PublishingImages/University%20of%20Mianwali.jpg,12/13/2019,Public,Government of Punjab,Mianwali,Punjab,Yes,No
University of Modern Sciences,General,Mian Campus,"Tando Muhammad Khan, Sindh-Pakistan Tel # +92 22 3409562-67 Email: info@ums.edu.pk",http://ums.edu.pk/,https://www.google.com/maps/embed?pb=!1m18!1m12!1m3!1d3611.824443855357!2d68.53016751448324!3d25.14162544012377!2m3!1f0!2f0!3f0!3m2!1i1024!2i768!4f13.1!3m3!1m2!1s0x394c3f8f7d46140f%3A0xe617250260590f8a!2sIndus%20Medical%20college%20%26%20Hospital!5e0!3m2!1sen!2s!4v1629112439915!5m2!1sen!2s,,,/english/universities/PublishingImages/TUMS.png,5/4/2018,Private,Government of Sindh,Tando Muhammad  Khan,Sindh,Yes,No
University of Narowal,General,Mian Campus,"University of Narowal College Road, Narowal, Pakistan +92-542-920049 info@uon.edu.pk",http://uon.edu.pk,https://www.google.com/maps/embed?pb=!1m18!1m12!1m3!1d3380.0731495001196!2d74.87278641461955!3d32.09430862578863!2m3!1f0!2f0!3f0!3m2!1i1024!2i768!4f13.1!3m3!1m2!1s0x39195471296167bf%3A0x3c61f167a2c35788!2sUniversity%20Of%20Narowal!5e0!3m2!1sen!2s!4v1572932067566!5m2!1sen!2s,,,/english/universities/PublishingImages/University%20of%20Narowal.jpg,3/20/2018,Public,Government of Punjab,Narowal,Punjab,Yes,No
University of Okara,General,Okara,"2 KM Multan Road Renala Khurd By Pass, Okara- Punjab Pakistan Tel # 0092-44-2636060 Email: info@uo.edu.pk",http://uo.edu.pk/,https://www.google.com/maps/embed?pb=!1m18!1m12!1m3!1d3424.236853636243!2d73.59814211468841!3d30.880034481586015!2m3!1f0!2f0!3f0!3m2!1i1024!2i768!4f13.1!3m3!1m2!1s0x39180c51814c9403%3A0x5c8aa6eee561727c!2suniversity+of+okara!5e0!3m2!1sen!2s!4v1544595588306&quot;,,,/english/universities/PublishingImages/University%20of%20OKara.png,2/23/2016,Public,Government of Punjab,Okara,Punjab,Yes,No
University of Peshawar,General,Mian Campus; Peshawar,"Old Jamrud Road, Peshawar. +92-91-9216469",http://www.upesh.edu.pk/,https://www.google.com/maps/embed?pb=!1m18!1m12!1m3!1d3307.651790855957!2d71.48494741473993!3d34.00147672785195!2m3!1f0!2f0!3f0!3m2!1i1024!2i768!4f13.1!3m3!1m2!1s0x38d92de8c4cd1d21%3A0x56a608fc5c4c5df6!2sUniversity+of+Peshawar!5e0!3m2!1sen!2sus!4v1468705741257,,,/Style%20Library/HEC/images/Placeholder-Image-Content.png,6/4/1965,Public,Government of Khyber Pakhtunkhwa,Peshawar,Khyber Pakhtunkhwa,Yes,No
University of Poonch,General,Poonch,"B-65, Housing Scheme, Rawalakot (Azad Kashmir) +92-5824-960050",http://www.upr.edu.pk,https://www.google.com/maps/embed?pb=!1m18!1m12!1m3!1d3313.7059256853827!2d73.77244061453982!3d33.84569373603518!2m3!1f0!2f0!3f0!3m2!1i1024!2i768!4f13.1!3m3!1m2!1s0x38e06bc100eec5a5%3A0x598138442c799865!2sUniversity+of+Poonch!5e0!3m2!1sen!2s!4v1468506391643,,,/Style%20Library/HEC/images/Placeholder-Image-Content.png,3/25/2014,Public,Government of AJK,Poonch,Azad Jammu & Kashmir,Yes,No
University of Sahiwal,General,Sahiwal,"University of Sahiwal, Farid Town Road, Sahiwal Punjab Pakistan Tel # +92-40-9200430, Fax # +92-40-9200430 Email: uosahiwal@gmail.com",http://www.uosahiwal.edu.pk/,https://www.google.com/maps/embed?pb=!1m18!1m12!1m3!1d27456.089677834206!2d73.09785624723552!3d30.6618128421968!2m3!1f0!2f0!3f0!3m2!1i1024!2i768!4f13.1!3m3!1m2!1s0x3922b7fc5f65c751%3A0xb5f17e730625a55!2sUniversity+of+Sahiwal!5e0!3m2!1sen!2s!4v1547099801811,,,/english/universities/PublishingImages/University%20of%20Sahiwal.jpg,6/16/2015,Public,Government of Punjab,Sahiwal,Punjab,Yes,No
University of Sargodha,General,Sargodha,"Main Campus University Road, Sargodha. +92-48-9230170",http://www.uos.edu.pk/,https://www.google.com/maps/embed?pb=!1m18!1m12!1m3!1d3380.8109835415557!2d72.68166391468834!3d32.07436072678683!2m3!1f0!2f0!3f0!3m2!1i1024!2i768!4f13.1!3m3!1m2!1s0x392177bfd683f3d5%3A0xa8090086de867b9d!2sUniversity+of+Sargodha!5e0!3m2!1sen!2s!4v1469022869927,,,/Style%20Library/HEC/images/Placeholder-Image-Content.png,11/16/2002,Public,Government of Punjab,Sargodha,Punjab,Yes,No
University of Science & Technology,General,Bannu,"Main Campus Township, Bannu. +92-928-633823, +92-928-633817-8",http://www.ustb.edu.pk/,https://www.google.com/maps/embed?pb=!1m18!1m12!1m3!1d3345.071193712872!2d70.69830271471352!3d33.02825477844063!2m3!1f0!2f0!3f0!3m2!1i1024!2i768!4f13.1!3m3!1m2!1s0x38d809746aecbe9f%3A0xf5b3af700222481!2sUniversity+of+Science+and+Technology%2C+Bannu!5e0!3m2!1sen!2sus!4v1468706063181,,,/Style%20Library/HEC/images/Placeholder-Image-Content.png,8/6/2005,Public,Government of Pakistan,Bannu,Khyber Pakhtunkhwa,Yes,No
"University of Sialkot, Sialkot",General,Sialkot,"University of Sialkot 01-Km, Main Daska Road, Sailkot Pakistan Tel # +92-52-3575518-21 Email: info@uskt.edu.pk",http://www.uskt.edu.pk,https://www.google.com/maps/embed?pb=!1m18!1m12!1m3!1d3366.2893562168356!2d74.51207491478732!3d32.464951481067395!2m3!1f0!2f0!3f0!3m2!1i1024!2i768!4f13.1!3m3!1m2!1s0x391ec1fa58d5be41%3A0x4798a62d873730fd!2sUniversity+of+Gujrat+(Sialkot+Campus)!5e0!3m2!1sen!2s!4v1526536803124,,,/english/universities/PublishingImages/University%20of%20Sialkot.png,3/20/2018,Private,Government of Punjab,Sialkot,Punjab,Yes,No
University of Sindh,General,Mirpur Khas,"Campus Rd, Jamshoro, Sindh +92-22-9213150, +92-22-9213155, +92-22-9213153",http://www.usindh.edu.pk,https://www.google.com/maps/embed?pb=!1m18!1m12!1m3!1d3603.54898895049!2d68.26280981453462!3d25.41990332886803!2m3!1f0!2f0!3f0!3m2!1i1024!2i768!4f13.1!3m3!1m2!1s0x394c79699805370b%3A0x269a508c0bc6a24b!2sUniversity+of+Sindh!5e0!3m2!1sen!2s!4v1468921246100,,,/Style%20Library/HEC/images/Placeholder-Image-Content.png,12/28/1972,Public,Government of Sindh,Mirpur Khas,Sindh,Yes,No
University of South Asia,General,Lahore,"47-Tufail Road, Lahore Cantt. +92-42-36672943, +92-42-366 50983, +92-42-36672942 +92-42-366 73394042, +92-42-36673701, +92-42-6672942",http://www.usa.edu.pk/,https://www.google.com/maps/embed?pb=!1m18!1m12!1m3!1d3400.682247749534!2d74.37598541467439!3d31.532886053679988!2m3!1f0!2f0!3f0!3m2!1i1024!2i768!4f13.1!3m3!1m2!1s0x3919050d90b4fac3%3A0xa46dbb2def95e45a!2sUniversity+of+South+Asia!5e0!3m2!1sen!2s!4v1469023064280,,,/Style%20Library/HEC/images/Placeholder-Image-Content.png,7/9/2005,Private,Government of Punjab,Lahore,Punjab,Yes,No
"University of Sufism and Modern Sciences, Bhitshah Sindh",General,Mian Campus,"The University of Sufism and Modern Sciences,  Bhit Shah, Sindh. Tel # + 92 22 2762415 Fax # + 92 22 2762415 Email: info@usms.edu.pk",http://usms.edu.pk,https://www.google.com/maps/embed?pb=!1m18!1m12!1m3!1d3592.110967666632!2d68.48864811449678!3d25.799912913315648!2m3!1f0!2f0!3f0!3m2!1i1024!2i768!4f13.1!3m3!1m2!1s0x394b9586abb445d9%3A0x4061300801f98168!2sUniversity+of+Sufism+and+Modern+Sciences!5e0!3m2!1sen!2s!4v1560253521798!5m2!1sen!2s,,,/english/universities/PublishingImages/University%20of%20Sufism-Bhitshah.png,5/22/2019,Public,Government of Sindh,Bhit Shah,Sindh,Yes,No
University of Swabi,General,Swabi,"Anbar Swabi, Ambar, KPK. +92-938-490238",http://www.uoswabi.edu.pk/,https://www.google.com/maps/embed?pb=!1m18!1m12!1m3!1d3305.5132735645034!2d72.40661161474135!3d34.056354424961874!2m3!1f0!2f0!3f0!3m2!1i1024!2i768!4f13.1!3m3!1m2!1s0x38dee68ec7884235%3A0x80c153e228e7825b!2sUniversity+of+Swabi!5e0!3m2!1sen!2sus!4v1468706587479,,,/Style%20Library/HEC/images/Placeholder-Image-Content.png,7/3/2012,Public,Government of Pakistan,Swabi,Khyber Pakhtunkhwa,Yes,No
University of Swat,General,Swat,"G.T Road, Odigram, Swat, Khyber Pakhtunkhwa. +92-946-924 00060946, +92-946-724149",http://www.uswat.edu.pk/,https://www.google.com/maps/embed?pb=!1m18!1m12!1m3!1d3275.085550706711!2d72.35155421476291!3d34.82894148384775!2m3!1f0!2f0!3f0!3m2!1i1024!2i768!4f13.1!3m3!1m2!1s0x38dc3d7a44b5d9b5%3A0xbd83e663a6a50841!2sUniversity+of+Swat!5e0!3m2!1sen!2sus!4v1468706989702,,,/Style%20Library/HEC/images/Placeholder-Image-Content.png,7/7/2010,Public,Government of Khyber Pakhtunkhwa,Swat,Khyber Pakhtunkhwa,Yes,No
University of the Punjab,General,Gujranwala; Jhelum,"Quaid-e-Azam Campus, Lahore. +92-42-99231098-9, +92-42-35840735",http://www.pu.edu.pk/,https://www.google.com/maps/embed?pb=!1m18!1m12!1m3!1d601.3772122805939!2d74.30544654229887!3d31.499343382330203!2m3!1f0!2f0!3f0!3m2!1i1024!2i768!4f13.1!3m3!1m2!1s0x3919038ed36ab21b%3A0x8eac1492d48fba56!2sPunjab+University%2C+Lahore%2C+Pakistan!5e0!3m2!1sen!2s!4v1468931907343,,,/english/universities/PublishingImages/University%20of%20Punjab.jpeg,5/16/1973,Public,Government of Punjab,Lahore,Punjab,Yes,No
University of Turbat,General,Turbat,"Overseas Colony, Airport Road, Turbat Balochistan. +92-85-414498",http://www.uot.edu.pk,https://www.google.com/maps/embed?pb=!1m18!1m12!1m3!1d3586.2851632160255!2d63.037614214546345!3d25.99147450539624!2m3!1f0!2f0!3f0!3m2!1i1024!2i768!4f13.1!3m3!1m2!1s0x3ec75874987de501%3A0xc54aeb99060ae3ee!2sUniversity+of+Turbat!5e0!3m2!1sen!2s!4v1468614933649,,,/Style%20Library/HEC/images/Placeholder-Image-Content.png,6/28/2012,Public,Government of Balochistan,Turbat,Balochistan,Yes,No
University of Veterinary & Animal Sciences,General,Jhang; Lahore,"Shaykh Abdul Qadir Jilani Roadd, Lahore 54000. +92-42-99211476, +92-42-99211374, +92-42-99211449",http://www.uvas.edu.pk/,https://www.google.com/maps/embed?pb=!1m18!1m12!1m3!1d3399.1082316938196!2d74.2973213146755!3d31.57607975154939!2m3!1f0!2f0!3f0!3m2!1i1024!2i768!4f13.1!3m3!1m2!1s0x39191cbcb1368ac1%3A0x975e1ca1dd8ee2ee!2sUniversity+of+Veterinary+and+Animal+Sciences!5e0!3m2!1sen!2s!4v1469023344164,,,/Style%20Library/HEC/images/Placeholder-Image-Content.png,6/8/2002,Public,Government of Punjab,Lahore,Punjab,Yes,No
University of Wah,General,Rawalpindi,"Quaid Avenue, The Mall. Wah Cantt. +92-51-4534993, +92-51-905522255, +92-51-905522256",http://www.uw.edu.pk,https://www.google.com/maps/embed?pb=!1m18!1m12!1m3!1d3317.735984955999!2d72.78842591473273!3d33.74164254148228!2m3!1f0!2f0!3f0!3m2!1i1024!2i768!4f13.1!3m3!1m2!1s0x38dfa6bade019e11%3A0x5eac7be020a9f19c!2sUniversity+of+Wah!5e0!3m2!1sen!2s!4v1469023955612,,,/Style%20Library/HEC/images/UW%20Front%20Gate-IMG_3161.jpg,7/8/2009,Private,Government of Punjab,Rawalpindi,Punjab,Yes,No
Virtual University of Pakistan,General,Badin; Ghotki; Hyderabad; Jhelum; Kachhi; Lahore; Muzaffargarh; Peshawar; Pishin,"M.A. Jinnah Campus, Defence Road, Off Raiwind Road, Lahore. +92-42-99203901",http://www.vu.edu.pk/,https://www.google.com/maps/embed?pb=!1m18!1m12!1m3!1d3405.513469609311!2d74.21079141467105!3d31.399976260219727!2m3!1f0!2f0!3f0!3m2!1i1024!2i768!4f13.1!3m3!1m2!1s0x3918ffd9933a7f83%3A0x5f4bbbe996f5e83e!2sVirtual+University+of+Pakistan!5e0!3m2!1sen!2s!4v1469024279050,,,/Style%20Library/HEC/images/Placeholder-Image-Content.png,9/11/2002,Public,Government of Pakistan,Lahore,Punjab,Yes,No
Women University Mardan,General,Mardan,"PO Box 1212, Canal Road Mardan, KP +937 871 416 pstovc@wumardan.edu.pk webmaster@wumardan.edu.pk",http://www.wumardan.edu.pk,https://www.google.com/maps/embed?pb=!1m14!1m8!1m3!1d13202.141967691985!2d72.0386569!3d34.183792!3m2!1i1024!2i768!4f13.1!3m3!1m2!1s0x0%3A0x6294b484a1d1b202!2sWomen%20University%20Mardan!5e0!3m2!1sen!2s!4v1640772647168!5m2!1sen!2s,,,/english/universities/PublishingImages/Placeholder-Image-Content.png,1/1/2016,Public,Government of Khyber Pakhtunkhwa,Mardan,Khyber Pakhtunkhwa,Yes,No
Women University of Azad Jammu & Kashmir,General,Bagh,"Women University of Azad Jammu & Kashmir, Bagh Campus",https://www.wuajk.edu.pk/,https://www.google.com/maps/embed?pb=!1m18!1m12!1m3!1d3308.474131527947!2d73.76372831454383!3d33.98035342896382!2m3!1f0!2f0!3f0!3m2!1i1024!2i768!4f13.1!3m3!1m2!1s0x38e0666929141a51%3A0x6d8e4d4ffa7f486a!2sWomen+University+of+AJ%26K%2C+Bagh!5e0!3m2!1sen!2s!4v1468507601920,,,/Style%20Library/HEC/images/Placeholder-Image-Content.png,3/25/2014,Public,Government of AJK,Bagh,Azad Jammu & Kashmir,Yes,No
"Women University, Swabi",General,Mian Campus,"Guloo Dehri, Topi Road, Swabi +92-938-224222, +92-938-221138",http://www.wus.edu.pk/,https://www.google.com/maps/embed?pb=!1m18!1m12!1m3!1d422723.2353816256!2d72.20155511509675!3d34.13290114244283!2m3!1f0!2f0!3f0!3m2!1i1024!2i768!4f13.1!3m3!1m2!1s0x38deef9bcc690047%3A0x6ace14edc7843a75!2sSwabi%2C+Pakistan!5e0!3m2!1sen!2s!4v1469171212950,,,/english/universities/PublishingImages/Women%20University%20Swabi.jfif,1/1/2012,Public,Government of Khyber Pakhtunkhwa,Swabi,Khyber Pakhtunkhwa,Yes,No
Zia-ud-Din University,General,Karachi,"4/B, Shahra-e-Ghalib, Block 6, Clifton, Karachi 75600. +92-21-35305451, +92-21- 35833674",http://www.zu.edu.pk,https://www.google.com/maps/embed?pb=!1m18!1m12!1m3!1d3618.1281527271385!2d67.03924381452482!3d24.927703848699295!2m3!1f0!2f0!3f0!3m2!1i1024!2i768!4f13.1!3m3!1m2!1s0x3eb33f9c9222bbc7%3A0xddac8402947a85c0!2sZiauddin+University!5e0!3m2!1sen!2s!4v1468921539457,,,/Style%20Library/HEC/images/Placeholder-Image-Content.png,12/13/2005,Private,Government of Sindh,Karachi,Sindh,Yes,No
